{"type": "Feature", "properties": {"name": "Arima", "display_name": "Arima, Trinidad and Tobago", "osm_type": "relation", "osm_id": 11146288, "category": "boundary", "type": "administrative", "source": "OpenStreetMap / Nominatim", "license": "ODbL"}, "geometry": {"type": "Polygon", "coordinates": [[[-61.297543, 10.6144305], [-61.2932329, 10.6106322], [-61.291489, 10.6097316], [-61.2896957, 10.6088413], [-61.2878841, 10.6078998], [-61.2868456, 10.6076389], [-61.2853385, 10.6072705], [-61.2837065, 10.606833], [-61.2816815, 10.6063341], [-61.2797346, 10.6059146], [-61.2760906, 10.6051547], [-61.2733551, 10.6057636], [-61.2721452, 10.606022], [-61.2720137, 10.6060503], [-61.2714346, 10.6061793], [-61.2712624, 10.6062164], [-61.2700338, 10.6068253], [-61.2680375, 10.6078154], [-61.2679833, 10.6078211], [-61.2677829, 10.6078424], [-61.267385, 10.6078846], [-61.266722, 10.6079549], [-61.2664211, 10.6079868], [-61.2662119, 10.6080092], [-61.2659478, 10.6080374], [-61.265282, 10.6081085], [-61.2631884, 10.6083322], [-61.2626366, 10.6105221], [-61.2626105, 10.6116094], [-61.262647, 10.6132135], [-61.2639276, 10.6143059], [-61.2658198, 10.6159202], [-61.266304, 10.6170381], [-61.2671915, 10.6190694], [-61.2679125, 10.6207655], [-61.2679177, 10.62195], [-61.2678995, 10.6240043], [-61.2678917, 10.6256543], [-61.2678655, 10.6284298], [-61.2678583, 10.6302501], [-61.2678727, 10.6310307], [-61.2686472, 10.6325777], [-61.2694403, 10.634191], [-61.2692932, 10.6350552], [-61.2689218, 10.6373088], [-61.2687273, 10.6394493], [-61.2685298, 10.6417579], [-61.2683088, 10.6443966], [-61.2692814, 10.6450599], [-61.2706519, 10.645981], [-61.2710069, 10.6462253], [-61.2721255, 10.6469948], [-61.2746807, 10.6485183], [-61.2773126, 10.6499521], [-61.2798089, 10.6513019], [-61.2826412, 10.6530948], [-61.2859686, 10.6552555], [-61.2897499, 10.6552439], [-61.291907, 10.6531225], [-61.2907854, 10.6497475], [-61.2903041, 10.6461062], [-61.288723, 10.6434108], [-61.2914029, 10.6413369], [-61.2910653, 10.6402239], [-61.290369, 10.6381017], [-61.2898341, 10.6364649], [-61.2910143, 10.6345356], [-61.2914672, 10.6338363], [-61.2925487, 10.6321668], [-61.2912193, 10.6289493], [-61.2898838, 10.6262385], [-61.2904304, 10.6230088], [-61.291238, 10.6204017], [-61.2920952, 10.6176359], [-61.2969716, 10.6170987], [-61.297543, 10.6144305]]]}, "bbox": [-61.297543, 10.6051547, -61.2626105, 10.6552555]}