{"type": "Feature", "properties": {"name": "Cascade", "display_name": "Cascade River Gardens, Saint Ann's, San Juan-Laventille, Trinidad and Tobago", "osm_type": "way", "osm_id": 256656087, "category": "landuse", "type": "residential", "source": "OpenStreetMap / Nominatim", "license": "ODbL"}, "geometry": {"type": "Polygon", "coordinates": [[[-61.496418, 10.679119], [-61.4961015, 10.6786024], [-61.4953773, 10.6784126], [-61.4950125, 10.679351], [-61.4952003, 10.6795987], [-61.4962893, 10.6794248], [-61.496418, 10.679119]]]}, "bbox": [-61.496418, 10.6784126, -61.4950125, 10.6795987]}