{"type": "Feature", "properties": {"name": "Chaguanas", "display_name": "Chaguanas, Trinidad and Tobago", "osm_type": "relation", "osm_id": 7363641, "category": "boundary", "type": "administrative", "source": "OpenStreetMap / Nominatim", "license": "ODbL"}, "geometry": {"type": "Polygon", "coordinates": [[[-61.4682953, 10.5232473], [-61.4622636, 10.5226138], [-61.4622119, 10.5226138], [-61.4482592, 10.5211669], [-61.4466468, 10.5207606], [-61.4416963, 10.5195133], [-61.4342808, 10.5148624], [-61.4247723, 10.5130537], [-61.4172017, 10.5068525], [-61.4050577, 10.5031318], [-61.3795038, 10.5049405], [-61.3725274, 10.5111933], [-61.371313, 10.5211669], [-61.3644917, 10.5442663], [-61.3689618, 10.5655053], [-61.4097603, 10.5662804], [-61.4410245, 10.5649885], [-61.4606099, 10.5381168], [-61.4622119, 10.5381168], [-61.4636242, 10.5381083], [-61.4637637, 10.5377048], [-61.4637986, 10.5372961], [-61.4639568, 10.5368452], [-61.4642921, 10.5364602], [-61.4645845, 10.5363046], [-61.4647293, 10.5362281], [-61.4647762, 10.5361173], [-61.4647695, 10.5360185], [-61.4646944, 10.5358695], [-61.4644396, 10.5355504], [-61.4640963, 10.5353236], [-61.4636886, 10.535197], [-61.4634472, 10.5350889], [-61.4633667, 10.5350045], [-61.4633426, 10.534878], [-61.4633989, 10.5347712], [-61.4635719, 10.5347092], [-61.463871, 10.5346644], [-61.4640427, 10.5346314], [-61.4641272, 10.5345853], [-61.4641687, 10.5345345], [-61.4642049, 10.5344442], [-61.4642358, 10.534398], [-61.4642961, 10.5343624], [-61.4644517, 10.5343097], [-61.464563, 10.5341976], [-61.4646783, 10.5339946], [-61.4647561, 10.533806], [-61.4647293, 10.5336781], [-61.4646649, 10.5335726], [-61.464335, 10.5334593], [-61.4643122, 10.5334269], [-61.4643216, 10.5333854], [-61.4643518, 10.5333577], [-61.46439, 10.5333531], [-61.4645255, 10.5333815], [-61.4645858, 10.5333577], [-61.464622, 10.5333208], [-61.4646837, 10.5332087], [-61.4646998, 10.5330347], [-61.4646891, 10.532982], [-61.4646596, 10.5329582], [-61.4645657, 10.5329239], [-61.4644638, 10.5328949], [-61.4644182, 10.5328633], [-61.4644074, 10.5328185], [-61.4644316, 10.5327815], [-61.4644718, 10.5327552], [-61.464563, 10.5327763], [-61.4646623, 10.532829], [-61.4647132, 10.5328316], [-61.4647535, 10.5328079], [-61.4648339, 10.5326892], [-61.4648983, 10.532589], [-61.4650056, 10.5324915], [-61.4650592, 10.5324546], [-61.4651048, 10.5324176], [-61.465129, 10.5323702], [-61.4651156, 10.5323227], [-61.4650834, 10.5322858], [-61.4649546, 10.5321909], [-61.4648822, 10.5321381], [-61.4648151, 10.5321038], [-61.4647508, 10.532059], [-61.4646944, 10.5319904], [-61.4646623, 10.5319061], [-61.4646435, 10.5318269], [-61.4646703, 10.5317426], [-61.4647508, 10.5316397], [-61.4649224, 10.5314841], [-61.4649761, 10.5313892], [-61.4649814, 10.5313101], [-61.4649546, 10.5311993], [-61.4649224, 10.5311519], [-61.4648366, 10.5310437], [-61.4647588, 10.5309699], [-61.4646918, 10.5309383], [-61.4646408, 10.5309277], [-61.4646006, 10.5309066], [-61.4645979, 10.5308855], [-61.4646086, 10.5308671], [-61.4646864, 10.5308407], [-61.4647239, 10.5308038], [-61.4647239, 10.5307774], [-61.4647025, 10.5307378], [-61.4646488, 10.5306904], [-61.4646381, 10.5306429], [-61.4646515, 10.5306218], [-61.4646944, 10.5306139], [-61.4647722, 10.5306113], [-61.4648017, 10.5305954], [-61.4648125, 10.5305453], [-61.4648071, 10.5304451], [-61.464791, 10.5303845], [-61.4647132, 10.5302922], [-61.4646649, 10.5301682], [-61.4646381, 10.5300232], [-61.464622, 10.5298624], [-61.4646328, 10.529807], [-61.4646623, 10.5297701], [-61.4647105, 10.529749], [-61.464791, 10.5297226], [-61.4649385, 10.5296567], [-61.4649895, 10.5296382], [-61.4650324, 10.5296039], [-61.4650646, 10.5295248], [-61.4650914, 10.5294431], [-61.4651209, 10.5293666], [-61.4651316, 10.5293033], [-61.465137, 10.529211], [-61.4651424, 10.5291767], [-61.4651719, 10.5291556], [-61.465255, 10.529124], [-61.4652953, 10.5290712], [-61.4653087, 10.5290159], [-61.4652953, 10.5289368], [-61.4652765, 10.5288761], [-61.4652523, 10.5287943], [-61.4652416, 10.5287363], [-61.4652175, 10.5286625], [-61.4651719, 10.5285834], [-61.4651343, 10.5285728], [-61.4651155, 10.5285333], [-61.4651129, 10.5284885], [-61.4651692, 10.5284225], [-61.465196, 10.5283566], [-61.4652014, 10.528288], [-61.4651826, 10.5281878], [-61.4651451, 10.5281166], [-61.4650995, 10.5280718], [-61.4649734, 10.527998], [-61.4648983, 10.5279083], [-61.4648849, 10.5278608], [-61.4648956, 10.5278213], [-61.4649251, 10.5277685], [-61.4649949, 10.5277184], [-61.4650807, 10.5276604], [-61.4651692, 10.5276129], [-61.4652148, 10.5275708], [-61.4652282, 10.5275233], [-61.4652175, 10.5274626], [-61.465188, 10.5273993], [-61.4651558, 10.5273097], [-61.4651129, 10.5271066], [-61.4651129, 10.5270776], [-61.4651343, 10.5270565], [-61.4652014, 10.5270354], [-61.4653247, 10.5269999], [-61.4653838, 10.5269708], [-61.4654186, 10.5269379], [-61.4654508, 10.5268508], [-61.4654535, 10.5267032], [-61.4654401, 10.5265819], [-61.4654025, 10.5264579], [-61.465365, 10.5263788], [-61.4653194, 10.5263129], [-61.4653087, 10.5262417], [-61.4653207, 10.5262008], [-61.4653677, 10.5261388], [-61.4654347, 10.5260571], [-61.4655179, 10.5259859], [-61.4655957, 10.525941], [-61.465703, 10.5258804], [-61.4658719, 10.5257881], [-61.4660892, 10.5256905], [-61.466175, 10.5256457], [-61.4662501, 10.5256061], [-61.4663306, 10.525556], [-61.4664191, 10.5255244], [-61.4664996, 10.5255007], [-61.4665586, 10.5254585], [-61.4665908, 10.5253846], [-61.4665908, 10.5253108], [-61.4665827, 10.5252528], [-61.4666745, 10.5250883], [-61.466749, 10.5249601], [-61.4668, 10.5249258], [-61.4668429, 10.5248862], [-61.4668724, 10.5248335], [-61.4669126, 10.5247807], [-61.4670092, 10.5247174], [-61.4671594, 10.5246436], [-61.4672104, 10.5245961], [-61.4672264, 10.5245408], [-61.4672238, 10.5244748], [-61.4672425, 10.5244274], [-61.4672801, 10.5244036], [-61.4673257, 10.5244063], [-61.4674464, 10.5244195], [-61.4675215, 10.5244089], [-61.4675805, 10.5243825], [-61.46761, 10.5243272], [-61.467602, 10.5242586], [-61.46761, 10.5242058], [-61.4679359, 10.5237004], [-61.4682953, 10.5232473]]]}, "bbox": [-61.4682953, 10.5031318, -61.3644917, 10.5662804]}