{"type": "Feature", "properties": {"name": "Champs Fleurs", "display_name": "The Shops at Champs Fleurs, Eastern Main Road, Petit Bourg, Champ Fleurs, San Juan-Laventille, 310401, Trinidad and Tobago", "osm_type": "way", "osm_id": 146542617, "category": "shop", "type": "mall", "source": "OpenStreetMap / Nominatim", "license": "ODbL"}, "geometry": {"type": "Polygon", "coordinates": [[[-61.4276258, 10.6505786], [-61.4276191, 10.650452], [-61.426608, 10.6505036], [-61.4266147, 10.6506302], [-61.4276258, 10.6505786]]]}, "bbox": [-61.4276258, 10.650452, -61.426608, 10.6506302]}