{"type": "Feature", "properties": {"name": "Couva", "display_name": "Couva, Couva-Tabaquite-Talparo, Trinidad and Tobago", "osm_type": "way", "osm_id": 566476581, "category": "place", "type": "town", "source": "OpenStreetMap / Nominatim", "license": "ODbL"}, "geometry": {"type": "Polygon", "coordinates": [[[-61.5028033, 10.4175595], [-61.4984802, 10.4155528], [-61.4962151, 10.4084912], [-61.4956051, 10.4004086], [-61.4945321, 10.3913543], [-61.494244, 10.3774076], [-61.484624, 10.3744515], [-61.4794367, 10.371757], [-61.4760053, 10.3679433], [-61.46886, 10.3688076], [-61.4676359, 10.369676], [-61.463355, 10.371217], [-61.4597741, 10.3661169], [-61.4525711, 10.3646928], [-61.449096, 10.3713411], [-61.4433394, 10.3706267], [-61.4364291, 10.377202], [-61.420659, 10.3757569], [-61.4178302, 10.3848956], [-61.4057805, 10.3846067], [-61.4003635, 10.3985691], [-61.3960629, 10.4101591], [-61.3905894, 10.4265988], [-61.4105422, 10.4317815], [-61.413581, 10.4314634], [-61.4120261, 10.4412818], [-61.421862, 10.4424957], [-61.4290433, 10.4633588], [-61.4292759, 10.4650493], [-61.4293185, 10.4654104], [-61.4294542, 10.4664215], [-61.4747527, 10.4799418], [-61.4842327, 10.4645085], [-61.4875721, 10.450846], [-61.492006, 10.4321947], [-61.4939943, 10.4279079], [-61.50001, 10.4201357], [-61.5000348, 10.4201037], [-61.5001136, 10.4200313], [-61.5028033, 10.4175595]]]}, "bbox": [-61.5028033, 10.3646928, -61.3905894, 10.4799418]}