{"type": "Feature", "properties": {"name": "Cumuto", "display_name": "Cumuto Reserve, Guaico, Sangre Grande, Trinidad and Tobago", "osm_type": "way", "osm_id": 117032126, "category": "natural", "type": "wood", "source": "OpenStreetMap / Nominatim", "license": "ODbL"}, "geometry": {"type": "Polygon", "coordinates": [[[-61.2019242, 10.5805583], [-61.2018491, 10.5800558], [-61.2010826, 10.5799524], [-61.2008666, 10.5793828], [-61.2006797, 10.578843], [-61.2001293, 10.5785255], [-61.2, 10.578275], [-61.1995832, 10.5781801], [-61.1986761, 10.578071], [-61.198648, 10.5778916], [-61.1988427, 10.5777246], [-61.1991975, 10.5774202], [-61.1995735, 10.5773875], [-61.1997735, 10.5776468], [-61.1999566, 10.5775167], [-61.2000655, 10.577039], [-61.2, 10.5767869], [-61.1996374, 10.5766292], [-61.1993917, 10.5763956], [-61.1991251, 10.5760792], [-61.198579, 10.5761736], [-61.1972234, 10.5763645], [-61.1963227, 10.5759632], [-61.1958303, 10.5756368], [-61.1955701, 10.5749945], [-61.1957305, 10.5741603], [-61.195724, 10.5724507], [-61.1956468, 10.5716185], [-61.1961655, 10.5720135], [-61.1969439, 10.5716802], [-61.1971805, 10.5712932], [-61.1975753, 10.5717461], [-61.1979159, 10.5723394], [-61.1979326, 10.5726405], [-61.1981675, 10.5728008], [-61.1984674, 10.5727792], [-61.1986235, 10.5720947], [-61.1982823, 10.5715974], [-61.1977931, 10.5708486], [-61.1973725, 10.5702891], [-61.1959552, 10.5699031], [-61.1950803, 10.5697518], [-61.1951513, 10.5707319], [-61.1938985, 10.570364], [-61.1934898, 10.5698694], [-61.1932124, 10.569341], [-61.1929083, 10.5691738], [-61.1924281, 10.5692603], [-61.1920535, 10.5691506], [-61.1921238, 10.5702222], [-61.1921415, 10.5738129], [-61.1921515, 10.5766425], [-61.1920918, 10.5774513], [-61.1913145, 10.5775869], [-61.1901772, 10.5766915], [-61.1904337, 10.5738755], [-61.1917436, 10.5735797], [-61.1918177, 10.5729801], [-61.1917286, 10.5724296], [-61.1916058, 10.5719059], [-61.1906488, 10.5715864], [-61.1901247, 10.5712272], [-61.1895877, 10.5706683], [-61.189438, 10.5699722], [-61.1891575, 10.5698034], [-61.188621, 10.5698456], [-61.1883973, 10.5699949], [-61.1881495, 10.56992], [-61.1880363, 10.5696895], [-61.1877616, 10.5696363], [-61.1874623, 10.5697618], [-61.1871168, 10.570037], [-61.1872424, 10.5701894], [-61.1875272, 10.5702153], [-61.1879344, 10.5705327], [-61.1879483, 10.5708091], [-61.1875052, 10.5709008], [-61.1873727, 10.5711682], [-61.1875889, 10.5716728], [-61.1873856, 10.5722207], [-61.1871721, 10.5726526], [-61.1874028, 10.5730545], [-61.1875497, 10.5736003], [-61.187163, 10.5742547], [-61.1862719, 10.575014], [-61.1834267, 10.5766598], [-61.1824825, 10.5770089], [-61.1823017, 10.577715], [-61.1818903, 10.5785498], [-61.1807498, 10.5783742], [-61.1792403, 10.5766198], [-61.1753285, 10.5765644], [-61.1750887, 10.5768412], [-61.1752416, 10.5772077], [-61.1750351, 10.5775779], [-61.1744069, 10.5774034], [-61.174158, 10.5773142], [-61.1735631, 10.5774208], [-61.1733823, 10.5772346], [-61.1735819, 10.57701], [-61.1734698, 10.5767553], [-61.1731533, 10.5765755], [-61.1718218, 10.5765238], [-61.1705885, 10.5765227], [-61.1706298, 10.5766946], [-61.1709007, 10.5769024], [-61.1713696, 10.576991], [-61.1716303, 10.5772821], [-61.1718347, 10.5776723], [-61.1716614, 10.5779138], [-61.1700993, 10.5779481], [-61.1702205, 10.5828121], [-61.1704238, 10.5855204], [-61.1678405, 10.5855172], [-61.1675153, 10.5857434], [-61.167199, 10.5858835], [-61.1669731, 10.5853453], [-61.1674033, 10.585097], [-61.1676528, 10.5848584], [-61.1671794, 10.5822674], [-61.1674739, 10.5819816], [-61.1674815, 10.5813114], [-61.168454, 10.5810134], [-61.1698182, 10.5807598], [-61.1698402, 10.5794652], [-61.169138, 10.5794989], [-61.1688971, 10.5793392], [-61.1691745, 10.5789279], [-61.1698209, 10.5789199], [-61.1697865, 10.5776085], [-61.1691466, 10.5775879], [-61.16927, 10.5767073], [-61.1689223, 10.576769], [-61.1683097, 10.5767479], [-61.1681107, 10.5768175], [-61.1676928, 10.5771133], [-61.1667728, 10.5774007], [-61.1667434, 10.5780638], [-61.1665379, 10.5781374], [-61.1662015, 10.5781152], [-61.1657836, 10.5777461], [-61.1650246, 10.5776966], [-61.165046, 10.5780393], [-61.1650804, 10.5788548], [-61.1650809, 10.5788667], [-61.1646689, 10.5789706], [-61.1646592, 10.579298], [-61.1649301, 10.5792653], [-61.1655626, 10.5792458], [-61.1671387, 10.5793497], [-61.1670705, 10.5795506], [-61.1661784, 10.5795311], [-61.1662562, 10.5799498], [-61.1661602, 10.5809391], [-61.1658694, 10.5809491], [-61.1655374, 10.5809164], [-61.1654516, 10.5804022], [-61.1654167, 10.5795522], [-61.1644988, 10.5794979], [-61.1640681, 10.5796239], [-61.1638948, 10.5799804], [-61.16392, 10.5803258], [-61.164428, 10.581672], [-61.1650761, 10.5814137], [-61.1651683, 10.5817214], [-61.1649486, 10.5819531], [-61.1650044, 10.5823934], [-61.1646474, 10.5825305], [-61.1642126, 10.5824069], [-61.1634669, 10.5826136], [-61.1634546, 10.5828034], [-61.1629769, 10.5829489], [-61.1628602, 10.5826819], [-61.1625984, 10.5825282], [-61.1624777, 10.5822703], [-61.1630614, 10.5817957], [-61.1641332, 10.581454], [-61.1639275, 10.5808732], [-61.163759, 10.580943], [-61.1636469, 10.5807366], [-61.1637451, 10.5804568], [-61.1637311, 10.5803031], [-61.1630667, 10.5805074], [-61.1621754, 10.5807814], [-61.1620309, 10.5805467], [-61.1621487, 10.5802535], [-61.1634726, 10.5798902], [-61.162838, 10.5776544], [-61.1623659, 10.5776644], [-61.1616385, 10.5779312], [-61.1614159, 10.5781358], [-61.1614964, 10.5785645], [-61.1613832, 10.5787159], [-61.1614191, 10.5789178], [-61.1616316, 10.5788324], [-61.1619003, 10.5787813], [-61.1621782, 10.5793861], [-61.1619979, 10.5795295], [-61.1616857, 10.5797078], [-61.1617962, 10.5801296], [-61.1611429, 10.5803996], [-61.1605517, 10.5802572], [-61.1597964, 10.5799925], [-61.1595968, 10.579394], [-61.1600812, 10.579182], [-61.1601097, 10.579076], [-61.1609192, 10.5788024], [-61.1607373, 10.5785624], [-61.1596634, 10.5788456], [-61.159379, 10.5787264], [-61.1594252, 10.5785202], [-61.1601349, 10.578149], [-61.1600737, 10.5778547], [-61.1600474, 10.5775668], [-61.1602373, 10.5773253], [-61.1605431, 10.5772757], [-61.1604106, 10.57702], [-61.1600769, 10.5770295], [-61.1599262, 10.5768803], [-61.1600898, 10.5765981], [-61.160313, 10.5762907], [-61.1601778, 10.5759854], [-61.1593021, 10.5763444], [-61.1591103, 10.5764231], [-61.1585325, 10.5766509], [-61.1583233, 10.5769783], [-61.1574892, 10.5776818], [-61.1570171, 10.577936], [-61.1567751, 10.5779386], [-61.1565295, 10.5778743], [-61.156375, 10.5780636], [-61.1563433, 10.5784005], [-61.1563868, 10.5786848], [-61.1565236, 10.5788155], [-61.156581, 10.5786257], [-61.1566459, 10.5783399], [-61.1568165, 10.5782961], [-61.1570922, 10.5784253], [-61.1573513, 10.5782745], [-61.1575707, 10.5780973], [-61.1579435, 10.578042], [-61.158318, 10.5780841], [-61.1584843, 10.5783441], [-61.1583528, 10.5789289], [-61.1579113, 10.5792055], [-61.1577182, 10.5788364], [-61.1573963, 10.5788522], [-61.1571281, 10.5788153], [-61.156538, 10.5791159], [-61.1561893, 10.5790684], [-61.1559264, 10.5792635], [-61.1559157, 10.5796221], [-61.1560337, 10.5799016], [-61.1559264, 10.5800756], [-61.1556689, 10.5800018], [-61.1556689, 10.5797065], [-61.1555724, 10.5795061], [-61.1553076, 10.5797103], [-61.1552787, 10.5797326], [-61.1552237, 10.579775], [-61.1545692, 10.5801916], [-61.154183, 10.5803709], [-61.1541615, 10.5806345], [-61.1542849, 10.5809562], [-61.1543117, 10.5811671], [-61.1540703, 10.5814097], [-61.1538719, 10.5814519], [-61.153829, 10.5815521], [-61.1539362, 10.5816945], [-61.1539362, 10.5819054], [-61.1531852, 10.5825171], [-61.1529277, 10.5827175], [-61.1528687, 10.5828915], [-61.1527775, 10.583171], [-61.1526005, 10.5832131], [-61.1523537, 10.5832184], [-61.1521445, 10.5833186], [-61.1520426, 10.5834821], [-61.1518978, 10.5836244], [-61.1517368, 10.583751], [-61.1516939, 10.5839145], [-61.1517744, 10.5841148], [-61.1518709, 10.5843469], [-61.1520748, 10.584368], [-61.1523752, 10.5844154], [-61.1525951, 10.5844101], [-61.1529599, 10.5842994], [-61.1532657, 10.5842625], [-61.1537447, 10.5842103], [-61.1537032, 10.584712], [-61.1533381, 10.5847911], [-61.1529173, 10.5853256], [-61.1530345, 10.5855162], [-61.152913, 10.5858157], [-61.1525951, 10.5857941], [-61.1525345, 10.5861685], [-61.1526855, 10.5866085], [-61.1522789, 10.5873486], [-61.1519576, 10.587863], [-61.1528762, 10.588042], [-61.1533217, 10.5881214], [-61.1536085, 10.5882801], [-61.1540315, 10.5910764], [-61.156829, 10.5907534], [-61.1578483, 10.5900705], [-61.1580294, 10.5899625], [-61.1584479, 10.5902209], [-61.1585255, 10.5905963], [-61.1582333, 10.590801], [-61.1584032, 10.5914901], [-61.1609709, 10.5917121], [-61.1623541, 10.5913989], [-61.166158, 10.5914049], [-61.1719173, 10.5906611], [-61.1863511, 10.5892717], [-61.1927066, 10.5887542], [-61.192866, 10.588523], [-61.1932254, 10.5883859], [-61.1933541, 10.5886759], [-61.1947454, 10.5888961], [-61.1969369, 10.5893888], [-61.1978746, 10.5868798], [-61.2004083, 10.5868819], [-61.2016067, 10.58673], [-61.2015085, 10.5846709], [-61.2007403, 10.5841836], [-61.2007591, 10.5815123], [-61.2007961, 10.5812328], [-61.2014141, 10.5811626], [-61.2014951, 10.5806865], [-61.2019242, 10.5805583]]]}, "bbox": [-61.2019242, 10.5691506, -61.1516939, 10.5917121]}