{"type": "Feature", "properties": {"name": "Debe", "display_name": "Penal-Debe, Trinidad and Tobago", "osm_type": "relation", "osm_id": 7363419, "category": "boundary", "type": "administrative", "source": "OpenStreetMap / Nominatim", "license": "ODbL"}, "geometry": {"type": "Polygon", "coordinates": [[[-61.5243712, 10.2343727], [-61.5217598, 10.2319535], [-61.5181007, 10.2282512], [-61.5173329, 10.2283204], [-61.5161789, 10.2291604], [-61.5147529, 10.228463], [-61.5133235, 10.2276353], [-61.512504, 10.227444], [-61.5114538, 10.228019], [-61.5103682, 10.2277636], [-61.5094107, 10.2280338], [-61.5088951, 10.2274239], [-61.5077145, 10.2274711], [-61.507082, 10.2282425], [-61.5065759, 10.2276495], [-61.5059211, 10.2261937], [-61.5051166, 10.2253694], [-61.5048669, 10.2245646], [-61.5036586, 10.2238101], [-61.5019118, 10.2224666], [-61.5019789, 10.2214718], [-61.5032039, 10.2211054], [-61.5052252, 10.2197766], [-61.5055041, 10.2192698], [-61.505486, 10.2183334], [-61.5041399, 10.2175583], [-61.5009398, 10.2144368], [-61.5012627, 10.2136315], [-61.4943646, 10.2100062], [-61.4939738, 10.2102037], [-61.4909875, 10.2082766], [-61.4856499, 10.2078982], [-61.4765034, 10.2073796], [-61.4752364, 10.2066262], [-61.4740916, 10.1916384], [-61.4744524, 10.1871882], [-61.4746333, 10.1858942], [-61.4748135, 10.1833824], [-61.4752702, 10.1809732], [-61.4756186, 10.1786059], [-61.4762801, 10.1779521], [-61.4766357, 10.1772402], [-61.4765173, 10.1754854], [-61.4763562, 10.1731786], [-61.4759328, 10.1722361], [-61.4741783, 10.1716017], [-61.4725518, 10.1708377], [-61.4717491, 10.1693568], [-61.471849, 10.1684239], [-61.4725126, 10.1677707], [-61.4726777, 10.1668832], [-61.4721278, 10.1654889], [-61.4717247, 10.1643485], [-61.4727054, 10.1638848], [-61.4724546, 10.1622602], [-61.4721837, 10.1614627], [-61.4722988, 10.1609677], [-61.4730191, 10.160306], [-61.4739916, 10.1578468], [-61.4741469, 10.1576773], [-61.474018, 10.1565719], [-61.4738025, 10.1545292], [-61.4735901, 10.1540157], [-61.4738263, 10.1527813], [-61.4754987, 10.1496172], [-61.4773119, 10.1441761], [-61.4918043, 10.1298069], [-61.5035097, 10.115462], [-61.5030256, 10.1150598], [-61.5029189, 10.114548], [-61.5028243, 10.113824], [-61.5027502, 10.1130208], [-61.5032242, 10.1126988], [-61.5033254, 10.1125453], [-61.5032389, 10.1108279], [-61.5033447, 10.1101052], [-61.5034996, 10.1096337], [-61.504105, 10.1084598], [-61.5047473, 10.1072845], [-61.5050019, 10.1065287], [-61.5049853, 10.1060946], [-61.5046943, 10.1049674], [-61.5042692, 10.1040885], [-61.5040211, 10.1030723], [-61.504009, 10.102563], [-61.504254, 10.1015735], [-61.504617, 10.1002724], [-61.5045838, 10.0999446], [-61.5043161, 10.0993166], [-61.5043297, 10.0990245], [-61.5045213, 10.0986565], [-61.5046411, 10.0983874], [-61.504703, 10.0980477], [-61.5046328, 10.0978736], [-61.5046357, 10.0976466], [-61.5047468, 10.0974231], [-61.5050727, 10.0969957], [-61.5050875, 10.0967373], [-61.5050097, 10.0964424], [-61.5050792, 10.0962481], [-61.5054863, 10.0959692], [-61.5059773, 10.0957349], [-61.5065365, 10.0957279], [-61.5068914, 10.0955079], [-61.5070911, 10.0952041], [-61.5072729, 10.0945185], [-61.5075112, 10.0941758], [-61.5080236, 10.0940872], [-61.508302, 10.093841], [-61.5088404, 10.0931313], [-61.5089763, 10.0928371], [-61.5089683, 10.0926077], [-61.5088627, 10.0924716], [-61.5085284, 10.0923096], [-61.5082174, 10.0920483], [-61.5078497, 10.0920137], [-61.5078012, 10.0918978], [-61.5078671, 10.091741], [-61.5085773, 10.0912695], [-61.5086747, 10.0910987], [-61.5087244, 10.090828], [-61.5086831, 10.0904035], [-61.5086558, 10.0896416], [-61.5088218, 10.0889758], [-61.5091533, 10.0882035], [-61.5094353, 10.0880228], [-61.5099913, 10.0878041], [-61.5101467, 10.0876804], [-61.5107074, 10.087021], [-61.511042, 10.0862137], [-61.5115697, 10.0854645], [-61.5120458, 10.0845469], [-61.5120384, 10.0834722], [-61.5119633, 10.0832283], [-61.511528, 10.0827025], [-61.5111679, 10.0817667], [-61.5104903, 10.0795737], [-61.5098697, 10.077556], [-61.509303, 10.0757583], [-61.5081811, 10.0725794], [-61.507473, 10.0725688], [-61.5070117, 10.0725002], [-61.506604, 10.0723893], [-61.5056813, 10.0721621], [-61.505, 10.0720037], [-61.5046084, 10.071935], [-61.5043563, 10.0718875], [-61.5040505, 10.0718241], [-61.5037125, 10.0717449], [-61.5033424, 10.0716445], [-61.5028381, 10.0715125], [-61.5024197, 10.0714016], [-61.5019798, 10.0711428], [-61.5016258, 10.0708787], [-61.5011859, 10.070435], [-61.5006924, 10.0698118], [-61.5001774, 10.0691885], [-61.4995176, 10.0685494], [-61.4986968, 10.0678681], [-61.4980209, 10.0675089], [-61.4976668, 10.0674561], [-61.497243, 10.0674878], [-61.4968863, 10.0675564], [-61.4964893, 10.0676594], [-61.4957893, 10.0679552], [-61.4951509, 10.0682219], [-61.4945072, 10.0684042], [-61.4943516, 10.0684015], [-61.4942148, 10.0683302], [-61.4940298, 10.0680186], [-61.4939426, 10.0679235], [-61.4938782, 10.0679024], [-61.4938085, 10.0679196], [-61.4936368, 10.0680278], [-61.4934209, 10.0680978], [-61.493272, 10.0681203], [-61.4931165, 10.0681308], [-61.4930467, 10.0681599], [-61.4928885, 10.0682444], [-61.4925908, 10.0683619], [-61.492403, 10.0684372], [-61.4920179, 10.0685835], [-61.4916587, 10.0686762], [-61.4913771, 10.0686947], [-61.4911839, 10.068655], [-61.4908648, 10.0685362], [-61.4906636, 10.0684755], [-61.4905831, 10.0684807], [-61.4904141, 10.0685415], [-61.4902076, 10.0686049], [-61.4900064, 10.0686207], [-61.4898428, 10.0685864], [-61.4897597, 10.0685547], [-61.4896256, 10.0684543], [-61.4895424, 10.0684147], [-61.4894083, 10.0683989], [-61.489234, 10.0684147], [-61.4890409, 10.0684755], [-61.4885446, 10.0686445], [-61.4883059, 10.0686788], [-61.4877883, 10.0687792], [-61.4874449, 10.0688874], [-61.4870936, 10.0690089], [-61.4866215, 10.0691912], [-61.4861709, 10.0693417], [-61.4858142, 10.0693971], [-61.4855513, 10.0694156], [-61.4852536, 10.0693866], [-61.4849773, 10.069339], [-61.4846447, 10.0691885], [-61.4844462, 10.0690485], [-61.4842773, 10.0688531], [-61.4841566, 10.0687845], [-61.4839312, 10.0687765], [-61.4837059, 10.0688109], [-61.4834029, 10.068869], [-61.4831722, 10.0688742], [-61.4827538, 10.0688214], [-61.482448, 10.0687818], [-61.4822549, 10.0687871], [-61.4820188, 10.0688267], [-61.4818472, 10.0688267], [-61.481638, 10.0687765], [-61.4814717, 10.0687422], [-61.4812759, 10.068729], [-61.4810023, 10.0687501], [-61.4805061, 10.0688056], [-61.4801386, 10.0688109], [-61.4797872, 10.0687818], [-61.479519, 10.0687105], [-61.4794037, 10.068655], [-61.4792642, 10.0686366], [-61.4789557, 10.0686999], [-61.4787278, 10.0687026], [-61.478489, 10.0686339], [-61.4783469, 10.0686339], [-61.4782155, 10.0686815], [-61.4778373, 10.068869], [-61.4772981, 10.0690776], [-61.4767993, 10.0692387], [-61.476185, 10.0693839], [-61.4753026, 10.0696903], [-61.4741921, 10.0699491], [-61.4736637, 10.0701155], [-61.473307, 10.0701788], [-61.4730415, 10.0701551], [-61.472792, 10.0701234], [-61.4724943, 10.0700574], [-61.4720732, 10.0699755], [-61.4717004, 10.0698223], [-61.471467, 10.0697721], [-61.4711157, 10.0697748], [-61.4706731, 10.0698435], [-61.4703995, 10.06992], [-61.4700481, 10.0700864], [-61.4698523, 10.0701762], [-61.4696404, 10.0702528], [-61.4694232, 10.0702766], [-61.4692113, 10.0702501], [-61.4690986, 10.0702805], [-61.4689994, 10.0703584], [-61.468868, 10.0704324], [-61.4686856, 10.0704812], [-61.4684992, 10.0704957], [-61.4680794, 10.0705803], [-61.4677615, 10.0706318], [-61.4674638, 10.0707493], [-61.4671688, 10.0708325], [-61.4669126, 10.0708853], [-61.4666484, 10.0709209], [-61.4663427, 10.0709236], [-61.4660972, 10.0709236], [-61.4658371, 10.0709658], [-61.465707, 10.0709751], [-61.4655206, 10.070979], [-61.4653556, 10.0710279], [-61.4652698, 10.0710318], [-61.4651155, 10.0709936], [-61.4650069, 10.0709817], [-61.4648701, 10.0709804], [-61.4647132, 10.0710292], [-61.4645657, 10.0710741], [-61.4643565, 10.071086], [-61.4640802, 10.0711137], [-61.4638093, 10.0711164], [-61.4635411, 10.0711507], [-61.4632112, 10.0711797], [-61.4628062, 10.071259], [-61.4622992, 10.0713065], [-61.4618352, 10.0714016], [-61.4616126, 10.0714465], [-61.4613014, 10.0714966], [-61.4608321, 10.0715996], [-61.4602822, 10.0717687], [-61.4594319, 10.0720248], [-61.4573881, 10.0727299], [-61.4571586, 10.0728088], [-61.455701, 10.0733083], [-61.4537162, 10.0738048], [-61.4526379, 10.0739262], [-61.4502615, 10.0739051], [-61.4484733, 10.073805], [-61.4478368, 10.0736833], [-61.4473647, 10.0735037], [-61.4470589, 10.0734298], [-61.4468122, 10.0733505], [-61.4465654, 10.073134], [-61.446324, 10.0726164], [-61.4461577, 10.0724104], [-61.4459807, 10.0723629], [-61.4455944, 10.0723998], [-61.4449078, 10.072553], [-61.4443713, 10.07259], [-61.4439905, 10.0725319], [-61.4436793, 10.072384], [-61.443513, 10.0722334], [-61.4433897, 10.0720776], [-61.4433038, 10.0720275], [-61.4431778, 10.0720275], [-61.4429846, 10.0719958], [-61.44288, 10.0720143], [-61.4427245, 10.0720829], [-61.4421129, 10.0723893], [-61.4415121, 10.0725979], [-61.440855, 10.0727986], [-61.4403534, 10.0728963], [-61.4400879, 10.0729069], [-61.4398947, 10.0728699], [-61.4397043, 10.0728303], [-61.4395675, 10.072825], [-61.4392939, 10.0728752], [-61.4389935, 10.0729254], [-61.4388406, 10.0729412], [-61.4387172, 10.0729306], [-61.4385831, 10.0728593], [-61.4384624, 10.072788], [-61.4383605, 10.0727722], [-61.4379555, 10.0728963], [-61.4376605, 10.072957], [-61.4373601, 10.072965], [-61.4371589, 10.0729676], [-61.4370087, 10.0729993], [-61.436711, 10.0731129], [-61.4365259, 10.0731419], [-61.4362121, 10.0731525], [-61.4359626, 10.0731868], [-61.4355522, 10.0733188], [-61.4351794, 10.073406], [-61.4346537, 10.0734799], [-61.4340341, 10.0735618], [-61.4333931, 10.0736173], [-61.4329183, 10.0736278], [-61.4326394, 10.0735909], [-61.4323792, 10.0734799], [-61.4321673, 10.073303], [-61.4319688, 10.0730257], [-61.4317355, 10.0728065], [-61.4316389, 10.0725926], [-61.4315638, 10.072384], [-61.4314806, 10.0722889], [-61.4312151, 10.0721859], [-61.4310032, 10.0721727], [-61.430802, 10.0721595], [-61.4306062, 10.0721199], [-61.4304855, 10.072141], [-61.4303514, 10.0722625], [-61.4302146, 10.0723496], [-61.4300403, 10.0724289], [-61.4297882, 10.0725662], [-61.4294261, 10.0727986], [-61.4291391, 10.0729835], [-61.4288977, 10.0731129], [-61.428557, 10.0732185], [-61.4283237, 10.0733241], [-61.4278677, 10.0736041], [-61.4272374, 10.0738866], [-61.4266956, 10.0741085], [-61.4258346, 10.074465], [-61.4253143, 10.0746314], [-61.4248288, 10.0748056], [-61.4244667, 10.0749034], [-61.4241824, 10.0749324], [-61.4238417, 10.0749747], [-61.4236003, 10.0749483], [-61.4233321, 10.0749218], [-61.4230531, 10.0749588], [-61.4227071, 10.0750565], [-61.4223799, 10.0750856], [-61.4221278, 10.0751173], [-61.4219025, 10.0751252], [-61.4216745, 10.0750671], [-61.4213714, 10.0749007], [-61.4211729, 10.0748505], [-61.4207706, 10.0748373], [-61.4204541, 10.0748136], [-61.420159, 10.0748479], [-61.4197379, 10.0750196], [-61.4194992, 10.0750777], [-61.4190432, 10.0751965], [-61.4183727, 10.0754025], [-61.4167365, 10.0758884], [-61.4157549, 10.0760733], [-61.4151514, 10.076163], [-61.4147168, 10.0762977], [-61.4144003, 10.0763294], [-61.4140141, 10.0763004], [-61.413703, 10.0763136], [-61.4134428, 10.0763532], [-61.4130807, 10.0764562], [-61.412614, 10.0766014], [-61.4119434, 10.0767572], [-61.4113855, 10.0769025], [-61.4109001, 10.0770107], [-61.4105836, 10.0770477], [-61.4103878, 10.0769949], [-61.409905, 10.0767414], [-61.4095563, 10.0766331], [-61.4091333, 10.0765589], [-61.4089099, 10.0764879], [-61.4086229, 10.0762792], [-61.4082956, 10.0761287], [-61.4075527, 10.075899], [-61.4068365, 10.0756639], [-61.4064851, 10.0754527], [-61.4062518, 10.0751833], [-61.4060614, 10.0748849], [-61.405836, 10.0746604], [-61.4054471, 10.0744571], [-61.4050823, 10.0742458], [-61.404798, 10.0740451], [-61.4046237, 10.0739923], [-61.4044467, 10.0739923], [-61.403937, 10.0740028], [-61.4037064, 10.0740081], [-61.4034272, 10.0739582], [-61.4032424, 10.0738866], [-61.4030787, 10.073781], [-61.4028427, 10.0736384], [-61.402714, 10.0735935], [-61.4025825, 10.0735988], [-61.4024028, 10.0736357], [-61.4021641, 10.0736569], [-61.4019737, 10.0736754], [-61.4017376, 10.0737387], [-61.4007855, 10.0739632], [-61.3998789, 10.0741111], [-61.3987148, 10.0741481], [-61.3977921, 10.0740424], [-61.3974273, 10.0738734], [-61.3969874, 10.0735301], [-61.39651, 10.073303], [-61.3963383, 10.0731181], [-61.3961935, 10.0728435], [-61.3960058, 10.0726745], [-61.395641, 10.0725477], [-61.395185, 10.0724157], [-61.3947183, 10.0722783], [-61.3941336, 10.0722414], [-61.3932806, 10.0723259], [-61.3922131, 10.0725477], [-61.3909096, 10.0727643], [-61.389885, 10.0728488], [-61.3888604, 10.0727643], [-61.3882434, 10.0726164], [-61.3880771, 10.0724844], [-61.3879538, 10.0722519], [-61.3878518, 10.0720195], [-61.3877285, 10.0719139], [-61.3872832, 10.0716709], [-61.3869774, 10.071428], [-61.386382, 10.0711058], [-61.3862425, 10.0709368], [-61.3860816, 10.0706357], [-61.3851391, 10.0696102], [-61.3853855, 10.187238], [-61.3758363, 10.1872008], [-61.3758188, 10.1885572], [-61.375016, 10.1903965], [-61.3752315, 10.190923], [-61.3755285, 10.1910087], [-61.3763052, 10.1912329], [-61.3773719, 10.1915916], [-61.3777252, 10.1918261], [-61.3777869, 10.192059], [-61.3774058, 10.1923481], [-61.3766733, 10.1929038], [-61.3759685, 10.193413], [-61.3757194, 10.1937343], [-61.375575, 10.194285], [-61.3755374, 10.1948489], [-61.3758121, 10.196981], [-61.3758809, 10.1985692], [-61.3758383, 10.2013487], [-61.3758981, 10.2038288], [-61.3759281, 10.2057719], [-61.375932, 10.2075027], [-61.3722449, 10.2083698], [-61.3721809, 10.2089672], [-61.3721758, 10.2092386], [-61.3725783, 10.2095967], [-61.3727748, 10.209859], [-61.372802, 10.210165], [-61.3727106, 10.2104494], [-61.3725504, 10.2106952], [-61.3723144, 10.2109661], [-61.3721909, 10.2114142], [-61.3721206, 10.2128655], [-61.372148, 10.2135614], [-61.3722822, 10.2141033], [-61.3724955, 10.2144106], [-61.3728992, 10.2148122], [-61.3734346, 10.2151904], [-61.373643, 10.2154262], [-61.3737932, 10.2158823], [-61.3739647, 10.2169441], [-61.3739333, 10.2178054], [-61.3740935, 10.2181594], [-61.3742391, 10.2183844], [-61.3743355, 10.2185585], [-61.3741629, 10.2187813], [-61.3738383, 10.2190513], [-61.3736365, 10.2193659], [-61.373413, 10.2202578], [-61.3734447, 10.2204791], [-61.3736339, 10.2207519], [-61.3739592, 10.2211566], [-61.3740116, 10.2214509], [-61.3738883, 10.2216477], [-61.3736144, 10.2218675], [-61.3734863, 10.222288], [-61.3733548, 10.2224992], [-61.3727004, 10.2228678], [-61.3724963, 10.2232303], [-61.3723305, 10.223605], [-61.3723099, 10.2240885], [-61.37245, 10.2244884], [-61.3726186, 10.2248225], [-61.372982, 10.225126], [-61.3730875, 10.225586], [-61.3731867, 10.2259349], [-61.3733643, 10.2263991], [-61.3734148, 10.2270307], [-61.3735065, 10.2273119], [-61.3736638, 10.2275697], [-61.3742889, 10.2282606], [-61.3747819, 10.2289093], [-61.3750323, 10.2292153], [-61.375495, 10.2301541], [-61.3760337, 10.2301191], [-61.3763863, 10.2297891], [-61.3765382, 10.2297216], [-61.3770171, 10.2296831], [-61.3777094, 10.2299331], [-61.3778907, 10.2301577], [-61.3779784, 10.2305213], [-61.3780374, 10.2308151], [-61.3781489, 10.230923], [-61.3784358, 10.2309892], [-61.3789732, 10.230871], [-61.3794869, 10.2311277], [-61.3802492, 10.2317119], [-61.3812818, 10.2322638], [-61.3844494, 10.232991], [-61.3852554, 10.233306], [-61.3858048, 10.2338256], [-61.3859992, 10.2339908], [-61.3863143, 10.2341867], [-61.3872008, 10.2344245], [-61.3876146, 10.2346186], [-61.3878876, 10.2348895], [-61.3884369, 10.2355732], [-61.3890344, 10.2366429], [-61.3895878, 10.2383035], [-61.3896964, 10.2385521], [-61.3898432, 10.2392764], [-61.3903334, 10.2398945], [-61.3907329, 10.2406647], [-61.3910842, 10.2413051], [-61.3912038, 10.2418886], [-61.3913135, 10.2423477], [-61.3912684, 10.2425918], [-61.3911125, 10.2427944], [-61.3909999, 10.2430627], [-61.391042, 10.2431747], [-61.391139, 10.2432474], [-61.3930979, 10.2435726], [-61.3935848, 10.2436802], [-61.3938422, 10.2438333], [-61.394376, 10.244349], [-61.3949788, 10.244628], [-61.3952083, 10.2448301], [-61.3953711, 10.2451498], [-61.3956649, 10.2453558], [-61.3962429, 10.245396], [-61.3967977, 10.2454438], [-61.3972286, 10.2456213], [-61.3975696, 10.2457631], [-61.3979015, 10.2458023], [-61.3982819, 10.2458887], [-61.3987064, 10.2460307], [-61.3989312, 10.2461801], [-61.3991142, 10.2462062], [-61.399435, 10.2460569], [-61.3995873, 10.2460041], [-61.399771, 10.2460437], [-61.3999399, 10.2461422], [-61.4006492, 10.2465285], [-61.4009191, 10.2467568], [-61.4010944, 10.2470308], [-61.4014914, 10.2472351], [-61.4024575, 10.2475634], [-61.4026329, 10.2476611], [-61.4031715, 10.2483756], [-61.4034023, 10.2485643], [-61.4036426, 10.2486312], [-61.404042, 10.2485497], [-61.4047277, 10.248402], [-61.4051947, 10.2480789], [-61.4056698, 10.2479426], [-61.4070875, 10.2478958], [-61.408455, 10.2473919], [-61.4089409, 10.2465587], [-61.4086172, 10.2457749], [-61.4086754, 10.2455657], [-61.4092003, 10.2455492], [-61.4094408, 10.2449921], [-61.4096595, 10.2446491], [-61.4098966, 10.2446146], [-61.410322, 10.2448526], [-61.4109627, 10.2454941], [-61.4118111, 10.2460763], [-61.4130923, 10.2465147], [-61.413673, 10.246759], [-61.4143576, 10.2468732], [-61.4146329, 10.2467632], [-61.4149974, 10.2462395], [-61.4154692, 10.2463589], [-61.4159006, 10.2463467], [-61.4162295, 10.2464591], [-61.4163818, 10.2467724], [-61.4162604, 10.2472277], [-61.4161751, 10.2477173], [-61.4165732, 10.2481735], [-61.4171561, 10.2485305], [-61.4180224, 10.248482], [-61.4184135, 10.2490486], [-61.419223, 10.2493913], [-61.4196637, 10.249164], [-61.41984, 10.2484734], [-61.4204351, 10.2481107], [-61.4207811, 10.2477133], [-61.4213799, 10.2476503], [-61.4217621, 10.2477964], [-61.4221418, 10.2481554], [-61.4225399, 10.2483799], [-61.4230278, 10.2485009], [-61.4235328, 10.2484164], [-61.4250609, 10.2486522], [-61.4255054, 10.2488182], [-61.425853, 10.2487568], [-61.4268008, 10.2490944], [-61.4269919, 10.2492554], [-61.4271445, 10.2498176], [-61.4274735, 10.2504703], [-61.4279828, 10.251031], [-61.4281066, 10.2512698], [-61.428194, 10.2517505], [-61.4284572, 10.2521625], [-61.4289768, 10.2523655], [-61.4294862, 10.2527629], [-61.4303192, 10.252642], [-61.4309464, 10.2528563], [-61.4316711, 10.2526906], [-61.432814, 10.2535234], [-61.4336624, 10.2537589], [-61.4341332, 10.2540141], [-61.4347197, 10.2546594], [-61.4353311, 10.2550095], [-61.4359819, 10.2547536], [-61.4362614, 10.2541925], [-61.4370599, 10.2538228], [-61.4376931, 10.2543398], [-61.4377326, 10.2545067], [-61.4374453, 10.2550577], [-61.4375907, 10.2554484], [-61.4378088, 10.2557142], [-61.4378204, 10.256054], [-61.4377602, 10.2562694], [-61.4377324, 10.2564809], [-61.4380606, 10.2566639], [-61.4384245, 10.2564667], [-61.4387065, 10.2558307], [-61.4388288, 10.2556984], [-61.4391737, 10.2557115], [-61.4397188, 10.255864], [-61.4401958, 10.2559585], [-61.4409713, 10.256761], [-61.4413645, 10.257369], [-61.4421567, 10.2583207], [-61.4424058, 10.2588928], [-61.442694, 10.2591868], [-61.4432048, 10.2594336], [-61.4436654, 10.259792], [-61.4444715, 10.2605837], [-61.4445514, 10.2607081], [-61.4445454, 10.261012], [-61.4444758, 10.2613541], [-61.4444964, 10.2617513], [-61.4447284, 10.2620316], [-61.4449891, 10.2622266], [-61.4455478, 10.2623955], [-61.4461666, 10.2626047], [-61.4463102, 10.262707], [-61.4464073, 10.2614952], [-61.4469856, 10.2618898], [-61.4475146, 10.262345], [-61.4481709, 10.2628679], [-61.4485372, 10.2629849], [-61.4512386, 10.26241], [-61.4516064, 10.2621013], [-61.4518558, 10.2617493], [-61.452527, 10.2615798], [-61.45326, 10.2614798], [-61.4542644, 10.2615883], [-61.454751, 10.2617153], [-61.4552194, 10.2614799], [-61.4557188, 10.261371], [-61.456032, 10.2614917], [-61.456086, 10.261797], [-61.4562246, 10.2622917], [-61.456611, 10.2624913], [-61.4568709, 10.2624697], [-61.4572266, 10.2623051], [-61.4573393, 10.262161], [-61.4578219, 10.2620203], [-61.4582416, 10.262131], [-61.4583227, 10.2621705], [-61.4585431, 10.2618864], [-61.4589329, 10.2613734], [-61.459286, 10.2611611], [-61.4617493, 10.2600787], [-61.4634921, 10.2594195], [-61.4648177, 10.2589773], [-61.4668442, 10.258457], [-61.4669225, 10.2584369], [-61.4689912, 10.2579523], [-61.470262, 10.2576035], [-61.4720992, 10.2571337], [-61.4748194, 10.2564995], [-61.4757117, 10.2562556], [-61.4777817, 10.2557012], [-61.478329, 10.2555062], [-61.4791099, 10.2552394], [-61.4811818, 10.2538073], [-61.4831491, 10.2523886], [-61.4862791, 10.2502032], [-61.489029, 10.2482534], [-61.4906063, 10.2476643], [-61.4945125, 10.2470387], [-61.4978118, 10.2464938], [-61.5007062, 10.2460486], [-61.5018035, 10.245889], [-61.5018095, 10.2463147], [-61.5018996, 10.2462874], [-61.5023325, 10.2461563], [-61.5026987, 10.2460797], [-61.5029897, 10.2460863], [-61.5033759, 10.246052], [-61.5035824, 10.2459808], [-61.5038319, 10.2458501], [-61.5042906, 10.245602], [-61.5044153, 10.2455202], [-61.5044998, 10.2454265], [-61.5046017, 10.2453433], [-61.5064122, 10.2443443], [-61.5067414, 10.2441668], [-61.5072759, 10.2438679], [-61.5078565, 10.2435934], [-61.5087484, 10.2430972], [-61.5092687, 10.242795], [-61.5099353, 10.2424017], [-61.5107802, 10.2419371], [-61.5115419, 10.241495], [-61.512655, 10.2408932], [-61.5134087, 10.2404894], [-61.5138969, 10.2402267], [-61.5142268, 10.2400723], [-61.5147203, 10.2398123], [-61.5153419, 10.2394725], [-61.5167889, 10.2387222], [-61.5190489, 10.2374954], [-61.5197133, 10.2371818], [-61.5206201, 10.2369147], [-61.5208081, 10.2368901], [-61.5210399, 10.2367249], [-61.5210919, 10.2365724], [-61.5211295, 10.2365172], [-61.5228378, 10.2359555], [-61.5238734, 10.2355231], [-61.523931, 10.2354839], [-61.523937, 10.2350343], [-61.5239096, 10.2349517], [-61.5241014, 10.2347075], [-61.5242838, 10.234441], [-61.5243712, 10.2343727]]]}, "bbox": [-61.5243712, 10.0674561, -61.3721206, 10.2629849]}