{"type": "Feature", "properties": {"name": "Diamond Vale", "display_name": "Diamond Vale Shopping Centre, Diego Martin, Trinidad and Tobago", "osm_type": "way", "osm_id": 704286047, "category": "landuse", "type": "commercial", "source": "OpenStreetMap / Nominatim", "license": "ODbL"}, "geometry": {"type": "Polygon", "coordinates": [[[-61.5559435, 10.7168124], [-61.5555865, 10.716799], [-61.555383, 10.7167913], [-61.5553815, 10.7168455], [-61.5553763, 10.7169942], [-61.5552457, 10.7169898], [-61.5552392, 10.717119], [-61.5551616, 10.7171163], [-61.5551428, 10.7176142], [-61.5558782, 10.7176488], [-61.5559435, 10.7168124]]]}, "bbox": [-61.5559435, 10.7167913, -61.5551428, 10.7176488]}