{"type": "Feature", "properties": {"name": "Goodwood Park", "display_name": "Goodwood Park, Glencoe, Diego Martin, Trinidad and Tobago", "osm_type": "way", "osm_id": 544870575, "category": "leisure", "type": "park", "source": "OpenStreetMap / Nominatim", "license": "ODbL"}, "geometry": {"type": "Polygon", "coordinates": [[[-61.5667725, 10.6815961], [-61.5659659, 10.6818754], [-61.5657213, 10.6819514], [-61.5654392, 10.682013], [-61.5651968, 10.6820541], [-61.5649335, 10.6821054], [-61.5648582, 10.682128], [-61.564854, 10.6821691], [-61.5648708, 10.6821958], [-61.5649, 10.6822122], [-61.5649648, 10.6822389], [-61.5649961, 10.6822923], [-61.5650296, 10.6823683], [-61.565109, 10.682434], [-61.5653013, 10.6825161], [-61.5654183, 10.6825551], [-61.565575, 10.682586], [-61.5657757, 10.6825962], [-61.5659575, 10.6825634], [-61.5661268, 10.6824792], [-61.566248, 10.6824052], [-61.5664194, 10.6822964], [-61.5665448, 10.682165], [-61.5666534, 10.682015], [-61.5667224, 10.6818754], [-61.5667642, 10.6817501], [-61.5667725, 10.6815961]]]}, "bbox": [-61.5667725, 10.6815961, -61.564854, 10.6825962]}