{"type": "Feature", "properties": {"name": "Mayaro", "display_name": "Mayaro-Rio Claro, Trinidad and Tobago", "osm_type": "relation", "osm_id": 7361804, "category": "boundary", "type": "administrative", "source": "OpenStreetMap / Nominatim", "license": "ODbL"}, "geometry": {"type": "Polygon", "coordinates": [[[-61.2455164, 10.2958941], [-61.2443463, 10.2913002], [-61.2442906, 10.2910423], [-61.2388662, 10.2815934], [-61.2365991, 10.2825165], [-61.2358563, 10.2822248], [-61.2290125, 10.282867], [-61.2289178, 10.2803389], [-61.2293726, 10.2784796], [-61.2297294, 10.2773629], [-61.2299368, 10.2748788], [-61.2286382, 10.2698845], [-61.2221515, 10.2675915], [-61.2212125, 10.2706718], [-61.2211217, 10.2724452], [-61.2157478, 10.2744591], [-61.2065865, 10.2783837], [-61.2013933, 10.2766243], [-61.1961664, 10.2741622], [-61.1939843, 10.2739242], [-61.1916877, 10.2720975], [-61.1905633, 10.2693065], [-61.1883215, 10.2666967], [-61.1868766, 10.266294], [-61.1852697, 10.2663233], [-61.1853641, 10.1595905], [-61.1830887, 10.1570872], [-61.1829438, 10.1071063], [-61.1827661, 10.0772233], [-61.1824483, 10.0773699], [-61.1822954, 10.0774386], [-61.1820674, 10.0774597], [-61.1818153, 10.0774438], [-61.1815846, 10.0774808], [-61.1812761, 10.0775732], [-61.1808658, 10.0777449], [-61.1803588, 10.0778849], [-61.1798224, 10.0779667], [-61.1794871, 10.0779271], [-61.1791733, 10.0776947], [-61.1789614, 10.0775257], [-61.1787415, 10.0774544], [-61.1784545, 10.0774518], [-61.178087, 10.0774861], [-61.177564, 10.0774412], [-61.1771134, 10.0774016], [-61.1767513, 10.0774254], [-61.1765394, 10.0773303], [-61.1764187, 10.0770081], [-61.1763731, 10.0767414], [-61.1764723, 10.0761947], [-61.1764079, 10.0758329], [-61.1761692, 10.075656], [-61.1758313, 10.0755345], [-61.1754195, 10.0755662], [-61.1751299, 10.0755979], [-61.1749448, 10.0755755], [-61.1747906, 10.0755081], [-61.1745948, 10.0753721], [-61.1745062, 10.0752335], [-61.1743976, 10.0751252], [-61.1742541, 10.0750909], [-61.1738706, 10.0750512], [-61.1733985, 10.075244], [-61.1727843, 10.0755372], [-61.17217, 10.0757352], [-61.1716765, 10.0758541], [-61.1713305, 10.0758118], [-61.170322, 10.0755451], [-61.1696863, 10.0755372], [-61.1691767, 10.0755187], [-61.1687878, 10.0754896], [-61.1686054, 10.0755055], [-61.1684257, 10.0755662], [-61.1681011, 10.0757273], [-61.1674762, 10.0759967], [-61.1664596, 10.0763268], [-61.1656898, 10.0766595], [-61.1652795, 10.0768312], [-61.1647725, 10.0768787], [-61.1639759, 10.0768893], [-61.1636513, 10.0768206], [-61.1634743, 10.0767123], [-61.163308, 10.076546], [-61.1625811, 10.0758541], [-61.1622888, 10.0755953], [-61.1620232, 10.0754262], [-61.1616933, 10.0753734], [-61.1610697, 10.0754817], [-61.1608002, 10.0755781], [-61.1606218, 10.0756705], [-61.1604287, 10.0757603], [-61.1600679, 10.0758831], [-61.1595798, 10.0759835], [-61.1584546, 10.0761683], [-61.1583674, 10.076206], [-61.1583205, 10.0762469], [-61.1583003, 10.076336], [-61.1582722, 10.076443], [-61.1581743, 10.0766173], [-61.1580133, 10.0767942], [-61.15767, 10.0771164], [-61.1570451, 10.0775574], [-61.1565194, 10.0778822], [-61.1559561, 10.0782176], [-61.1554974, 10.0785583], [-61.1549932, 10.0787167], [-61.1544782, 10.078854], [-61.1540383, 10.0790864], [-61.1535341, 10.0792713], [-61.1531746, 10.07934], [-61.1526489, 10.0793083], [-61.1524236, 10.0793505], [-61.1522466, 10.0795037], [-61.1519784, 10.0797466], [-61.1514151, 10.0801586], [-61.1507982, 10.0804913], [-61.1503261, 10.0807501], [-61.1499077, 10.0810459], [-61.1495215, 10.0812519], [-61.1491567, 10.0814737], [-61.1487812, 10.0817484], [-61.1484432, 10.081854], [-61.1479336, 10.0819279], [-61.1477137, 10.0820177], [-61.1473543, 10.0822026], [-61.1469573, 10.0823874], [-61.1467105, 10.0825459], [-61.1462331, 10.0827519], [-61.1457503, 10.0828839], [-61.1452085, 10.0829473], [-61.144833, 10.0829578], [-61.1445701, 10.0829526], [-61.1444038, 10.0829843], [-61.1442053, 10.0830952], [-61.1437064, 10.0835071], [-61.1433739, 10.0837237], [-61.1430413, 10.0838557], [-61.1427194, 10.0839085], [-61.1424458, 10.0838504], [-61.14214, 10.0838135], [-61.1419094, 10.0838504], [-61.1414748, 10.0840459], [-61.1411744, 10.0841832], [-61.1407037, 10.0843258], [-61.1405133, 10.084372], [-61.140359, 10.0844248], [-61.1402142, 10.0845146], [-61.1397368, 10.0848064], [-61.138979, 10.0851299], [-61.1387041, 10.0852896], [-61.1383769, 10.0855062], [-61.1379665, 10.0858389], [-61.1378297, 10.0859076], [-61.1376661, 10.085963], [-61.1374837, 10.0859842], [-61.1373174, 10.0859366], [-61.1371189, 10.0858204], [-61.1369526, 10.0857888], [-61.1367461, 10.0858099], [-61.1364859, 10.0858997], [-61.13638, 10.0859129], [-61.1362834, 10.0859063], [-61.1360729, 10.0858323], [-61.1359629, 10.0858284], [-61.1358637, 10.0858601], [-61.1353245, 10.0862535], [-61.1349061, 10.0865836], [-61.1344904, 10.0868081], [-61.1341739, 10.0869375], [-61.1338252, 10.0870312], [-61.1336495, 10.0870471], [-61.1334819, 10.0869995], [-61.1333364, 10.086956], [-61.1332861, 10.0869672], [-61.1332539, 10.0869916], [-61.1331023, 10.0871038], [-61.1328287, 10.0873151], [-61.132417, 10.0875884], [-61.1323352, 10.0876307], [-61.132293, 10.0876393], [-61.1322507, 10.0876307], [-61.1321354, 10.0874986], [-61.1320697, 10.0874775], [-61.1320241, 10.0874934], [-61.1320093, 10.0875462], [-61.132012, 10.0876505], [-61.1319999, 10.0877284], [-61.1319396, 10.0878102], [-61.1318068, 10.0879159], [-61.1314246, 10.0882209], [-61.1311269, 10.0884427], [-61.1309096, 10.0885615], [-61.1307058, 10.0886064], [-61.1303236, 10.0886196], [-61.1301023, 10.0886487], [-61.129936, 10.0886909], [-61.1297201, 10.0888573], [-61.1294813, 10.0890184], [-61.1291876, 10.089198], [-61.1285815, 10.089433], [-61.1281416, 10.0896046], [-61.127876, 10.089668], [-61.1275139, 10.0896627], [-61.1272162, 10.0896508], [-61.1271049, 10.0896706], [-61.126999, 10.0897195], [-61.126889, 10.0898344], [-61.1267281, 10.0899572], [-61.1265671, 10.0900192], [-61.1264598, 10.0900192], [-61.1263472, 10.0899757], [-61.1262131, 10.0898727], [-61.1261628, 10.0898674], [-61.1261179, 10.0898859], [-61.1260434, 10.089944], [-61.1259583, 10.0899968], [-61.1256552, 10.0902358], [-61.1251308, 10.0907217], [-61.1249149, 10.0910333], [-61.124762, 10.0913079], [-61.1245662, 10.0916723], [-61.1238313, 10.0923325], [-61.1218947, 10.0940384], [-61.1213958, 10.0944186], [-61.1210042, 10.0947567], [-61.1208487, 10.0949626], [-61.1205214, 10.0953376], [-61.1199099, 10.095908], [-61.1191321, 10.0964837], [-61.1187512, 10.0966791], [-61.1184722, 10.09679], [-61.1179412, 10.0968111], [-61.1175013, 10.0967055], [-61.1172652, 10.0965787], [-61.1170721, 10.096547], [-61.1168683, 10.096547], [-61.1166376, 10.0966632], [-61.1163533, 10.0967794], [-61.1159134, 10.0970224], [-61.1154628, 10.0973076], [-61.114862, 10.0975928], [-61.1143041, 10.0977829], [-61.113596, 10.0979941], [-61.1132741, 10.0978885], [-61.1129737, 10.0977829], [-61.1124158, 10.0972125], [-61.1123514, 10.0969167], [-61.1122871, 10.0967266], [-61.1121369, 10.0966421], [-61.1118794, 10.0967055], [-61.1113644, 10.0969695], [-61.1108708, 10.0975294], [-61.1103666, 10.0981948], [-61.1099267, 10.0985328], [-61.1093259, 10.0988391], [-61.1089075, 10.0989553], [-61.108532, 10.0989025], [-61.1081243, 10.0985328], [-61.1078668, 10.0982899], [-61.1074698, 10.0981948], [-61.1071479, 10.0982582], [-61.1066651, 10.09848], [-61.1063218, 10.0987335], [-61.1059195, 10.0991138], [-61.1058605, 10.0990979], [-61.10578, 10.099119], [-61.1056781, 10.0991666], [-61.1056459, 10.0992405], [-61.1056513, 10.0993699], [-61.1056217, 10.0995811], [-61.1055547, 10.099729], [-61.1054581, 10.0998479], [-61.1053214, 10.099964], [-61.1050397, 10.1001779], [-61.1048815, 10.1002968], [-61.1044684, 10.1006453], [-61.1042002, 10.1009041], [-61.1040071, 10.1011312], [-61.1037013, 10.1015247], [-61.1033338, 10.1019181], [-61.1031809, 10.1021056], [-61.1029664, 10.10233], [-61.102902, 10.1023697], [-61.1028671, 10.1023776], [-61.1027598, 10.10233], [-61.1026874, 10.1023274], [-61.1026526, 10.1023406], [-61.1025667, 10.1023908], [-61.1025533, 10.1024079], [-61.1025506, 10.1024304], [-61.1025694, 10.102507], [-61.1025614, 10.1025439], [-61.1025211, 10.1025783], [-61.1022395, 10.1027763], [-61.102092, 10.102874], [-61.1019284, 10.1029876], [-61.1018398, 10.1030615], [-61.1018077, 10.1030826], [-61.1017379, 10.1030958], [-61.1014643, 10.1030932], [-61.1013061, 10.1031038], [-61.1012015, 10.103117], [-61.101172, 10.1031143], [-61.1011291, 10.1030905], [-61.100952, 10.1030536], [-61.1008957, 10.1030615], [-61.1008099, 10.1030826], [-61.1008005, 10.1030945], [-61.1008012, 10.1031163], [-61.1008112, 10.1031526], [-61.1008206, 10.1031869], [-61.1008179, 10.103212], [-61.1007804, 10.1032595], [-61.1006919, 10.103344], [-61.1006409, 10.1033744], [-61.1006087, 10.103381], [-61.1005765, 10.1033705], [-61.1005551, 10.1033308], [-61.1005108, 10.103282], [-61.1004371, 10.103249], [-61.1003593, 10.1032411], [-61.1002935, 10.1032569], [-61.1002533, 10.1032873], [-61.1002265, 10.1033242], [-61.100193, 10.1033506], [-61.1001621, 10.1033625], [-61.1000857, 10.103381], [-61.1000575, 10.1033969], [-61.1000454, 10.1034259], [-61.1000535, 10.1034642], [-61.1000629, 10.1035328], [-61.1000803, 10.103583], [-61.1001058, 10.103616], [-61.1001621, 10.1036781], [-61.1001635, 10.1037058], [-61.1001527, 10.1037283], [-61.1001031, 10.1037639], [-61.0999167, 10.103954], [-61.0998161, 10.1040663], [-61.0993266, 10.1046644], [-61.0985273, 10.1054513], [-61.0977173, 10.1062434], [-61.0973256, 10.1065762], [-61.097095, 10.106724], [-61.0967141, 10.1068719], [-61.0956252, 10.1073049], [-61.0953248, 10.107437], [-61.0947239, 10.1076377], [-61.0942572, 10.1077222], [-61.0937154, 10.1078014], [-61.0924977, 10.1080021], [-61.0920364, 10.1080337], [-61.0917896, 10.1079176], [-61.0916555, 10.1077591], [-61.0913873, 10.1075056], [-61.0909756, 10.1072587], [-61.0907476, 10.1071333], [-61.0905444, 10.1071346], [-61.0903479, 10.1071756], [-61.090307, 10.1072], [-61.0902923, 10.107233], [-61.0903104, 10.1072865], [-61.0903493, 10.1073617], [-61.0903479, 10.1074059], [-61.090313, 10.1074601], [-61.0898906, 10.108039], [-61.0892817, 10.1087111], [-61.0890551, 10.1088867], [-61.0888553, 10.1089474], [-61.0887668, 10.1089844], [-61.0887091, 10.1090398], [-61.0884972, 10.1092827], [-61.0880305, 10.1097409], [-61.0877261, 10.1099574], [-61.0874324, 10.110104], [-61.0871279, 10.110199], [-61.0865955, 10.11017], [-61.0863608, 10.1102201], [-61.0861583, 10.1102941], [-61.0859571, 10.1103667], [-61.0856152, 10.1104419], [-61.0848199, 10.1104987], [-61.0846844, 10.1104948], [-61.0845584, 10.1104373], [-61.0843854, 10.1102941], [-61.0842539, 10.1102281], [-61.0840541, 10.110236], [-61.0838825, 10.1103205], [-61.0837215, 10.1104353], [-61.0836008, 10.1104696], [-61.0834265, 10.1104419], [-61.0830885, 10.1103627], [-61.0829075, 10.1103746], [-61.0827278, 10.1104485], [-61.0825548, 10.1105885], [-61.0823549, 10.1106902], [-61.0820746, 10.1107615], [-61.0815395, 10.1108248], [-61.0814403, 10.1108195], [-61.081329, 10.1107733], [-61.0812177, 10.1106862], [-61.0811184, 10.1106585], [-61.0810225, 10.1106704], [-61.0809977, 10.1106921], [-61.0810004, 10.1107185], [-61.0810534, 10.1107628], [-61.0810604, 10.110803], [-61.0810453, 10.1108407], [-61.0810179, 10.1108882], [-61.0809481, 10.1109271], [-61.080747, 10.1110123], [-61.0805793, 10.1110585], [-61.0804345, 10.1110876], [-61.0803366, 10.1110915], [-61.0802152, 10.1110361], [-61.0801374, 10.1110295], [-61.0800751, 10.1110413], [-61.0799678, 10.1110664], [-61.0798551, 10.1110942], [-61.0796955, 10.1111496], [-61.0795239, 10.1112143], [-61.0794112, 10.1112486], [-61.0791551, 10.1112777], [-61.0788962, 10.1112869], [-61.0787018, 10.1112381], [-61.0783745, 10.1109846], [-61.0782713, 10.1108433], [-61.0782639, 10.110776], [-61.0782719, 10.1107093], [-61.078394, 10.1106763], [-61.078403, 10.1106591], [-61.0783963, 10.1106446], [-61.0783799, 10.1106373], [-61.0777412, 10.1107156], [-61.0777301, 10.110739], [-61.0777415, 10.1107545], [-61.0778857, 10.1107773], [-61.0779333, 10.110838], [-61.0779347, 10.1109133], [-61.0777697, 10.111073], [-61.0775256, 10.1112539], [-61.0773848, 10.1113146], [-61.0772802, 10.1113463], [-61.077075, 10.1113397], [-61.0768953, 10.1112764], [-61.0767719, 10.1112077], [-61.0767236, 10.1110414], [-61.0766861, 10.1109172], [-61.0766512, 10.1108684], [-61.0765721, 10.1108525], [-61.0763723, 10.1108842], [-61.0759927, 10.1109502], [-61.075872, 10.1109542], [-61.075754, 10.1109582], [-61.0756588, 10.1109925], [-61.0756132, 10.1110334], [-61.0755582, 10.1111232], [-61.0754536, 10.1112011], [-61.0750955, 10.1113846], [-61.0745779, 10.1116645], [-61.0743338, 10.1117728], [-61.0740039, 10.1118969], [-61.0735828, 10.1119999], [-61.0727137, 10.1122375], [-61.0718554, 10.1125623], [-61.0715389, 10.1126098], [-61.071268, 10.112561], [-61.0710655, 10.1125016], [-61.0708737, 10.1124884], [-61.0707255, 10.1125022], [-61.070629, 10.1125029], [-61.0705297, 10.1124917], [-61.0704446, 10.1124382], [-61.0703406, 10.1123623], [-61.0702246, 10.1122639], [-61.0700637, 10.1122243], [-61.0700101, 10.112227], [-61.0699511, 10.112256], [-61.069833, 10.1123445], [-61.0695206, 10.1125253], [-61.0693422, 10.1126224], [-61.0692939, 10.1126362], [-61.0692564, 10.1126389], [-61.0692222, 10.112631], [-61.0691826, 10.1126118], [-61.0691316, 10.1125927], [-61.0690619, 10.1125867], [-61.069021, 10.1125999], [-61.0688708, 10.112629], [-61.0687662, 10.1126356], [-61.0686958, 10.1126105], [-61.0685804, 10.1125478], [-61.0684651, 10.1125214], [-61.0683846, 10.1125293], [-61.0683243, 10.1125451], [-61.0682532, 10.1125465], [-61.068154, 10.1125095], [-61.0680789, 10.1124738], [-61.0680293, 10.1124633], [-61.0679575, 10.1124725], [-61.067757, 10.1125795], [-61.067352, 10.1129003], [-61.0669376, 10.1132106], [-61.0663395, 10.1136594], [-61.0659787, 10.1139129], [-61.0657722, 10.1140502], [-61.0656823, 10.1140978], [-61.0655992, 10.1141427], [-61.0654436, 10.1141942], [-61.0651915, 10.1142377], [-61.0650104, 10.1142311], [-61.064816, 10.1141783], [-61.0646845, 10.1141479], [-61.0645156, 10.1141559], [-61.0644043, 10.1141981], [-61.0642111, 10.1143117], [-61.0639134, 10.1144873], [-61.0637525, 10.1145269], [-61.0635299, 10.114548], [-61.0633475, 10.1145374], [-61.0630122, 10.1145348], [-61.0628486, 10.1145559], [-61.062642, 10.1146166], [-61.0623658, 10.1147275], [-61.06217, 10.1147982], [-61.062052, 10.1148629], [-61.061952, 10.1149414], [-61.0618897, 10.1150147], [-61.0618079, 10.1151896], [-61.0616791, 10.1154378], [-61.0614216, 10.1158154], [-61.0610917, 10.1162089], [-61.0607699, 10.1164518], [-61.0606545, 10.1167502], [-61.0605419, 10.1170934], [-61.060338, 10.1175767], [-61.0599303, 10.1191293], [-61.0596541, 10.1198448], [-61.0591015, 10.1209934], [-61.0581735, 10.1226041], [-61.0575727, 10.1238161], [-61.0569102, 10.1250492], [-61.056363, 10.125836], [-61.0555637, 10.1267655], [-61.0550755, 10.1275338], [-61.0541475, 10.1288619], [-61.0536177, 10.1294613], [-61.0534702, 10.1296052], [-61.0533489, 10.1296772], [-61.0532409, 10.1297069], [-61.0531504, 10.1297445], [-61.0530867, 10.12979], [-61.0529982, 10.1299221], [-61.052919, 10.1300475], [-61.0528345, 10.1301663], [-61.0523611, 10.1306838], [-61.0518703, 10.131167], [-61.0514653, 10.1316264], [-61.0505159, 10.1324711], [-61.0498655, 10.133025], [-61.0491655, 10.1336245], [-61.0488761, 10.1338502], [-61.0486633, 10.1340265], [-61.0486213, 10.1340587], [-61.0471523, 10.135183], [-61.0462539, 10.1358736], [-61.0453644, 10.1364153], [-61.0445315, 10.1369026], [-61.0432121, 10.1378404], [-61.0418952, 10.1388056], [-61.0410905, 10.1394076], [-61.0401276, 10.1402736], [-61.0397655, 10.1405931], [-61.03928, 10.1410155], [-61.0389796, 10.1412637], [-61.0388669, 10.1413587], [-61.0388052, 10.141401], [-61.0387114, 10.1414591], [-61.0385934, 10.1415251], [-61.0384592, 10.1416096], [-61.0383385, 10.1416993], [-61.0376626, 10.1422749], [-61.0370028, 10.1428611], [-61.0365468, 10.143236], [-61.0361767, 10.1435159], [-61.0358977, 10.1437007], [-61.0356939, 10.143838], [-61.0352111, 10.1441812], [-61.0347068, 10.1445561], [-61.0340524, 10.1450261], [-61.0268831, 10.1498044], [-61.0268004, 10.1498596], [-61.0265544, 10.1500235], [-61.0252185, 10.1509139], [-61.0245614, 10.1512439], [-61.024159, 10.1514723], [-61.0229903, 10.1517071], [-61.0225324, 10.1520103], [-61.0221803, 10.1521294], [-61.0219372, 10.1520716], [-61.0211992, 10.1526089], [-61.0211261, 10.1527693], [-61.0210564, 10.1529118], [-61.0209987, 10.1529996], [-61.0209679, 10.153032], [-61.0209136, 10.1530584], [-61.0206065, 10.1531607], [-61.0203221, 10.1532293], [-61.0199735, 10.1533059], [-61.0195899, 10.1533904], [-61.0189542, 10.153496], [-61.0183293, 10.153591], [-61.0181335, 10.1536254], [-61.018002, 10.1536518], [-61.0177848, 10.1537072], [-61.0173556, 10.153797], [-61.0169774, 10.1538656], [-61.0164303, 10.1539343], [-61.0161674, 10.1539686], [-61.0160092, 10.1539791], [-61.0159287, 10.1539686], [-61.0158321, 10.1539422], [-61.01569, 10.1539316], [-61.015462, 10.1539554], [-61.0152045, 10.1540029], [-61.0146251, 10.1541244], [-61.0141128, 10.1541983], [-61.0132492, 10.1542986], [-61.0124552, 10.1543725], [-61.0118571, 10.1544069], [-61.0110927, 10.1544095], [-61.0103256, 10.1544042], [-61.0094082, 10.1543541], [-61.0090569, 10.1543039], [-61.0086438, 10.1542247], [-61.0076273, 10.1539818], [-61.0069379, 10.1537547], [-61.0056102, 10.1532927], [-61.0051811, 10.1531343], [-61.0042959, 10.1527541], [-61.0040009, 10.1526274], [-61.0032606, 10.1523211], [-61.002759, 10.1520861], [-61.002582, 10.1519937], [-61.00224, 10.1517878], [-61.0020188, 10.1516254], [-61.0015292, 10.1513257], [-61.0011269, 10.1510934], [-61.0009311, 10.1509548], [-61.0008627, 10.1509033], [-61.0008131, 10.1508545], [-61.0007259, 10.1507686], [-61.0006924, 10.1507106], [-61.0006844, 10.1506736], [-61.000687, 10.1506353], [-61.0007206, 10.1505587], [-61.000742, 10.1504848], [-61.000746, 10.1504129], [-61.0007344, 10.1502957], [-61.0007222, 10.1502138], [-61.0006696, 10.1500109], [-61.0006275, 10.1496921], [-61.0005044, 10.1493585], [-61.000463, 10.1491462], [-61.0002304, 10.1489825], [-61.0001707, 10.1488624], [-61.0002096, 10.1486761], [-61.0002543, 10.1485654], [-61.0002428, 10.1482097], [-61.0002244, 10.1480994], [-61.0002541, 10.1479566], [-61.0002673, 10.1478629], [-61.0002292, 10.1475964], [-61.0002002, 10.1473891], [-61.0000929, 10.1472571], [-60.9998703, 10.1469165], [-60.9997954, 10.1463468], [-60.9997699, 10.1462149], [-60.9996986, 10.1461034], [-60.9996845, 10.1457231], [-60.9995573, 10.1455755], [-60.9995041, 10.1453611], [-60.999449, 10.1453073], [-60.9993878, 10.1452715], [-60.9993822, 10.1452176], [-60.9994171, 10.1451737], [-60.9994261, 10.145102], [-60.9993712, 10.1450614], [-60.9993312, 10.145067], [-60.9992919, 10.1450379], [-60.9992977, 10.1449931], [-60.9993371, 10.1449579], [-60.9993538, 10.1449139], [-60.999363, 10.1448038], [-60.9992447, 10.1447408], [-60.9991692, 10.1446357], [-60.9990957, 10.1445327], [-60.9990918, 10.1444945], [-60.9991325, 10.1444723], [-60.9991754, 10.1444599], [-60.9992064, 10.1444351], [-60.9992357, 10.1443656], [-60.9992246, 10.1443268], [-60.9992013, 10.1442821], [-60.9991582, 10.1442512], [-60.9991315, 10.1441726], [-60.9991408, 10.1441006], [-60.9991717, 10.1440667], [-60.999207, 10.144069], [-60.9992573, 10.1440935], [-60.9993206, 10.1440625], [-60.9993555, 10.1440214], [-60.9993149, 10.1439344], [-60.9992963, 10.143904], [-60.9993086, 10.1438334], [-60.9992781, 10.1437663], [-60.9992453, 10.1437033], [-60.9992644, 10.1436463], [-60.9992532, 10.1435392], [-60.9991863, 10.1434842], [-60.9990737, 10.1435198], [-60.998928, 10.1433247], [-60.9989133, 10.1431689], [-60.9988179, 10.1430659], [-60.9987102, 10.1426118], [-60.9986137, 10.1425205], [-60.9986097, 10.1424069], [-60.998835, 10.1421429], [-60.9990416, 10.1417901], [-60.9991489, 10.1417887], [-60.9992671, 10.1416854], [-60.9993036, 10.1415624], [-60.9992275, 10.1414552], [-60.9993488, 10.1411352], [-60.9995323, 10.1410919], [-60.9999371, 10.140736], [-61.0002047, 10.1404941], [-61.00025, 10.1403587], [-61.0004348, 10.140218], [-61.0005123, 10.1400297], [-61.0005221, 10.1398538], [-61.0007152, 10.1395224], [-61.0010545, 10.1392901], [-61.0012382, 10.1391356], [-61.0014568, 10.1389983], [-61.0015976, 10.1389257], [-61.0017948, 10.1388161], [-61.0019168, 10.1387594], [-61.0021153, 10.1387224], [-61.0022667, 10.1387127], [-61.0023835, 10.1387052], [-61.0034975, 10.1387156], [-61.0034886, 10.1385336], [-61.0025176, 10.138523], [-61.0025083, 10.1377441], [-61.0025324, 10.1372002], [-61.0035007, 10.1371989], [-61.0035074, 10.1370101], [-61.0023943, 10.1369917], [-61.0022507, 10.1370656], [-61.0000645, 10.1381913], [-60.9999893, 10.1382528], [-60.9994497, 10.138472], [-60.9988678, 10.1388049], [-60.9988175, 10.1388194], [-60.9987398, 10.1388056], [-60.9984407, 10.1385019], [-60.9984031, 10.1383791], [-60.9984005, 10.1382973], [-60.9984434, 10.1381521], [-60.9985547, 10.1378907], [-60.9985963, 10.1377904], [-60.9986204, 10.1376702], [-60.9986097, 10.1376333], [-60.9985775, 10.1376016], [-60.9983951, 10.1376253], [-60.9982663, 10.1377098], [-60.9981161, 10.1378735], [-60.9980491, 10.1379422], [-60.997797, 10.1380319], [-60.9975153, 10.138061], [-60.9974161, 10.1380504], [-60.9973034, 10.1380346], [-60.9971452, 10.1379844], [-60.9969212, 10.1379177], [-60.9968233, 10.137929], [-60.9967402, 10.1379818], [-60.996659, 10.1380689], [-60.996602, 10.1381059], [-60.9964954, 10.1381461], [-60.9962815, 10.1381455], [-60.9962111, 10.1381554], [-60.9961273, 10.1381653], [-60.9957424, 10.1381864], [-60.9953906, 10.1381446], [-60.9951201, 10.1380557], [-60.9949163, 10.1379699], [-60.9948063, 10.1379395], [-60.994695, 10.1379026], [-60.9946172, 10.137855], [-60.9945796, 10.1378022], [-60.99453, 10.1376966], [-60.9945206, 10.1375976], [-60.9945449, 10.1374765], [-60.9946185, 10.1372451], [-60.9946843, 10.136754], [-60.9946802, 10.1366893], [-60.9946427, 10.1366365], [-60.9942269, 10.1365296], [-60.9937441, 10.1365032], [-60.9934144, 10.1365549], [-60.9931812, 10.1365608], [-60.9929958, 10.1365982], [-60.9928522, 10.1366077], [-60.9927088, 10.1366167], [-60.9926149, 10.1366088], [-60.992564, 10.1366246], [-60.9925398, 10.1366722], [-60.9924889, 10.1367435], [-60.9923816, 10.136828], [-60.9922475, 10.1368438], [-60.9921536, 10.1368438], [-60.9920329, 10.1368147], [-60.9918276, 10.1366555], [-60.9917646, 10.1365658], [-60.9917459, 10.1364926], [-60.9917593, 10.1364425], [-60.9920136, 10.1363769], [-60.9920098, 10.1363266], [-60.9907649, 10.1364035], [-60.9907454, 10.1364154], [-60.9907414, 10.1364477], [-60.9907615, 10.1365692], [-60.9907944, 10.136585], [-60.9908373, 10.1365784], [-60.9910592, 10.1365058], [-60.9912765, 10.1364636], [-60.9913543, 10.1364768], [-60.9913865, 10.1365296], [-60.9914213, 10.1368174], [-60.9913764, 10.137257], [-60.9913402, 10.1374458], [-60.9912711, 10.137628], [-60.9912175, 10.1377679], [-60.9911585, 10.1378814], [-60.9910257, 10.1380663], [-60.9909546, 10.1381112], [-60.9908601, 10.1381237], [-60.9906656, 10.1381085], [-60.9905419, 10.1380785], [-60.9904946, 10.1380768], [-60.990447, 10.1380927], [-60.9904142, 10.1381178], [-60.9903545, 10.1381983], [-60.9902378, 10.138265], [-60.9901305, 10.1383079], [-60.9899984, 10.1383514], [-60.9898911, 10.138395], [-60.9897946, 10.1384702], [-60.9897181, 10.1386023], [-60.9896487, 10.1387497], [-60.9894514, 10.1389117], [-60.9892729, 10.1390538], [-60.9892149, 10.1390789], [-60.9891737, 10.1390432], [-60.9890625, 10.1389243], [-60.9889298, 10.1388925], [-60.9887449, 10.1389105], [-60.9885561, 10.1389204], [-60.9885232, 10.138933], [-60.9885346, 10.1389455], [-60.9885701, 10.1389693], [-60.9886546, 10.1389831], [-60.9887384, 10.138966], [-60.9887633, 10.1389679], [-60.9887606, 10.1389838], [-60.9887261, 10.1390226], [-60.9886085, 10.1390359], [-60.98855, 10.1390432], [-60.9885366, 10.1390755], [-60.9886486, 10.1390907], [-60.9886735, 10.1391059], [-60.9886466, 10.1391302], [-60.9885292, 10.1391712], [-60.9885031, 10.1391937], [-60.9883529, 10.1392142], [-60.9882839, 10.1392241], [-60.9882591, 10.1392557], [-60.9883127, 10.139302], [-60.9883314, 10.1393613], [-60.9882818, 10.1394115], [-60.9882497, 10.1394326], [-60.9882429, 10.139465], [-60.9881893, 10.1394908], [-60.9882785, 10.1395541], [-60.9881457, 10.1395746], [-60.9881444, 10.1395878], [-60.9882972, 10.1395878], [-60.9883435, 10.1396155], [-60.9883093, 10.1396617], [-60.9883247, 10.1397435], [-60.9882879, 10.1397726], [-60.9882362, 10.1397937], [-60.9881739, 10.1397957], [-60.9881155, 10.1398128], [-60.9881095, 10.1398267], [-60.9882295, 10.1398181], [-60.9883569, 10.1397581], [-60.9883978, 10.1397469], [-60.9884267, 10.1396901], [-60.9885252, 10.1396279], [-60.9886223, 10.1395806], [-60.9887257, 10.1395739], [-60.9889537, 10.1395713], [-60.9891281, 10.1394973], [-60.989356, 10.1393125], [-60.9895492, 10.1392175], [-60.9898297, 10.1391544], [-60.9900534, 10.1391646], [-60.9905523, 10.1392439], [-60.9907937, 10.1394551], [-60.991239, 10.1400835], [-60.9918666, 10.141071], [-60.9922928, 10.1417457], [-60.9925448, 10.142385], [-60.9929955, 10.1436113], [-60.9942591, 10.1472809], [-60.9948492, 10.1495251], [-60.9954608, 10.1521548], [-60.9962171, 10.1557982], [-60.9963995, 10.1565375], [-60.9967616, 10.1583064], [-60.9968367, 10.1590351], [-60.9970164, 10.1595816], [-60.9972686, 10.160408], [-60.997408, 10.1609677], [-60.9975046, 10.1613399], [-60.9975904, 10.1618152], [-60.9976816, 10.1623881], [-60.9979338, 10.1644579], [-60.9981859, 10.1659575], [-60.9987867, 10.1696959], [-60.9994304, 10.1738144], [-60.9996638, 10.175364], [-60.9997737, 10.1761956], [-60.9998918, 10.176919], [-61.0000205, 10.1774893], [-61.0001519, 10.178474], [-61.0002404, 10.178965], [-61.0003665, 10.1794376], [-61.0004658, 10.1801952], [-61.0005569, 10.1807998], [-61.0006079, 10.1811192], [-61.0006321, 10.1814651], [-61.0006884, 10.1818003], [-61.0007608, 10.1822201], [-61.0007957, 10.1826399], [-61.0009217, 10.1832734], [-61.0009512, 10.1836246], [-61.0010238, 10.1844829], [-61.0010572, 10.1850548], [-61.0016593, 10.1896806], [-61.0018471, 10.1911378], [-61.0019195, 10.1917186], [-61.0020241, 10.1922914], [-61.0021019, 10.1930755], [-61.0022226, 10.1939598], [-61.0023299, 10.1945802], [-61.0024425, 10.1949867], [-61.0024989, 10.1952824], [-61.0025257, 10.1956572], [-61.0025686, 10.1960163], [-61.0026223, 10.1964914], [-61.0026249, 10.1967792], [-61.0026249, 10.1973019], [-61.0026786, 10.1977058], [-61.0034808, 10.2036337], [-61.0034859, 10.2036717], [-61.0035342, 10.2041839], [-61.0035664, 10.2047857], [-61.0035878, 10.2053454], [-61.0036308, 10.2066811], [-61.0036737, 10.2075364], [-61.0037434, 10.2086609], [-61.0037863, 10.2094], [-61.0038453, 10.2103398], [-61.0038775, 10.2111475], [-61.003899, 10.21195], [-61.0039043, 10.2126363], [-61.0038936, 10.2133438], [-61.0038963, 10.2151942], [-61.0037622, 10.21691], [-61.00362, 10.2185809], [-61.0034913, 10.2195734], [-61.0034618, 10.219943], [-61.0034323, 10.2208589], [-61.0034055, 10.2209988], [-61.0033775, 10.2212368], [-61.0033296, 10.2216432], [-61.0028863, 10.2263891], [-61.0028839, 10.2264203], [-61.0028822, 10.2264433], [-61.0027134, 10.2278143], [-61.0025981, 10.2285692], [-61.0025203, 10.2292423], [-61.0023755, 10.2302876], [-61.0022521, 10.2312827], [-61.0021207, 10.2324125], [-61.0020375, 10.2329562], [-61.0014153, 10.237607], [-61.0012168, 10.239555], [-61.0011739, 10.2401093], [-61.0011231, 10.2415103], [-61.0009125, 10.2434422], [-61.0008038, 10.2444112], [-61.0006881, 10.2454913], [-61.000623, 10.2461566], [-61.000544, 10.2468641], [-61.0001706, 10.2495859], [-61.00012, 10.2501455], [-61.0000527, 10.2506037], [-61.0000044, 10.2510366], [-60.9999776, 10.2512952], [-60.9997974, 10.2524631], [-60.9997577, 10.2527205], [-60.9994867, 10.2545153], [-60.9994465, 10.2549798], [-60.9994358, 10.2555552], [-60.9994412, 10.2567323], [-60.9995002, 10.2585429], [-60.9994465, 10.2593875], [-60.9993956, 10.2601661], [-60.9993553, 10.2608919], [-60.999307, 10.2613195], [-60.9992158, 10.2621324], [-60.9991356, 10.2626186], [-60.9989262, 10.263869], [-60.998674, 10.2666667], [-60.9985721, 10.2682397], [-60.9985641, 10.2713249], [-60.9985641, 10.2716311], [-60.9985346, 10.2725944], [-60.9985693, 10.2748008], [-60.9983922, 10.2769174], [-60.9983518, 10.2797174], [-60.998471, 10.2817416], [-60.9985026, 10.2837166], [-60.9984627, 10.2856944], [-60.9984818, 10.2867513], [-60.998497, 10.2885533], [-60.9985051, 10.2887038], [-60.9984924, 10.2889522], [-60.9984595, 10.2893635], [-60.9984215, 10.2897157], [-60.9983709, 10.2907121], [-60.998299, 10.2911776], [-60.9982985, 10.2923509], [-60.998269, 10.2929658], [-60.998261, 10.2936177], [-60.9981295, 10.2946443], [-60.9981161, 10.2951035], [-60.9980464, 10.2953806], [-60.9980088, 10.2957474], [-60.9979445, 10.2959849], [-60.997915, 10.2962409], [-60.9979257, 10.2964203], [-60.9979069, 10.2966526], [-60.9978452, 10.2969112], [-60.9977701, 10.2972543], [-60.9977219, 10.2974997], [-60.9976843, 10.2976739], [-60.9976575, 10.2977926], [-60.997628, 10.2979721], [-60.9976119, 10.2982228], [-60.9975851, 10.2983864], [-60.9975341, 10.2985843], [-60.9974912, 10.29874], [-60.9974912, 10.2989247], [-60.997518, 10.2991332], [-60.9975073, 10.2992968], [-60.9973705, 10.2998035], [-60.9973356, 10.300107], [-60.9973115, 10.3003524], [-60.9972981, 10.3004818], [-60.9970629, 10.3023989], [-60.9969301, 10.3028645], [-60.9967994, 10.3033131], [-60.9966457, 10.3042564], [-60.996551, 10.3045801], [-60.9964049, 10.3050577], [-60.9963432, 10.3052899], [-60.9962735, 10.3055354], [-60.9953481, 10.308264], [-60.9948492, 10.3094621], [-60.9943932, 10.3105229], [-60.9941049, 10.3112231], [-60.9940631, 10.3113246], [-60.994015, 10.3114413], [-60.9934947, 10.312634], [-60.9925179, 10.3149103], [-60.9924841, 10.3149786], [-60.9924343, 10.3150792], [-60.9918725, 10.3161964], [-60.9918144, 10.3163104], [-60.9917628, 10.3164117], [-60.99041, 10.31907], [-60.990279, 10.3194771], [-60.9900588, 10.3200228], [-60.989981, 10.3202629], [-60.9898523, 10.3205901], [-60.989702, 10.3208672], [-60.9896216, 10.3210124], [-60.9895679, 10.321139], [-60.9894446, 10.3214187], [-60.9892756, 10.3217354], [-60.9891951, 10.3219043], [-60.9891093, 10.3221022], [-60.9889618, 10.3224927], [-60.9887499, 10.3229044], [-60.9885567, 10.3232026], [-60.98831, 10.3235931], [-60.9880069, 10.3241156], [-60.9878352, 10.3244402], [-60.9876098, 10.3249424], [-60.9874221, 10.3253317], [-60.9871972, 10.3256294], [-60.9866631, 10.3264126], [-60.9863573, 10.3268837], [-60.9861039, 10.3273652], [-60.9858008, 10.3279497], [-60.9855124, 10.3284326], [-60.9851423, 10.3289603], [-60.9847145, 10.3294657], [-60.9843108, 10.3299116], [-60.9839366, 10.3303536], [-60.9837998, 10.3304288], [-60.9836818, 10.330413], [-60.9818117, 10.3298707], [-60.981748, 10.3298358], [-60.9817117, 10.3297995], [-60.9816568, 10.3297163], [-60.9815937, 10.3296596], [-60.9815159, 10.3296345], [-60.9814107, 10.329626], [-60.9812719, 10.3296016], [-60.981184, 10.3295811], [-60.981129, 10.3295481], [-60.981068, 10.3294954], [-60.981003, 10.329465], [-60.9809534, 10.329467], [-60.9809051, 10.3294749], [-60.9808498, 10.3294861], [-60.9808035, 10.3294871], [-60.9804673, 10.329392], [-60.9801726, 10.3293569], [-60.9799036, 10.3292541], [-60.9798355, 10.3291231], [-60.979839, 10.3288992], [-60.9797029, 10.3287987], [-60.977675, 10.328174], [-60.9769321, 10.3278917], [-60.9764922, 10.327794], [-60.9762052, 10.3277069], [-60.9758216, 10.3276383], [-60.9753737, 10.3276225], [-60.9751216, 10.3275856], [-60.9748989, 10.3274589], [-60.9748051, 10.3273032], [-60.974738, 10.3272399], [-60.974392, 10.3271027], [-60.9741908, 10.3270341], [-60.973987, 10.3270024], [-60.9738663, 10.327042], [-60.973767, 10.3271053], [-60.9736383, 10.3271396], [-60.9734908, 10.3271739], [-60.9734237, 10.3272346], [-60.9733781, 10.3274721], [-60.9732842, 10.3277386], [-60.9730214, 10.3282716], [-60.9728497, 10.3285593], [-60.9726499, 10.3288192], [-60.9725346, 10.3289392], [-60.9724782, 10.3289841], [-60.9724233, 10.3289881], [-60.9722516, 10.3289564], [-60.9721228, 10.3289287], [-60.9719163, 10.3288944], [-60.9716696, 10.3288825], [-60.9715046, 10.3288785], [-60.9714013, 10.3288548], [-60.9712176, 10.3288086], [-60.9710929, 10.328802], [-60.9709252, 10.328802], [-60.9708327, 10.3287994], [-60.9707563, 10.3287869], [-60.9706836, 10.3287632], [-60.9706108, 10.3287558], [-60.9705585, 10.328744], [-60.9705175, 10.3287374], [-60.9704847, 10.328746], [-60.9704552, 10.3287631], [-60.9704451, 10.3287941], [-60.9704559, 10.3288172], [-60.9705001, 10.3288376], [-60.9705953, 10.328835], [-60.9706718, 10.3288667], [-60.9708649, 10.3289999], [-60.9709467, 10.3291134], [-60.9709856, 10.3292546], [-60.9709775, 10.329533], [-60.9709749, 10.3297177], [-60.9709588, 10.329942], [-60.9709615, 10.3303193], [-60.9709507, 10.3305911], [-60.9709346, 10.3308075], [-60.9708488, 10.3315489], [-60.9708139, 10.3318181], [-60.970653, 10.3329554], [-60.9704894, 10.3341138], [-60.9704411, 10.3343697], [-60.9703526, 10.3346679], [-60.9702212, 10.3349872], [-60.9700817, 10.3352115], [-60.9700146, 10.3352722], [-60.9699342, 10.3352854], [-60.9697589, 10.3352227], [-60.9694343, 10.3350772], [-60.9691503, 10.3349621], [-60.9691174, 10.3349555], [-60.9690994, 10.3349542], [-60.9690839, 10.3349628], [-60.9690752, 10.3349819], [-60.9690839, 10.3350004], [-60.9696901, 10.3353302], [-60.9697035, 10.3353513], [-60.9697089, 10.3354041], [-60.9696874, 10.3355994], [-60.9695211, 10.3362089], [-60.9694165, 10.3365018], [-60.969277, 10.3368395], [-60.9691885, 10.3370691], [-60.9690893, 10.3372855], [-60.9689471, 10.3375493], [-60.9688613, 10.3377209], [-60.9687835, 10.3379662], [-60.9687272, 10.3383832], [-60.9686118, 10.3386523], [-60.9683543, 10.3390085], [-60.968172, 10.3392566], [-60.9681022, 10.3393779], [-60.9679929, 10.3395395], [-60.9678903, 10.3397051], [-60.9678072, 10.339845], [-60.9676945, 10.3399901], [-60.9675819, 10.3401458], [-60.9674585, 10.3403067], [-60.9673324, 10.3404228], [-60.9672734, 10.3404545], [-60.9671661, 10.3404466], [-60.9655675, 10.3397447], [-60.965542, 10.3397658], [-60.9655353, 10.3397948], [-60.9655863, 10.3398423], [-60.9666243, 10.340349], [-60.96685, 10.3404297], [-60.9670615, 10.3405284], [-60.9671836, 10.3405983], [-60.9672681, 10.3406656], [-60.9673029, 10.3407012], [-60.9673727, 10.3407461], [-60.9675631, 10.34082], [-60.9680325, 10.341037], [-60.9681123, 10.3410324], [-60.9681693, 10.341006], [-60.9681901, 10.3409631], [-60.9681914, 10.3409354], [-60.9681773, 10.3409163], [-60.9681438, 10.3408899], [-60.9681398, 10.3408681], [-60.9681458, 10.3408371], [-60.9682102, 10.340785], [-60.9682873, 10.340754], [-60.9683838, 10.3407665], [-60.9684455, 10.3408002], [-60.9685019, 10.3408872], [-60.9685193, 10.3409601], [-60.9685159, 10.3410195], [-60.9685039, 10.3410485], [-60.9684891, 10.3410574], [-60.968472, 10.3410574], [-60.9683906, 10.3410304], [-60.9683584, 10.341033], [-60.9683403, 10.3410489], [-60.9683201, 10.3410977], [-60.9683302, 10.3411577], [-60.9683651, 10.3412078], [-60.9684013, 10.3412349], [-60.9687057, 10.3413886], [-60.9691885, 10.3415548], [-60.9692314, 10.3415225], [-60.9692368, 10.3414704], [-60.9687433, 10.3412039], [-60.9686762, 10.3411696], [-60.9686601, 10.3411194], [-60.9687728, 10.3408582], [-60.9689176, 10.3405917], [-60.9692207, 10.340064], [-60.9693897, 10.3398397], [-60.969497, 10.3396893], [-60.9697089, 10.3394703], [-60.9700307, 10.3391853], [-60.9702212, 10.3391167], [-60.9705135, 10.3390903], [-60.9708247, 10.3391246], [-60.97105, 10.3391853], [-60.971235, 10.3393146], [-60.9713665, 10.3393674], [-60.9714684, 10.3393621], [-60.9715784, 10.3393252], [-60.9717312, 10.3393304], [-60.9718895, 10.3393885], [-60.9721443, 10.3395442], [-60.9723106, 10.3396154], [-60.972493, 10.3396154], [-60.9726727, 10.3395758], [-60.9728417, 10.3395389], [-60.9729302, 10.3394808], [-60.9730643, 10.3393595], [-60.9731662, 10.3393357], [-60.9732842, 10.3394175], [-60.9734559, 10.3395099], [-60.9734961, 10.3394808], [-60.9733835, 10.3393463], [-60.9733915, 10.3392856], [-60.9734291, 10.3391774], [-60.97348, 10.3391141], [-60.9736195, 10.3390191], [-60.9738609, 10.338903], [-60.9739709, 10.3388528], [-60.9740782, 10.3388053], [-60.9742324, 10.3387473], [-60.9743236, 10.3387354], [-60.9744336, 10.3387513], [-60.9745932, 10.3388344], [-60.9746455, 10.3388542], [-60.9747326, 10.3388634], [-60.9748708, 10.3388937], [-60.9750491, 10.3389452], [-60.9756754, 10.3392262], [-60.9757988, 10.3392697], [-60.9758672, 10.3392645], [-60.975945, 10.3392077], [-60.976004, 10.3391655], [-60.976114, 10.3391418], [-60.9762186, 10.3391642], [-60.9763004, 10.339246], [-60.9763165, 10.3393199], [-60.9763245, 10.3394056], [-60.9763688, 10.3394888], [-60.9765585, 10.3396216], [-60.976692, 10.3396801], [-60.976865, 10.3397632], [-60.9771144, 10.3398846], [-60.9775127, 10.3400511], [-60.9775372, 10.3400498], [-60.9775443, 10.3400379], [-60.9775369, 10.3400247], [-60.9774251, 10.3399123], [-60.9774068, 10.3397315], [-60.9774687, 10.339566], [-60.9776643, 10.3392671], [-60.9778789, 10.3391022], [-60.9781672, 10.3390059], [-60.978308, 10.338994], [-60.978481, 10.3389901], [-60.9788378, 10.3391589], [-60.9788968, 10.3392163], [-60.9789182, 10.3392961], [-60.9789383, 10.3393515], [-60.979, 10.3394281], [-60.9797752, 10.3398714], [-60.9799321, 10.3399149], [-60.9799569, 10.3399014], [-60.9799586, 10.3398793], [-60.979914, 10.3398278], [-60.9798691, 10.3397816], [-60.979853, 10.3397289], [-60.9798637, 10.339651], [-60.979857, 10.3395837], [-60.9798221, 10.3395297], [-60.9796867, 10.3394149], [-60.9796512, 10.3393106], [-60.9796505, 10.3391734], [-60.9797564, 10.3389531], [-60.9798771, 10.3387447], [-60.9801641, 10.3384175], [-60.9803867, 10.3381985], [-60.9805343, 10.3380903], [-60.9806442, 10.3380401], [-60.9807646, 10.3380233], [-60.9809118, 10.3380329], [-60.98095, 10.338019], [-60.9809487, 10.3379847], [-60.980895, 10.3379517], [-60.9807971, 10.3379108], [-60.9806791, 10.3378541], [-60.9805718, 10.3377881], [-60.9805302, 10.3377169], [-60.9805423, 10.33761], [-60.9806255, 10.3373119], [-60.9807301, 10.3370322], [-60.9808427, 10.3368026], [-60.9810063, 10.3365414], [-60.981178, 10.3363672], [-60.9813631, 10.3362115], [-60.9816393, 10.3360558], [-60.9820336, 10.3358817], [-60.9825513, 10.3357075], [-60.9831923, 10.335536], [-60.983777, 10.3354199], [-60.9841847, 10.3353724], [-60.9846032, 10.3353645], [-60.9852415, 10.3354305], [-60.9858397, 10.3355756], [-60.9863868, 10.3357207], [-60.9867758, 10.3358474], [-60.9873685, 10.3360981], [-60.9876582, 10.3362485], [-60.9878849, 10.3364266], [-60.9880109, 10.336544], [-60.9880941, 10.3365836], [-60.9881745, 10.3365796], [-60.9882563, 10.3365519], [-60.9883207, 10.3365084], [-60.9884334, 10.3364173], [-60.9885567, 10.3364028], [-60.9886694, 10.3364373], [-60.9896913, 10.336829], [-60.9907291, 10.3373702], [-60.9908527, 10.3374386], [-60.9911558, 10.3375572], [-60.9916089, 10.3377028], [-60.9918746, 10.3380428], [-60.993138, 10.3395837], [-60.9948278, 10.3415575], [-60.9959677, 10.3429454], [-60.9967616, 10.3439982], [-60.9985614, 10.3464626], [-60.9991868, 10.3473259], [-60.9996396, 10.3479561], [-61.0007769, 10.3497081], [-61.0013777, 10.3506158], [-61.0017961, 10.351286], [-61.0024452, 10.3524469], [-61.0028637, 10.3531541], [-61.0034806, 10.3542464], [-61.0039151, 10.3551013], [-61.0047188, 10.3565337], [-61.00576, 10.3587101], [-61.0076635, 10.3627542], [-61.0081851, 10.3640299], [-61.008566, 10.364861], [-61.0087632, 10.3653148], [-61.0092071, 10.3662673], [-61.0097301, 10.3675232], [-61.0103041, 10.3686947], [-61.0108566, 10.370035], [-61.0124874, 10.3737023], [-61.0138446, 10.377053], [-61.0144776, 10.3787943], [-61.0150892, 10.3803773], [-61.0157597, 10.3823455], [-61.0165349, 10.3843954], [-61.0169479, 10.3855457], [-61.0177928, 10.3879254], [-61.0181522, 10.3889095], [-61.0184929, 10.3897036], [-61.018922, 10.3904687], [-61.0197316, 10.3915368], [-61.0199473, 10.3919949], [-61.0200476, 10.3925772], [-61.0201043, 10.3931026], [-61.0201907, 10.3936372], [-61.0203651, 10.3947373], [-61.0209525, 10.3971275], [-61.0213146, 10.3983674], [-61.0218081, 10.4000347], [-61.0224974, 10.4024908], [-61.0230875, 10.4043375], [-61.0243481, 10.4082102], [-61.0255176, 10.4121462], [-61.026392, 10.4150507], [-61.0269177, 10.4167733], [-61.0271484, 10.4175753], [-61.0277546, 10.4196646], [-61.0285807, 10.4225821], [-61.0293746, 10.4253177], [-61.0296804, 10.426452], [-61.0299566, 10.4273779], [-61.0303375, 10.4286837], [-61.0307238, 10.4301583], [-61.0310993, 10.4314535], [-61.0313916, 10.4324163], [-61.0316142, 10.4330757], [-61.031979, 10.4341863], [-61.0323358, 10.4353127], [-61.0329984, 10.4377261], [-61.038777, 10.4372507], [-61.0970836, 10.4369848], [-61.0971148, 10.4446518], [-61.1019655, 10.4446394], [-61.103607, 10.4401048], [-61.1046512, 10.4378651], [-61.1052481, 10.4372412], [-61.1068723, 10.4372604], [-61.1081366, 10.4374106], [-61.1089527, 10.4355399], [-61.1098649, 10.4348432], [-61.1130047, 10.4361191], [-61.1150977, 10.4364998], [-61.1168353, 10.4377373], [-61.1188344, 10.4382768], [-61.1193399, 10.4380051], [-61.1196242, 10.4371924], [-61.120284, 10.4360434], [-61.1210613, 10.4354028], [-61.1218952, 10.4351722], [-61.1228593, 10.4354051], [-61.1236847, 10.4358672], [-61.1242583, 10.4358555], [-61.1248375, 10.4352931], [-61.1249875, 10.4340976], [-61.1260556, 10.4336387], [-61.131662, 10.4337074], [-61.1374284, 10.4315957], [-61.1401683, 10.4306158], [-61.1431573, 10.4313507], [-61.1444027, 10.4401693], [-61.1620875, 10.4443336], [-61.1745416, 10.4342903], [-61.1840067, 10.4318406], [-61.1888887, 10.4306805], [-61.1961579, 10.434694], [-61.2049575, 10.4353211], [-61.2105218, 10.4320767], [-61.2151469, 10.412233], [-61.2211413, 10.3549755], [-61.2292287, 10.3276903], [-61.2432092, 10.3093934], [-61.2420569, 10.305835], [-61.2441119, 10.3033168], [-61.2437626, 10.299029], [-61.2455164, 10.2958941]]]}, "bbox": [-61.2455164, 10.0750512, -60.9655353, 10.4446518]}