{"type": "Feature", "properties": {"name": "Moka", "display_name": "Villas of Moka, Diego Martin, Trinidad and Tobago", "osm_type": "way", "osm_id": 386692206, "category": "landuse", "type": "residential", "source": "OpenStreetMap / Nominatim", "license": "ODbL"}, "geometry": {"type": "Polygon", "coordinates": [[[-61.5011605, 10.7135639], [-61.5011433, 10.7133063], [-61.5010531, 10.7133084], [-61.5008275, 10.713205], [-61.5007222, 10.7132092], [-61.5006685, 10.7133844], [-61.5003527, 10.7133887], [-61.5002753, 10.7137475], [-61.5003054, 10.7138489], [-61.5004794, 10.7138489], [-61.5006964, 10.713775], [-61.5007136, 10.7136441], [-61.5008748, 10.7136694], [-61.500922, 10.7135575], [-61.5011605, 10.7135639]]]}, "bbox": [-61.5011605, 10.713205, -61.5002753, 10.7138489]}