{"type": "Feature", "properties": {"name": "Piarco", "display_name": "Tunapuna-Piarco, Trinidad and Tobago", "osm_type": "relation", "osm_id": 7363639, "category": "boundary", "type": "administrative", "source": "OpenStreetMap / Nominatim", "license": "ODbL"}, "geometry": {"type": "MultiPolygon", "coordinates": [[[[-61.4397258, 10.7305413], [-61.439656, 10.7295451], [-61.4377034, 10.7270785], [-61.4365554, 10.7255921], [-61.4350104, 10.7241374], [-61.4350319, 10.7224929], [-61.4349139, 10.7214072], [-61.4346564, 10.7204584], [-61.4342594, 10.7193094], [-61.433959, 10.7177914], [-61.4326662, 10.7170113], [-61.4326716, 10.7153246], [-61.4331651, 10.7124994], [-61.4333368, 10.7115507], [-61.4335728, 10.7102856], [-61.4337306, 10.7096949], [-61.4334011, 10.7072074], [-61.4325857, 10.7060477], [-61.4321995, 10.7044665], [-61.4325428, 10.7028219], [-61.433487, 10.7010297], [-61.4341521, 10.6993218], [-61.4318133, 10.6975085], [-61.431191, 10.6964543], [-61.4296997, 10.6932388], [-61.4286375, 10.6918156], [-61.42838, 10.6896227], [-61.4280367, 10.6878094], [-61.4277363, 10.6860382], [-61.4268351, 10.6848574], [-61.4263201, 10.683529], [-61.4277148, 10.6817051], [-61.4278972, 10.6795227], [-61.4273575, 10.6780642], [-61.4272642, 10.6770135], [-61.4274359, 10.6762965], [-61.4276934, 10.675569], [-61.4282405, 10.6745991], [-61.428895, 10.6737029], [-61.4292276, 10.6731336], [-61.4292812, 10.6725695], [-61.4292598, 10.6722426], [-61.4292705, 10.671046], [-61.428659, 10.6705505], [-61.428026, 10.669939], [-61.4273179, 10.6688108], [-61.4268243, 10.6680095], [-61.4258266, 10.6667759], [-61.4247751, 10.6659325], [-61.422962, 10.6635707], [-61.4238616, 10.6607625], [-61.4234477, 10.65931], [-61.4205952, 10.6567971], [-61.4194867, 10.6545021], [-61.4190946, 10.6530998], [-61.4202538, 10.6517154], [-61.4217645, 10.6498846], [-61.423883, 10.6477937], [-61.4249923, 10.6445589], [-61.4268834, 10.6417754], [-61.4282518, 10.6397246], [-61.4282791, 10.6358732], [-61.4282609, 10.6348992], [-61.4279245, 10.632473], [-61.4271926, 10.6288404], [-61.4269607, 10.6256144], [-61.4267516, 10.6228218], [-61.4262288, 10.62019], [-61.4258242, 10.6183357], [-61.4256833, 10.6176922], [-61.4240694, 10.6144706], [-61.4231536, 10.6104284], [-61.4215151, 10.6037885], [-61.421266, 10.5999082], [-61.4210264, 10.5949823], [-61.4194262, 10.5898492], [-61.4183243, 10.5862607], [-61.4176728, 10.5818432], [-61.4169445, 10.5772467], [-61.4133038, 10.571569], [-61.4097603, 10.5662804], [-61.3689618, 10.5655053], [-61.3645951, 10.5733601], [-61.3597117, 10.5733601], [-61.3499707, 10.5713447], [-61.3374133, 10.5720165], [-61.3250368, 10.5775459], [-61.310955, 10.5806981], [-61.2742932, 10.5822339], [-61.2677793, 10.5825068], [-61.2391506, 10.5914468], [-61.2342729, 10.5953839], [-61.2336418, 10.5962387], [-61.2310753, 10.5996023], [-61.2288734, 10.6017253], [-61.2256336, 10.6011601], [-61.222436, 10.6027868], [-61.2147924, 10.6027317], [-61.2122679, 10.6000573], [-61.2078922, 10.6000435], [-61.2067702, 10.6042894], [-61.2058165, 10.6091832], [-61.2019775, 10.6129471], [-61.1992199, 10.6204298], [-61.1992199, 10.6236111], [-61.2002808, 10.6253078], [-61.2044886, 10.6285067], [-61.2044886, 10.6302917], [-61.2028882, 10.6317939], [-61.2028343, 10.6394286], [-61.2112175, 10.6483805], [-61.2145437, 10.6506502], [-61.2199097, 10.6506668], [-61.2247353, 10.6523276], [-61.2258349, 10.6566098], [-61.2231065, 10.6597313], [-61.222516, 10.663133], [-61.2243281, 10.6642735], [-61.2263235, 10.665274], [-61.2257534, 10.667375], [-61.2228155, 10.6716786], [-61.2211204, 10.6731758], [-61.2208629, 10.6746096], [-61.2198758, 10.6752633], [-61.2185884, 10.6757061], [-61.216743, 10.6777937], [-61.2146831, 10.6796703], [-61.2146509, 10.6806403], [-61.2148118, 10.6818843], [-61.2129235, 10.6843092], [-61.2129879, 10.6871557], [-61.2125266, 10.6895911], [-61.2120438, 10.6918367], [-61.2125266, 10.6929015], [-61.2134385, 10.6956109], [-61.2136746, 10.6974031], [-61.2136638, 10.6985522], [-61.2127733, 10.7009559], [-61.2123656, 10.7019363], [-61.2114537, 10.7027902], [-61.2112928, 10.7034333], [-61.211443, 10.7046562], [-61.2110782, 10.705858], [-61.2108207, 10.7068384], [-61.2113464, 10.7101907], [-61.2117005, 10.7126892], [-61.2122691, 10.7136234], [-61.2130094, 10.7152403], [-61.2173706, 10.7150453], [-61.2195004, 10.714982], [-61.222322, 10.7156409], [-61.2229711, 10.7161627], [-61.2239137, 10.7178255], [-61.2245935, 10.7192178], [-61.2253422, 10.7198575], [-61.226002, 10.7202054], [-61.2273216, 10.7207852], [-61.2296605, 10.7196045], [-61.2310016, 10.7193305], [-61.2320017, 10.7193883], [-61.2332669, 10.7197652], [-61.236242, 10.7209565], [-61.2398091, 10.721739], [-61.2433076, 10.7224508], [-61.2450349, 10.7233468], [-61.2452495, 10.7244326], [-61.2451208, 10.7258135], [-61.2447989, 10.7267464], [-61.2435684, 10.7295683], [-61.2397188, 10.7295609], [-61.237042, 10.7287545], [-61.2356705, 10.7279873], [-61.2347996, 10.7275001], [-61.2334371, 10.7276582], [-61.2324607, 10.727848], [-61.2316561, 10.7285753], [-61.2309051, 10.7294292], [-61.2302506, 10.7297559], [-61.2285769, 10.7296716], [-61.227386, 10.7287756], [-61.2267506, 10.7285209], [-61.2251115, 10.7278638], [-61.2235773, 10.7280272], [-61.2218285, 10.7278901], [-61.2198866, 10.7275634], [-61.2181807, 10.728101], [-61.2171078, 10.7286913], [-61.215477, 10.7294503], [-61.2142754, 10.7297454], [-61.2121296, 10.7285648], [-61.2091899, 10.7280166], [-61.2054134, 10.728744], [-61.2027526, 10.7303146], [-61.2003708, 10.7301038], [-61.1971307, 10.7303989], [-61.1968947, 10.730926], [-61.1964226, 10.7341516], [-61.1960364, 10.7353111], [-61.1946845, 10.7367026], [-61.1923027, 10.7407925], [-61.1911226, 10.7430482], [-61.1903715, 10.7438282], [-61.1883545, 10.7449034], [-61.1870885, 10.745072], [-61.1861658, 10.7455569], [-61.1847067, 10.7482342], [-61.1839074, 10.7490353], [-61.1838699, 10.7496467], [-61.1839128, 10.750764], [-61.183312, 10.7516494], [-61.1824107, 10.752851], [-61.1811633, 10.755088], [-61.1806298, 10.7566455], [-61.180501, 10.7603346], [-61.1776686, 10.7608405], [-61.1763168, 10.7617259], [-61.174686, 10.7620843], [-61.1736775, 10.7621897], [-61.1730123, 10.7621475], [-61.171294, 10.7624545], [-61.1704159, 10.7626113], [-61.166575, 10.764635], [-61.1663175, 10.7634966], [-61.1652446, 10.762548], [-61.1621762, 10.7626323], [-61.1593652, 10.7631383], [-61.1567474, 10.7644874], [-61.1552453, 10.7669959], [-61.1548591, 10.7697363], [-61.1552453, 10.7713594], [-61.1551166, 10.7734041], [-61.1552775, 10.774416], [-61.1553311, 10.7759864], [-61.1564362, 10.7770719], [-61.156565, 10.7775146], [-61.156353, 10.7785195], [-61.1566186, 10.779475], [-61.1573053, 10.7813721], [-61.1580455, 10.7826368], [-61.1580581, 10.7837775], [-61.1577554, 10.7856651], [-61.1568332, 10.7884545], [-61.1562324, 10.7895295], [-61.1565757, 10.7903094], [-61.157713, 10.7908364], [-61.1591506, 10.7917216], [-61.1596871, 10.7940824], [-61.1604342, 10.7953135], [-61.161398, 10.7971688], [-61.1622512, 10.7977499], [-61.1631632, 10.7983296], [-61.1638928, 10.7997102], [-61.1654699, 10.7986879], [-61.1665899, 10.7985861], [-61.1680912, 10.7987566], [-61.170558, 10.7990717], [-61.172171, 10.7998393], [-61.1744025, 10.8046278], [-61.176542, 10.8078565], [-61.1768907, 10.807767], [-61.1773413, 10.80763], [-61.1776954, 10.8073085], [-61.1779958, 10.8069976], [-61.1783552, 10.8065972], [-61.1787415, 10.8063074], [-61.1793637, 10.8060544], [-61.179691, 10.8058489], [-61.1797258, 10.8057646], [-61.1797071, 10.805704], [-61.1796239, 10.8056803], [-61.1795059, 10.8056671], [-61.1794227, 10.8056171], [-61.1793262, 10.8054695], [-61.1793128, 10.8052403], [-61.1793584, 10.8050585], [-61.1794496, 10.8048741], [-61.1797097, 10.8047055], [-61.1799458, 10.804666], [-61.1801925, 10.8046923], [-61.1804017, 10.8047582], [-61.1805224, 10.8048451], [-61.1806485, 10.8049769], [-61.1806485, 10.8050981], [-61.180568, 10.8052693], [-61.1805251, 10.8053984], [-61.1805466, 10.8055117], [-61.1806324, 10.8055644], [-61.1807156, 10.805538], [-61.180914, 10.8053115], [-61.1809757, 10.8051903], [-61.1809865, 10.8050269], [-61.1809838, 10.8049426], [-61.1810294, 10.8048583], [-61.1812252, 10.8047898], [-61.1814666, 10.8046554], [-61.1816704, 10.8045053], [-61.1818314, 10.8043366], [-61.1820459, 10.8041707], [-61.1822283, 10.8040099], [-61.1824188, 10.8037728], [-61.182459, 10.803707], [-61.1824644, 10.8036332], [-61.1823919, 10.8035937], [-61.1821854, 10.8036411], [-61.1820754, 10.8036385], [-61.1820191, 10.8035594], [-61.1820084, 10.8033855], [-61.1821157, 10.8031932], [-61.182349, 10.8029666], [-61.1825314, 10.8028665], [-61.1827272, 10.8028586], [-61.1830223, 10.8029851], [-61.1833227, 10.8030009], [-61.1836097, 10.8030562], [-61.1838242, 10.8031142], [-61.1839154, 10.8030825], [-61.183953, 10.803014], [-61.1839262, 10.8027532], [-61.1839584, 10.8025741], [-61.1840442, 10.8023606], [-61.1841032, 10.802005], [-61.1841005, 10.8016809], [-61.1841166, 10.8014675], [-61.1841729, 10.8012093], [-61.184189, 10.8010723], [-61.1841676, 10.8008852], [-61.1841327, 10.800656], [-61.1841649, 10.8005164], [-61.1842883, 10.8003609], [-61.1843982, 10.8002239], [-61.1845243, 10.8000421], [-61.1846986, 10.7998867], [-61.1849025, 10.7998076], [-61.1850956, 10.7997549], [-61.1853048, 10.7996891], [-61.1855435, 10.7996258], [-61.185683, 10.7996153], [-61.1858037, 10.7995679], [-61.1859298, 10.7994836], [-61.1861014, 10.7994045], [-61.1863911, 10.7992991], [-61.1864716, 10.7992675], [-61.1866781, 10.7992438], [-61.1868686, 10.7992412], [-61.1870214, 10.799307], [-61.1871207, 10.7994098], [-61.187169, 10.7995046], [-61.1872441, 10.7995837], [-61.1873084, 10.7996179], [-61.1873728, 10.79961], [-61.1874711, 10.7995476], [-61.1875675, 10.7994864], [-61.1876571, 10.7993676], [-61.1877242, 10.7991252], [-61.1878181, 10.7989988], [-61.1879709, 10.798954], [-61.1881077, 10.7989724], [-61.1882231, 10.7990515], [-61.1883062, 10.7992148], [-61.1883384, 10.7993782], [-61.1884108, 10.7994651], [-61.1885422, 10.7994757], [-61.1886522, 10.7994019], [-61.1887783, 10.7992781], [-61.1889172, 10.7989887], [-61.1890304, 10.798759], [-61.1891726, 10.7984955], [-61.1893308, 10.7982953], [-61.1895481, 10.7981082], [-61.1899853, 10.7979528], [-61.1903527, 10.7978896], [-61.1908275, 10.7978606], [-61.1912198, 10.7978265], [-61.1916161, 10.7978265], [-61.1922168, 10.7978691], [-61.1925698, 10.7979056], [-61.193282, 10.7979604], [-61.1939979, 10.798045], [-61.1943761, 10.7981109], [-61.1946952, 10.7981846], [-61.1951056, 10.7983217], [-61.1954355, 10.7984876], [-61.1956635, 10.7986984], [-61.1958835, 10.7989118], [-61.196031, 10.7990383], [-61.1962026, 10.7990515], [-61.1964145, 10.7989961], [-61.1967069, 10.7989145], [-61.1970958, 10.7987985], [-61.1974204, 10.798759], [-61.1977127, 10.7987696], [-61.1979809, 10.7988908], [-61.1981499, 10.7990778], [-61.198335, 10.7992175], [-61.1985523, 10.7993123], [-61.1988419, 10.7993202], [-61.1990029, 10.7992965], [-61.1991316, 10.7991252], [-61.1992925, 10.7985693], [-61.1995313, 10.7980714], [-61.1997297, 10.7977446], [-61.2000033, 10.7974996], [-61.2004325, 10.7972967], [-61.2009314, 10.7971123], [-61.2015456, 10.7968278], [-61.2021303, 10.7964826], [-61.2026909, 10.7962323], [-61.2030047, 10.7961506], [-61.2032408, 10.7961533], [-61.203454, 10.7962363], [-61.2035224, 10.7962916], [-61.2036109, 10.7963575], [-61.2037034, 10.7963772], [-61.2037839, 10.7963509], [-61.2038657, 10.7962784], [-61.2039556, 10.7962007], [-61.2041447, 10.7961296], [-61.2043566, 10.7960979], [-61.2047441, 10.7960624], [-61.2049587, 10.7960176], [-61.2052444, 10.7959293], [-61.2055327, 10.7957739], [-61.2056936, 10.7957541], [-61.2059069, 10.7957357], [-61.2061429, 10.7956711], [-61.2063628, 10.7956685], [-61.2065077, 10.7956817], [-61.2066633, 10.7957475], [-61.2068054, 10.7959003], [-61.2067759, 10.7960163], [-61.2066659, 10.7961138], [-61.2065238, 10.7962692], [-61.2064862, 10.7964141], [-61.2065586, 10.7965433], [-61.2067464, 10.7966591], [-61.2069476, 10.796617], [-61.2070254, 10.7965972], [-61.2071098, 10.7964563], [-61.2073941, 10.7961625], [-61.2074035, 10.7960347], [-61.2074451, 10.7959491], [-61.2075055, 10.7959926], [-61.2076047, 10.7959926], [-61.2078354, 10.7958094], [-61.2078407, 10.7957212], [-61.2077415, 10.7956224], [-61.2076812, 10.7954656], [-61.2077375, 10.7953326], [-61.2078689, 10.7952904], [-61.2079346, 10.7952759], [-61.2078622, 10.795405], [-61.2079681, 10.7956052], [-61.2080821, 10.7955657], [-61.2082163, 10.7952469], [-61.2082927, 10.7949835], [-61.2086615, 10.7949703], [-61.2091483, 10.7949676], [-61.2096781, 10.7951073], [-61.210236, 10.7951837], [-61.210499, 10.7951754], [-61.2109227, 10.795162], [-61.2121325, 10.7952351], [-61.2126473, 10.795347], [-61.2132749, 10.7954155], [-61.213519, 10.7954419], [-61.2136638, 10.7954709], [-61.2139159, 10.7955605], [-61.2145194, 10.7958029], [-61.2148681, 10.7959082], [-61.2153375, 10.7960136], [-61.2156889, 10.7961164], [-61.2160027, 10.7961981], [-61.2165204, 10.7962823], [-61.2168127, 10.7963298], [-61.2170997, 10.7964036], [-61.2175986, 10.7967197], [-61.2180144, 10.7971202], [-61.2181082, 10.7973047], [-61.2180572, 10.7975306], [-61.2181176, 10.7975286], [-61.21819, 10.7975727], [-61.2182571, 10.7975846], [-61.2183087, 10.7976188], [-61.2183242, 10.7976992], [-61.2182859, 10.7977829], [-61.2179875, 10.7979343], [-61.2179661, 10.7979706], [-61.2179741, 10.7980424], [-61.2180003, 10.7981096], [-61.2179902, 10.7981596], [-61.2181002, 10.798132], [-61.2182504, 10.7980569], [-61.2185595, 10.7979344], [-61.21887, 10.7977933], [-61.2188954, 10.7977713], [-61.2189719, 10.7977051], [-61.2191543, 10.7976696], [-61.219167, 10.7976419], [-61.219057, 10.7976129], [-61.2189344, 10.7975813], [-61.218878, 10.7976162], [-61.2187694, 10.7976412], [-61.2186782, 10.7976438], [-61.2186071, 10.7976617], [-61.2186199, 10.7975879], [-61.2185783, 10.7975214], [-61.218599, 10.7974568], [-61.2186822, 10.7974535], [-61.21876, 10.7973942], [-61.2188284, 10.7972625], [-61.2187573, 10.797165], [-61.218807, 10.7970267], [-61.218925, 10.7969292], [-61.2188914, 10.7967553], [-61.218583, 10.7966934], [-61.2185843, 10.7965155], [-61.2187091, 10.796426], [-61.2188056, 10.7961625], [-61.2189022, 10.7961217], [-61.21887, 10.7958147], [-61.2192817, 10.795513], [-61.2193541, 10.7955934], [-61.2194976, 10.7956184], [-61.2195835, 10.7954722], [-61.2196814, 10.7954524], [-61.219727, 10.7955078], [-61.2197994, 10.7955315], [-61.2198383, 10.7954748], [-61.2197953, 10.7953207], [-61.2200019, 10.7952733], [-61.2200703, 10.7954221], [-61.2201735, 10.7954485], [-61.2203157, 10.7953076], [-61.2206161, 10.7948781], [-61.2207314, 10.7946094], [-61.2209755, 10.7944697], [-61.2212572, 10.7944354], [-61.2217319, 10.7944064], [-61.2220725, 10.7944697], [-61.2223488, 10.7944486], [-61.2225366, 10.7943564], [-61.222786, 10.7943379], [-61.2230194, 10.79423], [-61.2232554, 10.7942352], [-61.2234995, 10.794201], [-61.2237141, 10.7942246], [-61.2239152, 10.7941113], [-61.2240467, 10.7940613], [-61.2242746, 10.7940428], [-61.2245992, 10.7940086], [-61.2250109, 10.7939994], [-61.2254615, 10.7940455], [-61.2258598, 10.7940218], [-61.2262514, 10.794056], [-61.2267851, 10.7941469], [-61.2269005, 10.7941733], [-61.2270172, 10.7941957], [-61.2273645, 10.7943195], [-61.2276328, 10.7944486], [-61.2279117, 10.7945461], [-61.2280807, 10.794604], [-61.2283677, 10.794662], [-61.2290061, 10.7951573], [-61.2293923, 10.7952838], [-61.2297785, 10.7953207], [-61.2302291, 10.7952469], [-61.2308997, 10.7951732], [-61.2316614, 10.7950836], [-61.2321764, 10.7950098], [-61.2328631, 10.7949308], [-61.2332708, 10.794936], [-61.2338126, 10.795052], [-61.2340164, 10.7951573], [-61.2343276, 10.7954156], [-61.2345958, 10.7954788], [-61.2348962, 10.7953892], [-61.2359, 10.7943199], [-61.2361904, 10.7940955], [-61.2364599, 10.7939098], [-61.2367281, 10.7937478], [-61.2371137, 10.7936035], [-61.2373303, 10.7935442], [-61.2374912, 10.7935021], [-61.2377729, 10.7934408], [-61.2379707, 10.7934382], [-61.2381799, 10.7934586], [-61.2385024, 10.7935436], [-61.2387532, 10.7936213], [-61.2389785, 10.7936819], [-61.2392494, 10.7936937], [-61.2395163, 10.7936529], [-61.2397282, 10.7935897], [-61.2400246, 10.7934975], [-61.2402123, 10.7934276], [-61.2404202, 10.793371], [-61.2407783, 10.793338], [-61.2410706, 10.7933301], [-61.2412477, 10.7933525], [-61.2414904, 10.7934237], [-61.2417197, 10.7934975], [-61.2419182, 10.7935515], [-61.2420818, 10.7935528], [-61.2422937, 10.7935554], [-61.2425807, 10.7935185], [-61.2428731, 10.793566], [-61.2430555, 10.7936529], [-61.243144, 10.7936792], [-61.2432513, 10.7936713], [-61.2434363, 10.7935976], [-61.2435168, 10.793587], [-61.2437743, 10.7936028], [-61.2440398, 10.7936924], [-61.2443966, 10.7938742], [-61.2445655, 10.794027], [-61.2447506, 10.7941719], [-61.2449411, 10.7943221], [-61.2451234, 10.7944038], [-61.2453192, 10.7944143], [-61.2457135, 10.7943617], [-61.2459656, 10.7943537], [-61.2463036, 10.7943643], [-61.2466529, 10.7944186], [-61.2474704, 10.7946594], [-61.2480471, 10.7948227], [-61.2484387, 10.7949545], [-61.2487605, 10.7950994], [-61.248782, 10.7951679], [-61.2487873, 10.7952258], [-61.2487122, 10.7954155], [-61.2486975, 10.7954696], [-61.2486995, 10.7955341], [-61.2487572, 10.7955914], [-61.2488021, 10.7955862], [-61.2488121, 10.7955565], [-61.2488571, 10.7955427], [-61.2489034, 10.7955736], [-61.248949, 10.7955183], [-61.2490958, 10.7954136], [-61.2493057, 10.7955947], [-61.249189, 10.7956777], [-61.248951, 10.7958707], [-61.2488048, 10.7959102], [-61.2487565, 10.7959379], [-61.2487505, 10.7959899], [-61.2487143, 10.796009], [-61.2487022, 10.7960584], [-61.2486734, 10.7960676], [-61.2486854, 10.7960802], [-61.2487257, 10.7961065], [-61.248784, 10.7961117], [-61.2488101, 10.7960676], [-61.2488329, 10.7960492], [-61.2488584, 10.7960716], [-61.2488933, 10.7960716], [-61.2489275, 10.7960861], [-61.2490153, 10.7960334], [-61.2491105, 10.7959649], [-61.2491287, 10.7959445], [-61.2491219, 10.7959168], [-61.2491535, 10.7959214], [-61.2493989, 10.7959372], [-61.2494642, 10.7958762], [-61.2495504, 10.7958279], [-61.2500973, 10.7956752], [-61.2501238, 10.7956329], [-61.2500731, 10.795593], [-61.2501365, 10.7955578], [-61.2506998, 10.7952021], [-61.251094, 10.794965], [-61.2512523, 10.7948702], [-61.2513328, 10.7948029], [-61.2513636, 10.7947634], [-61.2513247, 10.7947147], [-61.2512711, 10.7947015], [-61.2511933, 10.7946093], [-61.2511598, 10.7945013], [-61.2511289, 10.7944143], [-61.2510645, 10.7943155], [-61.2509345, 10.7942259], [-61.2508915, 10.7941021], [-61.2508956, 10.7939875], [-61.2510136, 10.7937451], [-61.2511933, 10.7935541], [-61.25144, 10.7933038], [-61.2515406, 10.7932274], [-61.2516868, 10.7931207], [-61.2518491, 10.7930364], [-61.2519483, 10.7929889], [-61.2521522, 10.7929231], [-61.2523493, 10.792823], [-61.2527221, 10.7927255], [-61.2531996, 10.7926293], [-61.2535188, 10.7926082], [-61.253795, 10.7926135], [-61.254133, 10.7926227], [-61.2545675, 10.7926622], [-61.2548089, 10.7927097], [-61.2551361, 10.79279], [-61.2555371, 10.7929323], [-61.255694, 10.793014], [-61.2559442, 10.793145], [-61.2560697, 10.7932175], [-61.2561496, 10.793257], [-61.2562366, 10.793294], [-61.2563298, 10.7933202], [-61.2564437, 10.7933644], [-61.2565336, 10.7933855], [-61.2566462, 10.7934105], [-61.2567978, 10.7934382], [-61.2569091, 10.7934579], [-61.2570579, 10.7934922], [-61.2572283, 10.7935264], [-61.2573905, 10.7935752], [-61.2575287, 10.7936068], [-61.2576748, 10.7936371], [-61.2578613, 10.7936779], [-61.2580329, 10.7937333], [-61.2582448, 10.7938426], [-61.2584232, 10.793977], [-61.2586496, 10.794298], [-61.2587424, 10.794417], [-61.2588403, 10.794442], [-61.2590052, 10.7944222], [-61.2593633, 10.7942931], [-61.2597361, 10.7942787], [-61.2598984, 10.7942997], [-61.2600741, 10.7943801], [-61.2602068, 10.794525], [-61.2603423, 10.7946146], [-61.260514, 10.7946172], [-61.2608331, 10.7945645], [-61.261611, 10.7943985], [-61.2627563, 10.7941351], [-61.2629132, 10.7942102], [-61.2629561, 10.7942997], [-61.2629168, 10.7944131], [-61.262594, 10.794687], [-61.262586, 10.79472], [-61.2626168, 10.7947766], [-61.2626798, 10.7947885], [-61.2633596, 10.7944633], [-61.2640947, 10.7942194], [-61.2647945, 10.7941998], [-61.2653071, 10.7942668], [-61.2656423, 10.7943985], [-61.2658757, 10.7945856], [-61.2661359, 10.7947937], [-61.2664604, 10.7948912], [-61.2668735, 10.794857], [-61.2692191, 10.7944539], [-61.2692982, 10.7944025], [-61.2693062, 10.7943182], [-61.2692539, 10.7942378], [-61.2691695, 10.7940969], [-61.2691788, 10.7939216], [-61.2693505, 10.7938255], [-61.2695181, 10.7938821], [-61.2696536, 10.7940191], [-61.269832, 10.7946146], [-61.2699889, 10.7947595], [-61.2702866, 10.7948267], [-61.2711811, 10.7947463], [-61.2714279, 10.7946502], [-61.2714966, 10.794613], [-61.2715915, 10.7945329], [-61.2717792, 10.7942905], [-61.2718382, 10.7942378], [-61.2719308, 10.794226], [-61.2721574, 10.7942826], [-61.2724458, 10.7943116], [-61.2726228, 10.7942879], [-61.2728494, 10.794193], [-61.2729567, 10.7941403], [-61.2730479, 10.7940929], [-61.2731338, 10.7940876], [-61.2731928, 10.7941403], [-61.273241, 10.7942615], [-61.2732571, 10.79433], [-61.2733644, 10.7944302], [-61.2735097, 10.7944908], [-61.273579, 10.7945197], [-61.2738294, 10.7945763], [-61.2739921, 10.7946146], [-61.2742053, 10.7945896], [-61.2743206, 10.7945632], [-61.2744561, 10.7945145], [-61.2745433, 10.7944657], [-61.2746049, 10.7944539], [-61.2746492, 10.7944644], [-61.2747243, 10.7944881], [-61.2747344, 10.7944812], [-61.2747377, 10.7944723], [-61.2747364, 10.7944601], [-61.2747297, 10.7944486], [-61.2746733, 10.7943939], [-61.2746284, 10.7943606], [-61.2746026, 10.7943343], [-61.2745999, 10.7942948], [-61.2746214, 10.7942668], [-61.27468, 10.7942022], [-61.2747109, 10.7941818], [-61.2747666, 10.7941858], [-61.2748329, 10.7942154], [-61.2748919, 10.794247], [-61.2749281, 10.7942576], [-61.2749979, 10.7942457], [-61.2750569, 10.7942115], [-61.2752983, 10.7940007], [-61.2753949, 10.7939664], [-61.2755424, 10.7939744], [-61.2759608, 10.7941034], [-61.2761325, 10.7941878], [-61.276162, 10.7942194], [-61.2761727, 10.7942536], [-61.27617, 10.7943696], [-61.2761372, 10.7944499], [-61.2761284, 10.794498], [-61.2761439, 10.7945415], [-61.2761647, 10.7945573], [-61.2761915, 10.7945652], [-61.2762921, 10.7945639], [-61.2763584, 10.7945586], [-61.2764087, 10.7945751], [-61.2764651, 10.7946436], [-61.2765187, 10.7947173], [-61.2766072, 10.7947648], [-61.2767038, 10.7947753], [-61.2768406, 10.7948069], [-61.2772644, 10.7952469], [-61.2775594, 10.7955947], [-61.2777096, 10.7957317], [-61.2778437, 10.7959425], [-61.2779349, 10.7959952], [-61.2782085, 10.7959952], [-61.2786484, 10.7959899], [-61.278761, 10.7959003], [-61.2788898, 10.7957423], [-61.2790453, 10.7957265], [-61.2792492, 10.7958055], [-61.2794477, 10.7959478], [-61.2796784, 10.7960005], [-61.2799895, 10.7960084], [-61.2801316, 10.7960242], [-61.2802416, 10.7960769], [-61.2803543, 10.7961849], [-61.2805018, 10.7963298], [-61.2806305, 10.7964668], [-61.2806869, 10.7965775], [-61.2807807, 10.7967118], [-61.2809229, 10.7967962], [-61.2810114, 10.7968225], [-61.2810919, 10.7968225], [-61.2812421, 10.7968172], [-61.2813333, 10.7968436], [-61.281454, 10.79692], [-61.2815666, 10.7969938], [-61.2817544, 10.7971334], [-61.2820253, 10.7973732], [-61.2821862, 10.7975813], [-61.2822935, 10.7977183], [-61.2823632, 10.7978579], [-61.2824437, 10.7980239], [-61.2825242, 10.7980977], [-61.2826878, 10.7981214], [-61.2827709, 10.7981082], [-61.2828326, 10.7980582], [-61.2828836, 10.7979554], [-61.2829104, 10.7977947], [-61.2829801, 10.7976814], [-61.2831089, 10.7975655], [-61.2832162, 10.7974917], [-61.2833288, 10.7974522], [-61.2837285, 10.7974206], [-61.2843883, 10.7974706], [-61.2848362, 10.7975813], [-61.2850133, 10.7976656], [-61.2851501, 10.7977736], [-61.2852037, 10.7978553], [-61.2852493, 10.7979686], [-61.2852654, 10.7979923], [-61.2853083, 10.7980055], [-61.285429, 10.7980266], [-61.2856087, 10.7981425], [-61.2857482, 10.7983243], [-61.285834, 10.7984876], [-61.2859467, 10.7986352], [-61.2860271, 10.7986984], [-61.2863222, 10.7987221], [-61.2866065, 10.7987116], [-61.286923, 10.7986642], [-61.2871644, 10.7986115], [-61.2873629, 10.798572], [-61.2875077, 10.7985509], [-61.2876231, 10.7985351], [-61.2877598, 10.798514], [-61.2877947, 10.798489], [-61.2878001, 10.798456], [-61.287784, 10.7983348], [-61.2877491, 10.7982584], [-61.2876526, 10.7981372], [-61.2876526, 10.7980793], [-61.2876754, 10.7980081], [-61.2878135, 10.7978764], [-61.2879235, 10.7977552], [-61.288012, 10.7975997], [-61.2880495, 10.7975312], [-61.2880871, 10.797439], [-61.2881327, 10.7973811], [-61.2881944, 10.7973284], [-61.2882695, 10.7972862], [-61.2883768, 10.7972388], [-61.2884103, 10.7971979], [-61.2884358, 10.7971387], [-61.2884679, 10.7970767], [-61.2885055, 10.7970306], [-61.288594, 10.7969885], [-61.2888542, 10.7969305], [-61.2891251, 10.7968936], [-61.2893558, 10.796891], [-61.2895086, 10.7969253], [-61.2896454, 10.7969648], [-61.2897849, 10.7970306], [-61.2899056, 10.797115], [-61.2900075, 10.7972493], [-61.2900746, 10.79736], [-61.2900934, 10.7974232], [-61.2901121, 10.7975102], [-61.2901376, 10.7975576], [-61.2901604, 10.7975734], [-61.290198, 10.7975708], [-61.2902892, 10.7975207], [-61.2903991, 10.7974627], [-61.2905359, 10.797389], [-61.2906405, 10.7973178], [-61.290713, 10.7972783], [-61.2908605, 10.7972309], [-61.2910051, 10.797253], [-61.2912387, 10.7973257], [-61.2915525, 10.7974206], [-61.2918019, 10.79741], [-61.2920219, 10.7973178], [-61.2922016, 10.7971597], [-61.2923116, 10.7971097], [-61.2923947, 10.7971202], [-61.2924269, 10.7971966], [-61.2924188, 10.7973284], [-61.292325, 10.7975023], [-61.292215, 10.7976603], [-61.2921855, 10.7977446], [-61.2922257, 10.7978026], [-61.2923089, 10.7978], [-61.2924403, 10.7977868], [-61.2926254, 10.7978132], [-61.2929741, 10.7978237], [-61.2932476, 10.7977578], [-61.2934729, 10.7975997], [-61.293599, 10.79741], [-61.2938082, 10.7972757], [-61.293996, 10.7972704], [-61.2941355, 10.7973047], [-61.2942454, 10.7972915], [-61.2944573, 10.7971914], [-61.2946424, 10.7970517], [-61.2947041, 10.79692], [-61.2947169, 10.7968515], [-61.2947377, 10.7967408], [-61.294857, 10.7965538], [-61.2951493, 10.7963193], [-61.2955034, 10.7961954], [-61.2957582, 10.7961375], [-61.296013, 10.7961362], [-61.2960895, 10.7961499], [-61.2962329, 10.7961638], [-61.2964556, 10.7962402], [-61.2965763, 10.7962534], [-61.2968123, 10.7962402], [-61.2969518, 10.796227], [-61.297228, 10.796227], [-61.2973326, 10.796227], [-61.2975016, 10.7962191], [-61.2976921, 10.796235], [-61.2979496, 10.7963614], [-61.2981454, 10.7965538], [-61.2982929, 10.7966565], [-61.298537, 10.7967118], [-61.298765, 10.7967302], [-61.2989259, 10.7965959], [-61.2990433, 10.7966078], [-61.2991807, 10.7965063], [-61.2993564, 10.7964615], [-61.2994513, 10.7964348], [-61.2999165, 10.7963702], [-61.3005111, 10.7963851], [-61.3010029, 10.7964155], [-61.3011032, 10.7964197], [-61.301191, 10.7964271], [-61.301256, 10.7964326], [-61.3016832, 10.7965037], [-61.3022679, 10.7966275], [-61.3028982, 10.7968515], [-61.3036814, 10.7971755], [-61.3038194, 10.7972312], [-61.304675, 10.7975768], [-61.3051754, 10.797829], [-61.3054034, 10.7980503], [-61.305449, 10.7980727], [-61.3054034, 10.7981227], [-61.3054061, 10.7982295], [-61.3054691, 10.7982294], [-61.3054879, 10.7981906], [-61.3055013, 10.7981846], [-61.3054919, 10.7982637], [-61.3054986, 10.7983414], [-61.3054799, 10.798352], [-61.3054866, 10.7983994], [-61.3055227, 10.7983809], [-61.305563, 10.7983809], [-61.3055764, 10.7984007], [-61.3055992, 10.7983849], [-61.3057226, 10.7983612], [-61.3059264, 10.7982953], [-61.3060981, 10.7982716], [-61.3062966, 10.7983243], [-61.3063851, 10.798377], [-61.3064495, 10.7984587], [-61.3065568, 10.7985298], [-61.3067365, 10.7985614], [-61.3069806, 10.7985693], [-61.3071415, 10.7986115], [-61.3073346, 10.7987274], [-61.3075116, 10.7988723], [-61.3076699, 10.7989066], [-61.307863, 10.7988723], [-61.3079944, 10.7988012], [-61.3081419, 10.7987564], [-61.3082922, 10.7987485], [-61.3083726, 10.7987221], [-61.3084424, 10.7986536], [-61.308488, 10.7985114], [-61.308547, 10.798427], [-61.3086677, 10.7984033], [-61.3087562, 10.7984402], [-61.3088393, 10.798564], [-61.3088742, 10.7987854], [-61.3089547, 10.7988749], [-61.3091129, 10.7989303], [-61.3092819, 10.7989408], [-61.3095126, 10.7989909], [-61.3098022, 10.7990594], [-61.3100705, 10.7990409], [-61.3103172, 10.798983], [-61.3104594, 10.7989856], [-61.310564, 10.7990646], [-61.3105989, 10.7992096], [-61.3105801, 10.7993334], [-61.3106257, 10.7994203], [-61.3107571, 10.7994177], [-61.3108912, 10.7993255], [-61.3110682, 10.7992148], [-61.3112345, 10.7991516], [-61.311374, 10.7992016], [-61.311543, 10.7993703], [-61.3117361, 10.7994862], [-61.3119856, 10.7994941], [-61.3121733, 10.7993624], [-61.3123505, 10.7991384], [-61.3125408, 10.7989856], [-61.3127714, 10.7989066], [-61.3129887, 10.798925], [-61.3131148, 10.7989698], [-61.3132328, 10.7991226], [-61.3133052, 10.7993123], [-61.3134366, 10.7993597], [-61.3135734, 10.7993044], [-61.3136713, 10.7991727], [-61.3138604, 10.7990067], [-61.3140576, 10.7989224], [-61.3142869, 10.7988828], [-61.3145229, 10.7988987], [-61.3148367, 10.798983], [-61.3150835, 10.7990963], [-61.3151532, 10.7991753], [-61.3151881, 10.7992728], [-61.3152578, 10.7993307], [-61.3153678, 10.799336], [-61.3154912, 10.7992939], [-61.3155744, 10.7993149], [-61.3156226, 10.7993808], [-61.3156307, 10.799531], [-61.3156843, 10.7996416], [-61.3158023, 10.7996706], [-61.3159177, 10.7996232], [-61.316025, 10.7995283], [-61.3161135, 10.7994757], [-61.3161805, 10.7994967], [-61.316269, 10.7995626], [-61.3163629, 10.7995916], [-61.3164461, 10.79956], [-61.3164595, 10.7994836], [-61.3163924, 10.7993202], [-61.3163978, 10.7992069], [-61.316497, 10.7991226], [-61.3166446, 10.7990831], [-61.316776, 10.7991542], [-61.316894, 10.7994572], [-61.3170227, 10.7995731], [-61.3171703, 10.7995731], [-61.3173661, 10.7995046], [-61.3177006, 10.79943], [-61.3180125, 10.7993861], [-61.3182378, 10.7993992], [-61.318388, 10.7994598], [-61.3185972, 10.7996232], [-61.3188034, 10.7997819], [-61.3189486, 10.8000052], [-61.3190183, 10.8001528], [-61.3191149, 10.8002845], [-61.3192865, 10.8003978], [-61.3196754, 10.8005216], [-61.3198659, 10.8005559], [-61.3199303, 10.8005453], [-61.3199893, 10.8004847], [-61.3200858, 10.8003451], [-61.3203514, 10.8000237], [-61.3208038, 10.7996434], [-61.32092, 10.799581], [-61.3210273, 10.7995626], [-61.3211614, 10.7996179], [-61.3212499, 10.7996891], [-61.321384, 10.7998261], [-61.3215621, 10.7999773], [-61.3217019, 10.8000869], [-61.321848, 10.8001383], [-61.3219862, 10.8001699], [-61.3221176, 10.8001989], [-61.3221967, 10.8002055], [-61.3222986, 10.8001962], [-61.3224234, 10.8001515], [-61.3225803, 10.8001053], [-61.3227412, 10.800075], [-61.3229088, 10.8000764], [-61.3231985, 10.8001159], [-61.3233876, 10.8001686], [-61.3235351, 10.8002147], [-61.3235995, 10.8002489], [-61.3236894, 10.8002885], [-61.3238423, 10.800324], [-61.3240179, 10.8003596], [-61.3241614, 10.8003978], [-61.3243479, 10.8004426], [-61.3244551, 10.8004953], [-61.3246228, 10.8005954], [-61.3248642, 10.8007153], [-61.3250613, 10.8007614], [-61.3253188, 10.8007746], [-61.3255508, 10.8007508], [-61.3257292, 10.8008101], [-61.3258432, 10.8008839], [-61.3259062, 10.8009603], [-61.3259196, 10.8010815], [-61.3259129, 10.8011961], [-61.3259129, 10.8013542], [-61.3259679, 10.8014214], [-61.3260712, 10.8014741], [-61.326326, 10.8015676], [-61.3263984, 10.8015465], [-61.3264507, 10.8014912], [-61.3264158, 10.8013858], [-61.3264386, 10.8013463], [-61.3265017, 10.8013397], [-61.3266867, 10.8013832], [-61.3268329, 10.8014082], [-61.3269536, 10.8014319], [-61.3270475, 10.8014688], [-61.3271669, 10.8015044], [-61.3272393, 10.8015413], [-61.327372, 10.8016361], [-61.3275075, 10.8017586], [-61.3276161, 10.8018337], [-61.3276671, 10.8018653], [-61.3277382, 10.8018917], [-61.3277891, 10.8018917], [-61.3278401, 10.8018614], [-61.3278481, 10.8018153], [-61.3278294, 10.8017336], [-61.327816, 10.8016625], [-61.3278106, 10.8015913], [-61.3278267, 10.8015044], [-61.327875, 10.8013726], [-61.3279299, 10.8013239], [-61.3279876, 10.8013173], [-61.3280386, 10.8013549], [-61.3280667, 10.8014075], [-61.3280801, 10.8014537], [-61.3281056, 10.8014754], [-61.3281371, 10.8014866], [-61.328172, 10.8014879], [-61.3282122, 10.8014826], [-61.3282679, 10.8014754], [-61.328398, 10.8015004], [-61.3285173, 10.8015452], [-61.3286005, 10.8016084], [-61.3286488, 10.8017086], [-61.3286689, 10.8017586], [-61.3287185, 10.8017955], [-61.3287923, 10.8018074], [-61.3288634, 10.8017902], [-61.3289022, 10.8017349], [-61.3289183, 10.8016572], [-61.3289492, 10.8015768], [-61.3290162, 10.8015518], [-61.3291436, 10.8015636], [-61.3292523, 10.8015729], [-61.3293958, 10.8015492], [-61.3296372, 10.8015518], [-61.329892, 10.8015729], [-61.3302863, 10.801702], [-61.332031, 10.8023356], [-61.3321866, 10.8024436], [-61.3322443, 10.8025108], [-61.3322711, 10.8025754], [-61.332249, 10.8026373], [-61.3322081, 10.80269], [-61.3321947, 10.8027387], [-61.3322108, 10.8027947], [-61.3322765, 10.8028138], [-61.3323583, 10.8028138], [-61.3324481, 10.8028322], [-61.3326252, 10.8029719], [-61.3326721, 10.8030667], [-61.3326788, 10.803155], [-61.332601, 10.8033065], [-61.3325977, 10.8033559], [-61.3326171, 10.8034033], [-61.3327378, 10.8034553], [-61.3328035, 10.8034461], [-61.332837, 10.8034237], [-61.3329417, 10.8032248], [-61.3330624, 10.8031629], [-61.333226, 10.803151], [-61.3337933, 10.8035383], [-61.3339488, 10.8036753], [-61.334036, 10.8037979], [-61.334158, 10.8039164], [-61.3342291, 10.8039612], [-61.3342989, 10.8039876], [-61.3343512, 10.8040363], [-61.3343733, 10.8040929], [-61.3343538, 10.8041996], [-61.3342506, 10.8043353], [-61.3342445, 10.8043801], [-61.334266, 10.8044289], [-61.3342948, 10.8044783], [-61.3343921, 10.8045563], [-61.3344326, 10.8045688], [-61.3344618, 10.8045589], [-61.3344844, 10.8045309], [-61.334494, 10.804503], [-61.3345054, 10.8044769], [-61.3345282, 10.8044499], [-61.3346663, 10.8044249], [-61.3347897, 10.8044473], [-61.3349044, 10.8044835], [-61.3350143, 10.8044776], [-61.3350559, 10.8044526], [-61.3350995, 10.804388], [-61.3351605, 10.8042807], [-61.3352242, 10.804249], [-61.3353275, 10.8042457], [-61.335821, 10.8042668], [-61.3362066, 10.8043116], [-61.3362716, 10.8043241], [-61.3363534, 10.8043472], [-61.3364426, 10.8043439], [-61.3365465, 10.8043024], [-61.3366511, 10.8042523], [-61.3367598, 10.8042313], [-61.3368684, 10.8042629], [-61.3369314, 10.8042978], [-61.3369851, 10.8043011], [-61.3370615, 10.804284], [-61.3371534, 10.8042616], [-61.3372023, 10.804276], [-61.3372198, 10.8043287], [-61.3372037, 10.8043867], [-61.3371688, 10.804446], [-61.3371219, 10.8044881], [-61.3370609, 10.8045405], [-61.3369864, 10.8045948], [-61.3369596, 10.8046271], [-61.3369462, 10.8046442], [-61.3369465, 10.8046577], [-61.3369589, 10.804668], [-61.3369744, 10.804666], [-61.3370012, 10.8046633], [-61.3370458, 10.8046544], [-61.3370964, 10.8046357], [-61.3371474, 10.8046212], [-61.3371916, 10.8046054], [-61.3373619, 10.8045421], [-61.3375631, 10.8044671], [-61.3375933, 10.8044341], [-61.3376087, 10.8043828], [-61.3376027, 10.8043485], [-61.3375953, 10.8043011], [-61.337608, 10.8042688], [-61.3376348, 10.8042523], [-61.3376664, 10.804255], [-61.3376959, 10.8042774], [-61.3377053, 10.8043142], [-61.3376918, 10.8044236], [-61.3376998, 10.8044631], [-61.3377415, 10.8045132], [-61.3378018, 10.804554], [-61.3379064, 10.8045843], [-61.3380016, 10.8045751], [-61.3380432, 10.8045408], [-61.3380606, 10.8045053], [-61.3380526, 10.8044144], [-61.3380218, 10.8043525], [-61.3380218, 10.8043314], [-61.3380352, 10.804309], [-61.338117, 10.8042892], [-61.3382095, 10.8042787], [-61.3383195, 10.8042919], [-61.3384885, 10.8043814], [-61.3385797, 10.8044631], [-61.3386923, 10.8046291], [-61.3388103, 10.8048003], [-61.3389069, 10.8048794], [-61.3390812, 10.8050296], [-61.3392475, 10.8052535], [-61.3393092, 10.8053879], [-61.3393816, 10.805517], [-61.3394648, 10.8055776], [-61.3396686, 10.8055749], [-61.3399422, 10.8054616], [-61.3400039, 10.80538], [-61.340142, 10.8050954], [-61.3402024, 10.805019], [-61.3403352, 10.8049769], [-61.3403955, 10.8049993], [-61.3404612, 10.805048], [-61.3404907, 10.8051323], [-61.3404948, 10.8052443], [-61.3405524, 10.805293], [-61.3407066, 10.8053273], [-61.3412216, 10.8053352], [-61.3416052, 10.805376], [-61.3416709, 10.8053958], [-61.3417286, 10.8054669], [-61.3417286, 10.8055776], [-61.3417085, 10.8056065], [-61.3416629, 10.8056263], [-61.3415703, 10.8056645], [-61.3415435, 10.8056882], [-61.3415381, 10.8057356], [-61.3415556, 10.8057725], [-61.3415958, 10.8057818], [-61.3422811, 10.8058806], [-61.3429946, 10.8059464], [-61.3437107, 10.8060834], [-61.3444215, 10.8062863], [-61.345489, 10.8067157], [-61.3457203, 10.8060218], [-61.3459792, 10.8045392], [-61.3459905, 10.8038694], [-61.3460311, 10.800384], [-61.3486818, 10.7956035], [-61.3502176, 10.7913603], [-61.3528683, 10.7892593], [-61.3523634, 10.7860562], [-61.3593337, 10.7802353], [-61.3593316, 10.7706678], [-61.3593611, 10.7612879], [-61.3592872, 10.7522127], [-61.359302, 10.7431372], [-61.3593597, 10.7362979], [-61.3599944, 10.7364917], [-61.3610673, 10.7368712], [-61.3635135, 10.7376934], [-61.3652086, 10.7382415], [-61.3677406, 10.7398965], [-61.3694358, 10.741193], [-61.370852, 10.7419098], [-61.3728261, 10.7421838], [-61.3743925, 10.7423947], [-61.3757444, 10.7426266], [-61.3770104, 10.7433644], [-61.3782442, 10.7436016], [-61.3788772, 10.7431114], [-61.3794512, 10.7423525], [-61.3802934, 10.7416515], [-61.3813072, 10.7399755], [-61.3825786, 10.7380096], [-61.3836837, 10.7360701], [-61.3851214, 10.7351214], [-61.3872457, 10.7333083], [-61.3874924, 10.7325388], [-61.3874764, 10.7317061], [-61.389252, 10.733361], [-61.3911134, 10.7338723], [-61.3933718, 10.736165], [-61.3972074, 10.7366762], [-61.3982856, 10.7381045], [-61.3999486, 10.739127], [-61.4050877, 10.7399808], [-61.4061338, 10.7396698], [-61.4085531, 10.7392588], [-61.4103931, 10.7394643], [-61.4111495, 10.7405078], [-61.4118147, 10.7410033], [-61.4123833, 10.7414038], [-61.4128339, 10.7421628], [-61.4145613, 10.7432485], [-61.4166963, 10.7441339], [-61.4187133, 10.7451247], [-61.4201939, 10.7444079], [-61.4218676, 10.743902], [-61.4229512, 10.7436806], [-61.424067, 10.7428268], [-61.4254725, 10.7414565], [-61.4269209, 10.7390005], [-61.4276719, 10.7379675], [-61.4288092, 10.737082], [-61.4307833, 10.7359858], [-61.432457, 10.7352479], [-61.4351499, 10.7354376], [-61.4366144, 10.7350634], [-61.4383149, 10.7344257], [-61.4393717, 10.7342465], [-61.4394629, 10.7326021], [-61.4397258, 10.7305413]], [[-61.297543, 10.6144305], [-61.2969716, 10.6170987], [-61.2920952, 10.6176359], [-61.291238, 10.6204017], [-61.2904304, 10.6230088], [-61.2898838, 10.6262385], [-61.2912193, 10.6289493], [-61.2925487, 10.6321668], [-61.2914672, 10.6338363], [-61.2910143, 10.6345356], [-61.2898341, 10.6364649], [-61.290369, 10.6381017], [-61.2910653, 10.6402239], [-61.2914029, 10.6413369], [-61.288723, 10.6434108], [-61.2903041, 10.6461062], [-61.2907854, 10.6497475], [-61.291907, 10.6531225], [-61.2897499, 10.6552439], [-61.2859686, 10.6552555], [-61.2826412, 10.6530948], [-61.2798089, 10.6513019], [-61.2773126, 10.6499521], [-61.2746807, 10.6485183], [-61.2721255, 10.6469948], [-61.2710069, 10.6462253], [-61.2706519, 10.645981], [-61.2692814, 10.6450599], [-61.2683088, 10.6443966], [-61.2685298, 10.6417579], [-61.2687273, 10.6394493], [-61.2689218, 10.6373088], [-61.2692932, 10.6350552], [-61.2694403, 10.634191], [-61.2686472, 10.6325777], [-61.2678727, 10.6310307], [-61.2678583, 10.6302501], [-61.2678655, 10.6284298], [-61.2678917, 10.6256543], [-61.2678995, 10.6240043], [-61.2679177, 10.62195], [-61.2679125, 10.6207655], [-61.2671915, 10.6190694], [-61.266304, 10.6170381], [-61.2658198, 10.6159202], [-61.2639276, 10.6143059], [-61.262647, 10.6132135], [-61.2626105, 10.6116094], [-61.2626366, 10.6105221], [-61.2631884, 10.6083322], [-61.265282, 10.6081085], [-61.2659478, 10.6080374], [-61.2662119, 10.6080092], [-61.2664211, 10.6079868], [-61.266722, 10.6079549], [-61.267385, 10.6078846], [-61.2677829, 10.6078424], [-61.2679833, 10.6078211], [-61.2680375, 10.6078154], [-61.2700338, 10.6068253], [-61.2712624, 10.6062164], [-61.2714346, 10.6061793], [-61.2720137, 10.6060503], [-61.2721452, 10.606022], [-61.2733551, 10.6057636], [-61.2760906, 10.6051547], [-61.2797346, 10.6059146], [-61.2816815, 10.6063341], [-61.2837065, 10.606833], [-61.2853385, 10.6072705], [-61.2868456, 10.6076389], [-61.2878841, 10.6078998], [-61.2896957, 10.6088413], [-61.291489, 10.6097316], [-61.2932329, 10.6106322], [-61.297543, 10.6144305]]], [[[-61.2728427, 10.7948135], [-61.2728173, 10.7946646], [-61.2727502, 10.7945975], [-61.2726711, 10.7945514], [-61.2725504, 10.7945434], [-61.2723291, 10.7945817], [-61.2721668, 10.7947226], [-61.2721132, 10.7948478], [-61.2721185, 10.794936], [-61.2721521, 10.7949927], [-61.2722074, 10.7950037], [-61.2723237, 10.7950269], [-61.2724491, 10.7950345], [-61.2725624, 10.7950414], [-61.2727515, 10.794994], [-61.2728119, 10.7949308], [-61.2728427, 10.7948135]]], [[[-61.2714708, 10.7953734], [-61.2714493, 10.7953273], [-61.2713876, 10.7953088], [-61.2711248, 10.79538], [-61.2709907, 10.7955038], [-61.2709759, 10.7955631], [-61.2709826, 10.795596], [-61.2710215, 10.7956118], [-61.2710926, 10.7956118], [-61.2712656, 10.795596], [-61.2714091, 10.7955143], [-61.2714681, 10.7954314], [-61.2714708, 10.7953734]]], [[[-61.2649986, 10.7948886], [-61.2649772, 10.7948372], [-61.2649423, 10.7948148], [-61.2648377, 10.7948346], [-61.264607, 10.7949149], [-61.2642838, 10.7950875], [-61.2641403, 10.7952074], [-61.2640987, 10.7953088], [-61.2641075, 10.7953437], [-61.2641443, 10.7953629], [-61.2642214, 10.7953497], [-61.2647036, 10.7951126], [-61.2649812, 10.7949413], [-61.2649986, 10.7948886]]], [[[-61.258792, 10.7945869], [-61.2587759, 10.7945514], [-61.2587249, 10.794525], [-61.2586525, 10.7945211], [-61.2585868, 10.7945092], [-61.2585291, 10.7944987], [-61.2584688, 10.7944552], [-61.2584151, 10.794446], [-61.2583534, 10.7944789], [-61.2583065, 10.7945131], [-61.2582904, 10.7945619], [-61.2582763, 10.7946311], [-61.2583159, 10.7946225], [-61.2583494, 10.7946238], [-61.2584091, 10.7946383], [-61.2584433, 10.7946653], [-61.2584694, 10.7946396], [-61.2585204, 10.7946449], [-61.2585144, 10.7946284], [-61.2585392, 10.7946073], [-61.2585466, 10.7946318], [-61.258509, 10.7946877], [-61.2584748, 10.7947075], [-61.2584956, 10.7947298], [-61.2585398, 10.7947174], [-61.2585741, 10.7947035], [-61.2585868, 10.7946811], [-61.2586089, 10.7946877], [-61.2586243, 10.7947061], [-61.2586196, 10.7947226], [-61.2586592, 10.794776], [-61.2586773, 10.7947826], [-61.2586793, 10.7947437], [-61.2587008, 10.7947595], [-61.258733, 10.7947424], [-61.2587464, 10.7947187], [-61.258735, 10.7946877], [-61.258788, 10.7946423], [-61.258792, 10.7945869]]], [[[-61.2522473, 10.7960914], [-61.252238, 10.7960413], [-61.2521481, 10.7959636], [-61.2519805, 10.795957], [-61.2519148, 10.7959715], [-61.2516989, 10.7960387], [-61.251546, 10.7961085], [-61.2513918, 10.7961823], [-61.2512711, 10.7963943], [-61.2511182, 10.7965538], [-61.2509465, 10.7967132], [-61.2506984, 10.7969279], [-61.2505174, 10.7970543], [-61.2504141, 10.7971083], [-61.2504061, 10.797223], [-61.2504315, 10.7973508], [-61.2506125, 10.7974311], [-61.2507883, 10.7973758], [-61.250872, 10.7972275], [-61.2509117, 10.7971571], [-61.2512577, 10.7969648], [-61.2512872, 10.7969029], [-61.2512402, 10.796837], [-61.2513703, 10.7965748], [-61.25144, 10.7966091], [-61.2515111, 10.7965406], [-61.251554, 10.796401], [-61.2517686, 10.7963298], [-61.2519537, 10.7962956], [-61.25201, 10.796235], [-61.2519919, 10.7961875], [-61.2520127, 10.796175], [-61.2520442, 10.7962126], [-61.2520838, 10.796202], [-61.2522473, 10.7960914]]], [[[-61.2356526, 10.7963509], [-61.2356043, 10.7963193], [-61.2353441, 10.7963746], [-61.2351134, 10.7964958], [-61.2345904, 10.7968673], [-61.2344885, 10.7969463], [-61.2344188, 10.796999], [-61.2344188, 10.7970438], [-61.2344617, 10.7970596], [-61.2345529, 10.7970464], [-61.2346119, 10.7969964], [-61.2346736, 10.7969437], [-61.2347379, 10.7969253], [-61.2348881, 10.7969147], [-61.2350222, 10.7969621], [-61.2351859, 10.796949], [-61.23532, 10.7968884], [-61.2354916, 10.7967698], [-61.2355936, 10.796617], [-61.2356365, 10.7965011], [-61.2356526, 10.7964009], [-61.2356526, 10.7963509]]], [[[-61.2034687, 10.7964457], [-61.203391, 10.7962982], [-61.2033212, 10.7962666], [-61.2032649, 10.7962876], [-61.2032247, 10.7963482], [-61.2031496, 10.7965063], [-61.2030262, 10.796783], [-61.2029645, 10.7969832], [-61.2029859, 10.7970122], [-61.2030208, 10.7970175], [-61.203163, 10.7969015], [-61.2033078, 10.7967276], [-61.2034553, 10.7965775], [-61.2034687, 10.7964457]]], [[[-61.2029162, 10.7970939], [-61.202876, 10.7970544], [-61.2027472, 10.7970254], [-61.2026721, 10.7970675], [-61.2026265, 10.797194], [-61.2025917, 10.7973073], [-61.2026185, 10.7973811], [-61.2026694, 10.7974285], [-61.2027231, 10.797439], [-61.2027741, 10.7974127], [-61.2028411, 10.797331], [-61.2029108, 10.7971835], [-61.2029162, 10.7970939]]]]}, "bbox": [-61.4397258, 10.5655053, -61.1548591, 10.8078565]}