{"type": "Feature", "properties": {"name": "Point Fortin", "display_name": "Point Fortin, Trinidad and Tobago", "osm_type": "relation", "osm_id": 7363418, "category": "boundary", "type": "administrative", "source": "OpenStreetMap / Nominatim", "license": "ODbL"}, "geometry": {"type": "Polygon", "coordinates": [[[-61.7076352, 10.1601645], [-61.7071053, 10.1593462], [-61.7068293, 10.158998], [-61.7068889, 10.1576416], [-61.7065934, 10.1564532], [-61.7065051, 10.1524476], [-61.7049771, 10.1506297], [-61.7024345, 10.1482546], [-61.7018774, 10.1470246], [-61.7021623, 10.1465359], [-61.7023006, 10.1459543], [-61.7027586, 10.1458554], [-61.7029109, 10.1456261], [-61.7027822, 10.1450935], [-61.7031665, 10.1446132], [-61.7031425, 10.1440643], [-61.7029175, 10.1437878], [-61.7023984, 10.1434777], [-61.7021839, 10.1425965], [-61.7018042, 10.141053], [-61.701098, 10.1410015], [-61.700408, 10.1410752], [-61.6993755, 10.141865], [-61.6980791, 10.1422458], [-61.6961389, 10.1426556], [-61.6945722, 10.1427343], [-61.6936361, 10.1423316], [-61.6929911, 10.1422428], [-61.6911204, 10.1425441], [-61.6889615, 10.1433591], [-61.6878097, 10.1426376], [-61.6872743, 10.1425413], [-61.6832277, 10.1451279], [-61.6826041, 10.1459821], [-61.6814937, 10.1467882], [-61.6806162, 10.1475958], [-61.6800376, 10.1484953], [-61.6799104, 10.1496601], [-61.678656, 10.1506165], [-61.6772997, 10.1515349], [-61.6758394, 10.1518978], [-61.6744071, 10.1528904], [-61.6730131, 10.1535318], [-61.6718374, 10.1555062], [-61.6710495, 10.1560907], [-61.6681057, 10.1583472], [-61.6647793, 10.1624911], [-61.6634029, 10.1648668], [-61.6607708, 10.1682452], [-61.6574651, 10.1669244], [-61.6567471, 10.1669862], [-61.6554155, 10.1679829], [-61.6548969, 10.1681931], [-61.6541576, 10.1679872], [-61.6529953, 10.1680999], [-61.6514132, 10.1693113], [-61.6512933, 10.1713048], [-61.6510132, 10.1720235], [-61.649863, 10.1729551], [-61.6484858, 10.1741108], [-61.6478112, 10.175099], [-61.6476887, 10.1764114], [-61.6480059, 10.1770314], [-61.6485055, 10.1778837], [-61.6484533, 10.179018], [-61.6481578, 10.1802498], [-61.6470091, 10.1822333], [-61.6460943, 10.1827231], [-61.6455569, 10.1830121], [-61.6428865, 10.1879385], [-61.6395818, 10.1921632], [-61.6338991, 10.1945766], [-61.6333661, 10.1951013], [-61.6329603, 10.1957944], [-61.6327949, 10.1965017], [-61.6334638, 10.1971259], [-61.6333344, 10.1980434], [-61.633296, 10.1987697], [-61.6342052, 10.2004817], [-61.6361895, 10.2030433], [-61.6370092, 10.2039993], [-61.637498, 10.2048132], [-61.6380402, 10.2051568], [-61.638621, 10.2060092], [-61.6407159, 10.2065451], [-61.6412143, 10.2065537], [-61.6415386, 10.2063488], [-61.6431794, 10.2053557], [-61.6440498, 10.206021], [-61.6445306, 10.205369], [-61.6457445, 10.2041983], [-61.6459434, 10.2041502], [-61.6460324, 10.2040821], [-61.6459713, 10.2036936], [-61.6461527, 10.2033263], [-61.6473877, 10.2025578], [-61.6485565, 10.2017137], [-61.6490011, 10.2014292], [-61.649445, 10.2011375], [-61.6500874, 10.2007204], [-61.6509631, 10.2001463], [-61.6513634, 10.1998757], [-61.6516712, 10.1996856], [-61.6518456, 10.1995431], [-61.6521326, 10.1994085], [-61.6522991, 10.1993004], [-61.6527709, 10.198994], [-61.6530848, 10.1987749], [-61.6533798, 10.1986244], [-61.6544446, 10.1980965], [-61.6554571, 10.1975826], [-61.6554877, 10.197561], [-61.6554935, 10.1974975], [-61.6555476, 10.1974666], [-61.6562659, 10.1970564], [-61.656823, 10.196759], [-61.656885, 10.1967259], [-61.6570571, 10.196634], [-61.6573092, 10.196539], [-61.657564, 10.1964228], [-61.6579342, 10.1962116], [-61.6581541, 10.1961166], [-61.6584599, 10.1960163], [-61.6587496, 10.1958737], [-61.658991, 10.1957523], [-61.6594362, 10.1955622], [-61.6597742, 10.1953352], [-61.6604126, 10.1950342], [-61.6606754, 10.1949286], [-61.6610938, 10.1947597], [-61.6614747, 10.1945907], [-61.661818, 10.1944852], [-61.6621667, 10.1943162], [-61.6625208, 10.1942106], [-61.6627742, 10.1940746], [-61.6630934, 10.1939427], [-61.6635092, 10.1937645], [-61.6640349, 10.1935414], [-61.6644882, 10.1933658], [-61.6648369, 10.1932563], [-61.665199, 10.1931441], [-61.6656134, 10.1929923], [-61.6660438, 10.1928616], [-61.6663295, 10.192756], [-61.6668539, 10.1925937], [-61.6673487, 10.1924406], [-61.6679482, 10.1923099], [-61.6684967, 10.1923205], [-61.6688052, 10.192265], [-61.6690922, 10.1921462], [-61.6694114, 10.191869], [-61.6696796, 10.1915998], [-61.6700766, 10.1914282], [-61.6702078, 10.1913712], [-61.6704654, 10.1912593], [-61.6706774, 10.1910982], [-61.6710207, 10.1908738], [-61.6714592, 10.190586], [-61.6722867, 10.1902983], [-61.6731718, 10.1900845], [-61.6736814, 10.1899234], [-61.6742286, 10.1897518], [-61.6746792, 10.1896304], [-61.6753525, 10.1894377], [-61.6762456, 10.1892582], [-61.6778442, 10.1888173], [-61.6784102, 10.1886932], [-61.6788715, 10.1886167], [-61.6792443, 10.1885824], [-61.6795152, 10.1885692], [-61.679703, 10.18849], [-61.6800463, 10.188189], [-61.6803601, 10.1880544], [-61.680623, 10.1879937], [-61.6807598, 10.188024], [-61.6808456, 10.1881375], [-61.6808872, 10.1881587], [-61.6809328, 10.1881521], [-61.6811916, 10.1880597], [-61.6814813, 10.1879963], [-61.68183, 10.1879488], [-61.6820473, 10.187896], [-61.6822699, 10.1877851], [-61.682514, 10.1876637], [-61.6829592, 10.187537], [-61.6834366, 10.1874314], [-61.6840857, 10.1872492], [-61.6846061, 10.1871647], [-61.6848689, 10.1871568], [-61.6852069, 10.1871885], [-61.6854979, 10.1871559], [-61.6857824, 10.1870192], [-61.685905, 10.1869667], [-61.686389, 10.1868604], [-61.6871509, 10.1867161], [-61.6875981, 10.1866565], [-61.6876749, 10.1866176], [-61.6877262, 10.1865945], [-61.6877981, 10.1866184], [-61.6879031, 10.1866799], [-61.6879242, 10.1866908], [-61.6880468, 10.1867212], [-61.6881144, 10.1867252], [-61.6881921, 10.186724], [-61.6882646, 10.186712], [-61.6884054, 10.1866618], [-61.6885395, 10.1866433], [-61.688797, 10.1866473], [-61.6889097, 10.1866724], [-61.6890054, 10.186726], [-61.6891119, 10.1870096], [-61.6891728, 10.1870342], [-61.6892434, 10.1870601], [-61.6894122, 10.1870091], [-61.6895528, 10.1866251], [-61.689567, 10.1865869], [-61.6897354, 10.1861537], [-61.6897803, 10.1861378], [-61.6898152, 10.1861347], [-61.6899312, 10.1861651], [-61.6899625, 10.1860601], [-61.6906984, 10.1863473], [-61.6907373, 10.186349], [-61.6907731, 10.1863305], [-61.6914437, 10.1858992], [-61.6914682, 10.1858949], [-61.6914876, 10.1859058], [-61.6916811, 10.1862124], [-61.6916951, 10.1862198], [-61.6917079, 10.1862203], [-61.6919731, 10.1860658], [-61.6919741, 10.1860573], [-61.6919738, 10.1860477], [-61.6918031, 10.1857913], [-61.6917877, 10.1857801], [-61.6917736, 10.1857844], [-61.691674, 10.1858471], [-61.6916506, 10.1858461], [-61.6916388, 10.1858415], [-61.6911634, 10.1850812], [-61.6911641, 10.1850046], [-61.6911902, 10.1849584], [-61.6912331, 10.1849162], [-61.6918346, 10.1849023], [-61.6937692, 10.184899], [-61.6938637, 10.1849129], [-61.693916, 10.1849393], [-61.6939489, 10.1849736], [-61.6939717, 10.1850323], [-61.6939913, 10.1857738], [-61.6939881, 10.1857925], [-61.6939831, 10.1858017], [-61.6939221, 10.1858421], [-61.6939013, 10.18585], [-61.693883, 10.185825], [-61.6937899, 10.1856972], [-61.6937732, 10.1856877], [-61.6937444, 10.1856833], [-61.6934349, 10.185884], [-61.6934212, 10.1859028], [-61.6934252, 10.1859207], [-61.6935841, 10.1861754], [-61.6936002, 10.1861846], [-61.6936274, 10.1861774], [-61.6937517, 10.1860922], [-61.6938228, 10.1860876], [-61.6939167, 10.1861523], [-61.6940119, 10.1862962], [-61.6940193, 10.1864005], [-61.6939925, 10.1865298], [-61.6938999, 10.1866539], [-61.6936961, 10.1868341], [-61.6936974, 10.186902], [-61.6937638, 10.1869542], [-61.6939167, 10.1869958], [-61.6940501, 10.1870532], [-61.6943137, 10.187203], [-61.6946509, 10.187331], [-61.6948362, 10.1873917], [-61.6949809, 10.1873746], [-61.6951552, 10.1873799], [-61.6956293, 10.1873957], [-61.6957426, 10.187372], [-61.6958405, 10.1873218], [-61.6959223, 10.1872624], [-61.6960122, 10.187166], [-61.6961292, 10.1870088], [-61.6965164, 10.1864889], [-61.6971508, 10.1856375], [-61.697187, 10.1855359], [-61.697183, 10.1854012], [-61.6971387, 10.1851373], [-61.6971374, 10.185029], [-61.697199, 10.1849313], [-61.6980669, 10.1842476], [-61.698131, 10.184194], [-61.6986448, 10.183709], [-61.6987199, 10.1835929], [-61.6988057, 10.1834398], [-61.6988278, 10.18322], [-61.6988285, 10.1825567], [-61.6988272, 10.1805675], [-61.6988204, 10.1798428], [-61.6987923, 10.1796725], [-61.6987252, 10.1794904], [-61.6986246, 10.1793821], [-61.6983363, 10.1792211], [-61.6977368, 10.1789465], [-61.6968675, 10.1785409], [-61.6948199, 10.1775856], [-61.694774, 10.1775423], [-61.6947763, 10.1774661], [-61.694832, 10.1774061], [-61.6948736, 10.17741], [-61.6977301, 10.178606], [-61.6979226, 10.1786251], [-61.6981016, 10.1785677], [-61.6982505, 10.1784205], [-61.6984959, 10.1778958], [-61.6985348, 10.1776503], [-61.6985402, 10.1774285], [-61.698449, 10.1768556], [-61.6981673, 10.1746512], [-61.6980037, 10.1743978], [-61.6976336, 10.1742631], [-61.6970569, 10.1742684], [-61.6950774, 10.1734236], [-61.6949554, 10.1731543], [-61.6949755, 10.1730039], [-61.6950788, 10.1728144], [-61.6952471, 10.1727385], [-61.6954757, 10.1726791], [-61.6956393, 10.1726626], [-61.6959022, 10.1726527], [-61.69622, 10.172629], [-61.6963863, 10.1725973], [-61.6965137, 10.1725319], [-61.6967102, 10.1724382], [-61.696902, 10.1723267], [-61.6969945, 10.1722495], [-61.6970328, 10.1721835], [-61.6970187, 10.1721214], [-61.6967484, 10.1719769], [-61.6966599, 10.1718185], [-61.6966747, 10.1716376], [-61.6968316, 10.1713683], [-61.6968732, 10.1712601], [-61.6968685, 10.1712231], [-61.696845, 10.1711994], [-61.6965976, 10.1711717], [-61.6965386, 10.1711512], [-61.6964876, 10.1711169], [-61.6963783, 10.1709783], [-61.6962898, 10.1707169], [-61.6962536, 10.170571], [-61.6961811, 10.1704186], [-61.6960779, 10.1702886], [-61.6960739, 10.1701909], [-61.6961436, 10.170146], [-61.6963481, 10.1701935], [-61.6964152, 10.1702061], [-61.6964883, 10.1701869], [-61.6965681, 10.1701189], [-61.6966291, 10.1699902], [-61.6966432, 10.1698325], [-61.6965801, 10.1695949], [-61.6964567, 10.1693566], [-61.6961382, 10.1689448], [-61.6960202, 10.1687864], [-61.695976, 10.1685831], [-61.6960202, 10.1683758], [-61.6964621, 10.1679182], [-61.6978428, 10.1664406], [-61.6998907, 10.1657446], [-61.7004361, 10.1654024], [-61.7005799, 10.1652373], [-61.7007897, 10.1651016], [-61.7009815, 10.1650898], [-61.7011171, 10.1651562], [-61.7011969, 10.1651688], [-61.7015509, 10.1650308], [-61.7015988, 10.164901], [-61.7016408, 10.1646982], [-61.7018527, 10.164553], [-61.7027405, 10.1640144], [-61.7030329, 10.1638929], [-61.7033091, 10.1637451], [-61.703812, 10.163419], [-61.7041098, 10.1632725], [-61.7041393, 10.1632685], [-61.704158, 10.1632765], [-61.7041996, 10.1633966], [-61.7044343, 10.1633425], [-61.7044464, 10.1634006], [-61.704504, 10.163386], [-61.7049775, 10.1632435], [-61.7052993, 10.1631445], [-61.7054401, 10.1631181], [-61.7055488, 10.1630705], [-61.7059296, 10.1629003], [-61.7066217, 10.1626521], [-61.7069382, 10.1624303], [-61.7071688, 10.1622349], [-61.7074049, 10.1619709], [-61.7075765, 10.16186], [-61.7076352, 10.1601645]]]}, "bbox": [-61.7076352, 10.1410015, -61.6327949, 10.2065537]}