{"type": "Feature", "properties": {"name": "Port of Spain", "display_name": "Port of Spain, Trinidad and Tobago", "osm_type": "relation", "osm_id": 7363637, "category": "boundary", "type": "administrative", "source": "OpenStreetMap / Nominatim", "license": "ODbL"}, "geometry": {"type": "Polygon", "coordinates": [[[-61.5481359, 10.6755428], [-61.5479539, 10.675499], [-61.5476874, 10.6754833], [-61.5473893, 10.6754369], [-61.5461586, 10.6750283], [-61.5461386, 10.6749853], [-61.5460496, 10.6749104], [-61.5459189, 10.6748181], [-61.5458323, 10.6749717], [-61.54578, 10.6749394], [-61.5458384, 10.6748281], [-61.5459382, 10.6745901], [-61.5457706, 10.6745001], [-61.5456932, 10.6745877], [-61.5456358, 10.6745695], [-61.5456673, 10.6744316], [-61.5456958, 10.6742788], [-61.5456998, 10.6741945], [-61.545618, 10.6741049], [-61.5454366, 10.6740251], [-61.5452237, 10.6740324], [-61.5449032, 10.6738782], [-61.5437018, 10.6732163], [-61.5427605, 10.6727428], [-61.5427393, 10.6727412], [-61.5427196, 10.672755], [-61.542278, 10.6736067], [-61.5422478, 10.6736251], [-61.5422096, 10.6736311], [-61.5421355, 10.6735866], [-61.5420555, 10.6735446], [-61.5420887, 10.6734918], [-61.5420606, 10.6734744], [-61.542027, 10.6734536], [-61.5420577, 10.6734059], [-61.5419598, 10.6733599], [-61.5418743, 10.6733061], [-61.5417986, 10.6732667], [-61.5417914, 10.6732026], [-61.5418091, 10.6731281], [-61.5418685, 10.6730657], [-61.5419152, 10.6730136], [-61.5419718, 10.6729492], [-61.5420938, 10.6727418], [-61.5421131, 10.6726984], [-61.542101, 10.6726761], [-61.5420813, 10.6726626], [-61.542049, 10.6726604], [-61.5420224, 10.6726759], [-61.5419773, 10.6727669], [-61.541873, 10.6728673], [-61.5418455, 10.6728779], [-61.5418113, 10.6728654], [-61.541476, 10.6726407], [-61.5412433, 10.6724852], [-61.5407559, 10.6721642], [-61.5402912, 10.6717102], [-61.5400283, 10.671469], [-61.5392455, 10.6705817], [-61.5390864, 10.6704005], [-61.538834, 10.6700705], [-61.5386982, 10.6698607], [-61.5385035, 10.6695199], [-61.5382165, 10.6691825], [-61.5378907, 10.6688098], [-61.5378085, 10.6686366], [-61.537739, 10.6685235], [-61.5377095, 10.6684339], [-61.5376575, 10.6683466], [-61.5376505, 10.6682257], [-61.5376291, 10.6680939], [-61.537621, 10.6680306], [-61.53764, 10.667911], [-61.5376908, 10.6678382], [-61.5378973, 10.6676853], [-61.538195, 10.667398], [-61.5383506, 10.667145], [-61.538372, 10.6669262], [-61.5383828, 10.6667232], [-61.5383828, 10.6665993], [-61.5383828, 10.6664939], [-61.538372, 10.6664043], [-61.5383157, 10.6663437], [-61.5381119, 10.6662567], [-61.5378959, 10.6662221], [-61.5376647, 10.6662596], [-61.5375674, 10.6662646], [-61.537499, 10.6662409], [-61.5374655, 10.6661881], [-61.537452, 10.6661354], [-61.5374132, 10.6660827], [-61.5373769, 10.6660722], [-61.537267, 10.6660985], [-61.5371785, 10.666088], [-61.5371141, 10.6660273], [-61.537039, 10.6658797], [-61.53698, 10.6657005], [-61.5369505, 10.6653684], [-61.5369371, 10.6651786], [-61.5368941, 10.6650521], [-61.5368164, 10.6649625], [-61.5367761, 10.6648755], [-61.5367815, 10.6647516], [-61.5367842, 10.664575], [-61.5367466, 10.6644353], [-61.5366393, 10.6642587], [-61.5365267, 10.664061], [-61.5364677, 10.6638633], [-61.5364301, 10.6635602], [-61.5364355, 10.6632333], [-61.5363979, 10.6628248], [-61.5363979, 10.6626771], [-61.5364301, 10.6625796], [-61.5364757, 10.6625164], [-61.536693, 10.662401], [-61.536862, 10.6622297], [-61.5369585, 10.6620406], [-61.5369974, 10.661773], [-61.5369827, 10.6615529], [-61.536984, 10.6613737], [-61.5370215, 10.6611786], [-61.537102, 10.6609256], [-61.5372536, 10.6605948], [-61.5375835, 10.6600966], [-61.5377444, 10.6598936], [-61.5379308, 10.6597526], [-61.5380636, 10.6595628], [-61.5381414, 10.6593849], [-61.5381789, 10.6592215], [-61.538191, 10.6588511], [-61.5382902, 10.6586692], [-61.5383935, 10.6585203], [-61.5384069, 10.6583766], [-61.5383559, 10.6582369], [-61.538187, 10.658063], [-61.5380113, 10.6579628], [-61.5379415, 10.6578969], [-61.5378048, 10.6577453], [-61.537786, 10.6576676], [-61.5378597, 10.6574607], [-61.5377632, 10.6570758], [-61.5374816, 10.656749], [-61.53618, 10.6561494], [-61.534055, 10.6549539], [-61.5336862, 10.6548221], [-61.5334328, 10.6547219], [-61.5332665, 10.6546745], [-61.53308, 10.6546534], [-61.5329111, 10.6546547], [-61.532671, 10.6546428], [-61.5325007, 10.654602], [-61.5323424, 10.6546046], [-61.5321547, 10.6546402], [-61.5319669, 10.6547008], [-61.5318328, 10.6548115], [-61.5315686, 10.6551634], [-61.5305936, 10.6565513], [-61.5299549, 10.6574213], [-61.5297085, 10.6577058], [-61.5294698, 10.6577954], [-61.5294344, 10.6577833], [-61.5291077, 10.6576715], [-61.5286286, 10.657349], [-61.5285397, 10.6572781], [-61.5284395, 10.6571839], [-61.5284283, 10.6571468], [-61.5284355, 10.6570838], [-61.5284334, 10.6570748], [-61.5284258, 10.6570677], [-61.5278149, 10.6566995], [-61.527787, 10.6566771], [-61.5277944, 10.6566448], [-61.52807, 10.6561865], [-61.5280703, 10.6561681], [-61.528061, 10.6561526], [-61.5254392, 10.6547953], [-61.5236575, 10.6538745], [-61.5199385, 10.6519524], [-61.5190266, 10.6514941], [-61.5187227, 10.6513309], [-61.5186422, 10.6512928], [-61.5182957, 10.6511218], [-61.5168849, 10.6503976], [-61.5145778, 10.6491819], [-61.5143326, 10.6489171], [-61.5143271, 10.6489103], [-61.514322, 10.648904], [-61.5142704, 10.6488412], [-61.5136005, 10.6479843], [-61.5135817, 10.6479329], [-61.5135904, 10.6478756], [-61.5136313, 10.6477102], [-61.5136606, 10.6475347], [-61.5136639, 10.6475098], [-61.513176, 10.6474413], [-61.5131445, 10.6474225], [-61.5131157, 10.6473938], [-61.5130731, 10.6473372], [-61.5130681, 10.6473115], [-61.5130805, 10.6472884], [-61.5131328, 10.6472413], [-61.5130681, 10.6471658], [-61.5129083, 10.6469872], [-61.512902, 10.6469678], [-61.5129075, 10.6469511], [-61.5129278, 10.6469325], [-61.5129595, 10.6469039], [-61.5129571, 10.6468805], [-61.5129367, 10.6468501], [-61.5128941, 10.6468228], [-61.5128414, 10.6468238], [-61.5127734, 10.6468469], [-61.5126865, 10.6468986], [-61.5126456, 10.646919], [-61.5126088, 10.6469253], [-61.5125444, 10.6469252], [-61.5125149, 10.6469272], [-61.5121414, 10.6469391], [-61.5120948, 10.6469454], [-61.5120492, 10.6469694], [-61.5120106, 10.6470235], [-61.5119315, 10.647067], [-61.5118752, 10.6470743], [-61.5115797, 10.647096], [-61.5110799, 10.6471569], [-61.5109404, 10.6471671], [-61.5101569, 10.6472396], [-61.5101257, 10.6472357], [-61.510113, 10.6472146], [-61.5098172, 10.6459532], [-61.5097421, 10.6457134], [-61.5096692, 10.6454879], [-61.509598, 10.6454012], [-61.5095005, 10.6453803], [-61.5093593, 10.6453825], [-61.5092412, 10.645459], [-61.509142, 10.6456066], [-61.5090998, 10.6457279], [-61.5090971, 10.6459532], [-61.5091252, 10.6462537], [-61.5091702, 10.6465727], [-61.5092603, 10.6469345], [-61.5092567, 10.6470854], [-61.5092231, 10.6471507], [-61.5091594, 10.6471895], [-61.5089502, 10.6472007], [-61.5087135, 10.6471889], [-61.5085372, 10.6471388], [-61.5082998, 10.6470426], [-61.5080979, 10.646945], [-61.5080383, 10.6468877], [-61.5080068, 10.6467638], [-61.5080094, 10.6464435], [-61.5079974, 10.6463341], [-61.5079169, 10.6462564], [-61.507815, 10.6462017], [-61.5076393, 10.6461661], [-61.5072497, 10.6460896], [-61.5070908, 10.6460086], [-61.5070418, 10.6459565], [-61.5070023, 10.6458781], [-61.5068454, 10.6456507], [-61.5068407, 10.645457], [-61.5068521, 10.6453885], [-61.5069117, 10.6453028], [-61.5070358, 10.645258], [-61.5074807, 10.6453588], [-61.5075146, 10.6453486], [-61.5075367, 10.6453226], [-61.5076024, 10.6452053], [-61.5076379, 10.645171], [-61.5076789, 10.6451604], [-61.5077395, 10.6451519], [-61.5077858, 10.6451789], [-61.5077942, 10.6452573], [-61.5077727, 10.6453041], [-61.5077392, 10.6453726], [-61.5077479, 10.6454636], [-61.5077875, 10.6455717], [-61.5079129, 10.6456105], [-61.5079967, 10.6455776], [-61.5080564, 10.645484], [-61.5080839, 10.6453911], [-61.5081228, 10.6453081], [-61.5081449, 10.6452217], [-61.5081744, 10.6450807], [-61.5082119, 10.6448652], [-61.5082461, 10.6446649], [-61.5082857, 10.6444929], [-61.5083367, 10.6443485], [-61.5084051, 10.6442411], [-61.5085244, 10.6441218], [-61.5086458, 10.6440434], [-61.5087195, 10.6439848], [-61.5087792, 10.6439103], [-61.5087953, 10.6437778], [-61.5087605, 10.643652], [-61.5086733, 10.6435683], [-61.508631, 10.6434193], [-61.5086672, 10.643333], [-61.508792, 10.6432566], [-61.5088221, 10.6431999], [-61.5088242, 10.6431465], [-61.5087713, 10.6430023], [-61.5088254, 10.6429616], [-61.5087401, 10.6428057], [-61.5086349, 10.6425827], [-61.508281, 10.6420136], [-61.5082723, 10.6419695], [-61.5082911, 10.6419174], [-61.5083239, 10.641868], [-61.5083789, 10.6418133], [-61.5084614, 10.64175], [-61.5085566, 10.6416713], [-61.5085965, 10.6416126], [-61.5086015, 10.6415553], [-61.5086039, 10.64152], [-61.5085464, 10.6414055], [-61.5084654, 10.6411866], [-61.5083984, 10.6411602], [-61.508338, 10.6411688], [-61.5082334, 10.641232], [-61.5080959, 10.6413401], [-61.5080423, 10.6413599], [-61.507984, 10.6413665], [-61.5078981, 10.6413243], [-61.507768, 10.6412116], [-61.5075696, 10.6409889], [-61.5074549, 10.6408511], [-61.5073496, 10.6407299], [-61.507243, 10.6406112], [-61.5071391, 10.640577], [-61.5070539, 10.6405618], [-61.506952, 10.6405243], [-61.5068635, 10.6404511], [-61.5067884, 10.6404102], [-61.506673, 10.6403971], [-61.5066093, 10.6404116], [-61.5065704, 10.6404155], [-61.5065245, 10.640407], [-61.5064782, 10.6403938], [-61.506436, 10.6404], [-61.5063974, 10.6404234], [-61.5063642, 10.6404379], [-61.5063377, 10.6404392], [-61.5062791, 10.6404205], [-61.5062281, 10.6403638], [-61.5060464, 10.6400929], [-61.5060018, 10.6400633], [-61.5059341, 10.6400511], [-61.5058734, 10.6400488], [-61.5058147, 10.640055], [-61.5057453, 10.6400791], [-61.5056635, 10.6401143], [-61.5055844, 10.6401384], [-61.5055066, 10.6401437], [-61.5053889, 10.6401559], [-61.5051033, 10.6401545], [-61.5048498, 10.6401282], [-61.5046922, 10.6400781], [-61.5045252, 10.6400682], [-61.5044273, 10.6401269], [-61.5043522, 10.6402369], [-61.5042859, 10.6404076], [-61.5042302, 10.6406488], [-61.5042376, 10.6407641], [-61.5042852, 10.6408788], [-61.5043811, 10.6409236], [-61.5044924, 10.6409302], [-61.5045849, 10.6409698], [-61.5046748, 10.6410304], [-61.5046942, 10.6411055], [-61.5046875, 10.6412742], [-61.5046426, 10.6414106], [-61.5045923, 10.6415102], [-61.5045226, 10.641582], [-61.5043911, 10.6416387], [-61.5042121, 10.6416637], [-61.5038627, 10.6416907], [-61.5034792, 10.6416986], [-61.5031727, 10.6417296], [-61.5030795, 10.6417428], [-61.5029991, 10.6417632], [-61.5029072, 10.6418021], [-61.5028039, 10.6418337], [-61.502707, 10.6418284], [-61.5026796, 10.6418255], [-61.5025841, 10.641827], [-61.5022909, 10.6418146], [-61.5009791, 10.6418129], [-61.5009201, 10.6418147], [-61.5007946, 10.6418137], [-61.5003409, 10.6418247], [-61.5002886, 10.6418269], [-61.4994594, 10.6418474], [-61.4989563, 10.6418924], [-61.4988725, 10.6419069], [-61.4987779, 10.6419346], [-61.4986646, 10.6419458], [-61.4984192, 10.6419438], [-61.4982904, 10.641952], [-61.4981986, 10.6419685], [-61.4981332, 10.6419814], [-61.4980329, 10.6419866], [-61.4980085, 10.6419863], [-61.4979364, 10.6419846], [-61.4978549, 10.6419823], [-61.4973483, 10.6419866], [-61.4970607, 10.6419926], [-61.4968615, 10.6419873], [-61.4968032, 10.6419632], [-61.496779, 10.641924], [-61.496779, 10.64175], [-61.4967696, 10.6411358], [-61.496779, 10.640606], [-61.4967886, 10.6403294], [-61.4967927, 10.6402269], [-61.4968027, 10.6399981], [-61.4968088, 10.6399078], [-61.4967958, 10.6397453], [-61.4967857, 10.6396029], [-61.496771, 10.6394092], [-61.496783, 10.6391364], [-61.4968005, 10.638708], [-61.4968007, 10.6386289], [-61.4968032, 10.6377564], [-61.4967898, 10.636433], [-61.4967844, 10.6359453], [-61.4967804, 10.6356033], [-61.4967921, 10.6355133], [-61.4968058, 10.635395], [-61.4948033, 10.6361322], [-61.494207, 10.6395266], [-61.4963687, 10.6438307], [-61.4989873, 10.6481353], [-61.4989783, 10.65001], [-61.4989747, 10.6513315], [-61.4989604, 10.6524151], [-61.4974401, 10.6543144], [-61.4968233, 10.6551073], [-61.494498, 10.6565045], [-61.4941538, 10.6567071], [-61.4941448, 10.6594303], [-61.4956275, 10.6613798], [-61.4958067, 10.6616531], [-61.4968113, 10.6635236], [-61.4976411, 10.6650597], [-61.4983859, 10.6664038], [-61.4983813, 10.6696499], [-61.4988778, 10.6739351], [-61.5010569, 10.6750306], [-61.5021097, 10.6734223], [-61.5039786, 10.6721686], [-61.5053463, 10.6712537], [-61.5085575, 10.6712673], [-61.511555, 10.6731512], [-61.5141663, 10.6747844], [-61.5164857, 10.6761827], [-61.5171291, 10.6765356], [-61.5185491, 10.6773315], [-61.5203521, 10.678364], [-61.5213313, 10.6783588], [-61.5240916, 10.6783726], [-61.5246761, 10.6793482], [-61.5256982, 10.6810397], [-61.5278251, 10.6810521], [-61.5281537, 10.6795392], [-61.5284023, 10.6784114], [-61.5298878, 10.6779071], [-61.5316296, 10.6773163], [-61.5326317, 10.6773308], [-61.5341967, 10.6773366], [-61.5368344, 10.67738], [-61.5394125, 10.677548], [-61.5417404, 10.6776962], [-61.5432226, 10.6777991], [-61.5449992, 10.6779127], [-61.5461465, 10.6776698], [-61.5469552, 10.677499], [-61.5481359, 10.6755428]]]}, "bbox": [-61.5481359, 10.635395, -61.4941448, 10.6810521]}