{"type": "Feature", "properties": {"name": "Princes Town", "display_name": "Princes Town, Trinidad and Tobago", "osm_type": "relation", "osm_id": 7361803, "category": "boundary", "type": "administrative", "source": "OpenStreetMap / Nominatim", "license": "ODbL"}, "geometry": {"type": "Polygon", "coordinates": [[[-61.4463102, 10.262707], [-61.4461666, 10.2626047], [-61.4455478, 10.2623955], [-61.4449891, 10.2622266], [-61.4447284, 10.2620316], [-61.4444964, 10.2617513], [-61.4444758, 10.2613541], [-61.4445454, 10.261012], [-61.4445514, 10.2607081], [-61.4444715, 10.2605837], [-61.4436654, 10.259792], [-61.4432048, 10.2594336], [-61.442694, 10.2591868], [-61.4424058, 10.2588928], [-61.4421567, 10.2583207], [-61.4413645, 10.257369], [-61.4409713, 10.256761], [-61.4401958, 10.2559585], [-61.4397188, 10.255864], [-61.4391737, 10.2557115], [-61.4388288, 10.2556984], [-61.4387065, 10.2558307], [-61.4384245, 10.2564667], [-61.4380606, 10.2566639], [-61.4377324, 10.2564809], [-61.4377602, 10.2562694], [-61.4378204, 10.256054], [-61.4378088, 10.2557142], [-61.4375907, 10.2554484], [-61.4374453, 10.2550577], [-61.4377326, 10.2545067], [-61.4376931, 10.2543398], [-61.4370599, 10.2538228], [-61.4362614, 10.2541925], [-61.4359819, 10.2547536], [-61.4353311, 10.2550095], [-61.4347197, 10.2546594], [-61.4341332, 10.2540141], [-61.4336624, 10.2537589], [-61.432814, 10.2535234], [-61.4316711, 10.2526906], [-61.4309464, 10.2528563], [-61.4303192, 10.252642], [-61.4294862, 10.2527629], [-61.4289768, 10.2523655], [-61.4284572, 10.2521625], [-61.428194, 10.2517505], [-61.4281066, 10.2512698], [-61.4279828, 10.251031], [-61.4274735, 10.2504703], [-61.4271445, 10.2498176], [-61.4269919, 10.2492554], [-61.4268008, 10.2490944], [-61.425853, 10.2487568], [-61.4255054, 10.2488182], [-61.4250609, 10.2486522], [-61.4235328, 10.2484164], [-61.4230278, 10.2485009], [-61.4225399, 10.2483799], [-61.4221418, 10.2481554], [-61.4217621, 10.2477964], [-61.4213799, 10.2476503], [-61.4207811, 10.2477133], [-61.4204351, 10.2481107], [-61.41984, 10.2484734], [-61.4196637, 10.249164], [-61.419223, 10.2493913], [-61.4184135, 10.2490486], [-61.4180224, 10.248482], [-61.4171561, 10.2485305], [-61.4165732, 10.2481735], [-61.4161751, 10.2477173], [-61.4162604, 10.2472277], [-61.4163818, 10.2467724], [-61.4162295, 10.2464591], [-61.4159006, 10.2463467], [-61.4154692, 10.2463589], [-61.4149974, 10.2462395], [-61.4146329, 10.2467632], [-61.4143576, 10.2468732], [-61.413673, 10.246759], [-61.4130923, 10.2465147], [-61.4118111, 10.2460763], [-61.4109627, 10.2454941], [-61.410322, 10.2448526], [-61.4098966, 10.2446146], [-61.4096595, 10.2446491], [-61.4094408, 10.2449921], [-61.4092003, 10.2455492], [-61.4086754, 10.2455657], [-61.4086172, 10.2457749], [-61.4089409, 10.2465587], [-61.408455, 10.2473919], [-61.4070875, 10.2478958], [-61.4056698, 10.2479426], [-61.4051947, 10.2480789], [-61.4047277, 10.248402], [-61.404042, 10.2485497], [-61.4036426, 10.2486312], [-61.4034023, 10.2485643], [-61.4031715, 10.2483756], [-61.4026329, 10.2476611], [-61.4024575, 10.2475634], [-61.4014914, 10.2472351], [-61.4010944, 10.2470308], [-61.4009191, 10.2467568], [-61.4006492, 10.2465285], [-61.3999399, 10.2461422], [-61.399771, 10.2460437], [-61.3995873, 10.2460041], [-61.399435, 10.2460569], [-61.3991142, 10.2462062], [-61.3989312, 10.2461801], [-61.3987064, 10.2460307], [-61.3982819, 10.2458887], [-61.3979015, 10.2458023], [-61.3975696, 10.2457631], [-61.3972286, 10.2456213], [-61.3967977, 10.2454438], [-61.3962429, 10.245396], [-61.3956649, 10.2453558], [-61.3953711, 10.2451498], [-61.3952083, 10.2448301], [-61.3949788, 10.244628], [-61.394376, 10.244349], [-61.3938422, 10.2438333], [-61.3935848, 10.2436802], [-61.3930979, 10.2435726], [-61.391139, 10.2432474], [-61.391042, 10.2431747], [-61.3909999, 10.2430627], [-61.3911125, 10.2427944], [-61.3912684, 10.2425918], [-61.3913135, 10.2423477], [-61.3912038, 10.2418886], [-61.3910842, 10.2413051], [-61.3907329, 10.2406647], [-61.3903334, 10.2398945], [-61.3898432, 10.2392764], [-61.3896964, 10.2385521], [-61.3895878, 10.2383035], [-61.3890344, 10.2366429], [-61.3884369, 10.2355732], [-61.3878876, 10.2348895], [-61.3876146, 10.2346186], [-61.3872008, 10.2344245], [-61.3863143, 10.2341867], [-61.3859992, 10.2339908], [-61.3858048, 10.2338256], [-61.3852554, 10.233306], [-61.3844494, 10.232991], [-61.3812818, 10.2322638], [-61.3802492, 10.2317119], [-61.3794869, 10.2311277], [-61.3789732, 10.230871], [-61.3784358, 10.2309892], [-61.3781489, 10.230923], [-61.3780374, 10.2308151], [-61.3779784, 10.2305213], [-61.3778907, 10.2301577], [-61.3777094, 10.2299331], [-61.3770171, 10.2296831], [-61.3765382, 10.2297216], [-61.3763863, 10.2297891], [-61.3760337, 10.2301191], [-61.375495, 10.2301541], [-61.3750323, 10.2292153], [-61.3747819, 10.2289093], [-61.3742889, 10.2282606], [-61.3736638, 10.2275697], [-61.3735065, 10.2273119], [-61.3734148, 10.2270307], [-61.3733643, 10.2263991], [-61.3731867, 10.2259349], [-61.3730875, 10.225586], [-61.372982, 10.225126], [-61.3726186, 10.2248225], [-61.37245, 10.2244884], [-61.3723099, 10.2240885], [-61.3723305, 10.223605], [-61.3724963, 10.2232303], [-61.3727004, 10.2228678], [-61.3733548, 10.2224992], [-61.3734863, 10.222288], [-61.3736144, 10.2218675], [-61.3738883, 10.2216477], [-61.3740116, 10.2214509], [-61.3739592, 10.2211566], [-61.3736339, 10.2207519], [-61.3734447, 10.2204791], [-61.373413, 10.2202578], [-61.3736365, 10.2193659], [-61.3738383, 10.2190513], [-61.3741629, 10.2187813], [-61.3743355, 10.2185585], [-61.3742391, 10.2183844], [-61.3740935, 10.2181594], [-61.3739333, 10.2178054], [-61.3739647, 10.2169441], [-61.3737932, 10.2158823], [-61.373643, 10.2154262], [-61.3734346, 10.2151904], [-61.3728992, 10.2148122], [-61.3724955, 10.2144106], [-61.3722822, 10.2141033], [-61.372148, 10.2135614], [-61.3721206, 10.2128655], [-61.3721909, 10.2114142], [-61.3723144, 10.2109661], [-61.3725504, 10.2106952], [-61.3727106, 10.2104494], [-61.372802, 10.210165], [-61.3727748, 10.209859], [-61.3725783, 10.2095967], [-61.3721758, 10.2092386], [-61.3721809, 10.2089672], [-61.3722449, 10.2083698], [-61.375932, 10.2075027], [-61.3759281, 10.2057719], [-61.3758981, 10.2038288], [-61.3758383, 10.2013487], [-61.3758809, 10.1985692], [-61.3758121, 10.196981], [-61.3755374, 10.1948489], [-61.375575, 10.194285], [-61.3757194, 10.1937343], [-61.3759685, 10.193413], [-61.3766733, 10.1929038], [-61.3774058, 10.1923481], [-61.3777869, 10.192059], [-61.3777252, 10.1918261], [-61.3773719, 10.1915916], [-61.3763052, 10.1912329], [-61.3755285, 10.1910087], [-61.3752315, 10.190923], [-61.375016, 10.1903965], [-61.3758188, 10.1885572], [-61.3758363, 10.1872008], [-61.3853855, 10.187238], [-61.3851391, 10.0696102], [-61.3849363, 10.0694896], [-61.3846332, 10.0693892], [-61.3842952, 10.0694024], [-61.3838929, 10.0695926], [-61.3830024, 10.0701472], [-61.3808856, 10.0713241], [-61.3788986, 10.0719192], [-61.3783193, 10.0720644], [-61.377874, 10.0721621], [-61.377115, 10.0723232], [-61.3766938, 10.0723629], [-61.3762674, 10.0723629], [-61.3759482, 10.0723391], [-61.3755646, 10.0722572], [-61.3750443, 10.0721542], [-61.3734573, 10.0720916], [-61.3726188, 10.0720636], [-61.3720234, 10.0721635], [-61.3710041, 10.0715772], [-61.3702805, 10.071621], [-61.3694501, 10.0717985], [-61.3690917, 10.071668], [-61.3685252, 10.0716659], [-61.368191, 10.0713823], [-61.3671291, 10.0715574], [-61.3669454, 10.0715592], [-61.3666517, 10.0715231], [-61.3663271, 10.0714359], [-61.3659999, 10.0713488], [-61.3657397, 10.0713461], [-61.3653535, 10.071457], [-61.3651067, 10.0714834], [-61.3648117, 10.0714359], [-61.3645756, 10.0713514], [-61.3643476, 10.0712986], [-61.3641304, 10.0713118], [-61.3637495, 10.0714517], [-61.3635135, 10.0715019], [-61.3632238, 10.0714966], [-61.3625009, 10.0714227], [-61.3623212, 10.071428], [-61.3621764, 10.0714478], [-61.3620678, 10.0714887], [-61.3619551, 10.0715336], [-61.3617365, 10.071593], [-61.3615032, 10.0716247], [-61.3613221, 10.0716142], [-61.3608192, 10.0715204], [-61.3601741, 10.0714729], [-61.359635, 10.0714544], [-61.3590717, 10.0714834], [-61.3581249, 10.0716762], [-61.3573498, 10.0718928], [-61.3568857, 10.0720803], [-61.3566658, 10.0721357], [-61.3564593, 10.0721648], [-61.3562018, 10.0721463], [-61.3559738, 10.0721067], [-61.3556626, 10.072038], [-61.355204, 10.072009], [-61.3547426, 10.0720222], [-61.3540801, 10.0721701], [-61.3536027, 10.0723734], [-61.3526881, 10.0726481], [-61.3521811, 10.0727933], [-61.3516688, 10.072928], [-61.3512263, 10.0729386], [-61.3508253, 10.0728712], [-61.3505477, 10.0728342], [-61.3503425, 10.0727946], [-61.3500649, 10.0727577], [-61.3498905, 10.0727405], [-61.3496371, 10.0727484], [-61.3491395, 10.0728527], [-61.3489048, 10.0729306], [-61.3482263, 10.0730703], [-61.3471453, 10.0731258], [-61.3463589, 10.0732446], [-61.34543, 10.0734826], [-61.3441855, 10.0738787], [-61.3431823, 10.0741481], [-61.3424474, 10.0742167], [-61.3417769, 10.0741481], [-61.3411868, 10.0739262], [-61.3408005, 10.0738629], [-61.3403875, 10.0738998], [-61.3396633, 10.0741005], [-61.3393897, 10.0741111], [-61.3391188, 10.073987], [-61.3389069, 10.0737414], [-61.3387165, 10.073612], [-61.3384831, 10.0735829], [-61.3380459, 10.0736595], [-61.3375765, 10.0737519], [-61.3371447, 10.0738549], [-61.3368765, 10.0739289], [-61.3364688, 10.0740477], [-61.3360316, 10.0741639], [-61.335707, 10.0742273], [-61.3353691, 10.0742379], [-61.3351169, 10.0741956], [-61.3349238, 10.074119], [-61.3345268, 10.0739104], [-61.3342533, 10.073781], [-61.3340306, 10.0737387], [-61.3338375, 10.0737203], [-61.3336873, 10.073744], [-61.3334325, 10.0738813], [-61.3332018, 10.0740319], [-61.333006, 10.0740953], [-61.3328263, 10.0741243], [-61.3327244, 10.0741798], [-61.332601, 10.0743065], [-61.3325259, 10.0743884], [-61.3324025, 10.0744914], [-61.3320673, 10.0747819], [-61.3317776, 10.0750116], [-61.3315013, 10.0752123], [-61.3312358, 10.0754104], [-61.3307235, 10.0757194], [-61.3302809, 10.0760389], [-61.3294816, 10.0765565], [-61.3282263, 10.0772907], [-61.3275397, 10.0776525], [-61.3270676, 10.077906], [-61.3267806, 10.0780618], [-61.3265124, 10.0781701], [-61.3262844, 10.0782704], [-61.3259921, 10.0783787], [-61.3257507, 10.0784526], [-61.3254127, 10.0785371], [-61.325123, 10.0786164], [-61.3247475, 10.0787299], [-61.3244846, 10.0788276], [-61.3240582, 10.0789861], [-61.3237336, 10.079068], [-61.3234654, 10.0791076], [-61.3233447, 10.0791062], [-61.3232213, 10.0790812], [-61.3230175, 10.0789808], [-61.3228807, 10.0788461], [-61.3227117, 10.0786084], [-61.3225696, 10.0784764], [-61.3224247, 10.0784051], [-61.3223094, 10.0783761], [-61.3221592, 10.0783945], [-61.3218266, 10.0785002], [-61.3213867, 10.0787379], [-61.320625, 10.0790812], [-61.3195843, 10.0794905], [-61.3183826, 10.0798945], [-61.3175163, 10.0801586], [-61.3163093, 10.0804148], [-61.3158909, 10.0804332], [-61.3154081, 10.0804253], [-61.3151318, 10.080354], [-61.3147992, 10.0801639], [-61.3146865, 10.0800688], [-61.3146007, 10.0799368], [-61.3144827, 10.0796569], [-61.3143647, 10.0790336], [-61.3143003, 10.0788725], [-61.3141313, 10.0786665], [-61.3139677, 10.0786137], [-61.3138524, 10.0786454], [-61.3137585, 10.0786982], [-61.3130611, 10.0790838], [-61.3124362, 10.0794561], [-61.3119212, 10.0797783], [-61.3111112, 10.0801533], [-61.3104621, 10.0803144], [-61.3099766, 10.0803778], [-61.3096735, 10.080391], [-61.3093999, 10.0804412], [-61.3090807, 10.0805283], [-61.3087642, 10.080634], [-61.307804, 10.0810512], [-61.3059801, 10.0818223], [-61.3056207, 10.0819332], [-61.3054276, 10.0819887], [-61.3052183, 10.0820705], [-61.3049179, 10.0821999], [-61.3043547, 10.0824059], [-61.304132, 10.0824772], [-61.3037887, 10.0825934], [-61.3031504, 10.0828258], [-61.30274, 10.0829922], [-61.3024744, 10.0831057], [-61.3021848, 10.0832378], [-61.3018146, 10.083383], [-61.3014632, 10.0835256], [-61.301195, 10.0836207], [-61.3009107, 10.0837263], [-61.3005567, 10.0838663], [-61.3002187, 10.083993], [-61.2996608, 10.0842096], [-61.2990358, 10.0844235], [-61.2983573, 10.0846374], [-61.297853, 10.0847853], [-61.2973756, 10.0848909], [-61.2959459, 10.0852183], [-61.2942937, 10.0856726], [-61.2931484, 10.0859208], [-61.2922579, 10.086037], [-61.2917107, 10.0860555], [-61.2913835, 10.0859974], [-61.2911502, 10.085971], [-61.2909839, 10.085963], [-61.2906432, 10.0859683], [-61.2894738, 10.0860898], [-61.288358, 10.086272], [-61.2877437, 10.0863803], [-61.2863463, 10.0865783], [-61.2848657, 10.0866681], [-61.2823552, 10.0868107], [-61.2805232, 10.0868081], [-61.2792385, 10.0868134], [-61.278635, 10.086713], [-61.2779886, 10.0866074], [-61.2775621, 10.0865321], [-61.2774481, 10.0864793], [-61.277373, 10.0864107], [-61.2773421, 10.0863156], [-61.2773495, 10.0861934], [-61.2773602, 10.0860812], [-61.2773569, 10.0860621], [-61.2773435, 10.0860489], [-61.2773006, 10.086039], [-61.2772322, 10.0860297], [-61.2771285, 10.0860176], [-61.2770223, 10.085998], [-61.2768634, 10.0859723], [-61.2765509, 10.0858983], [-61.2760708, 10.0858587], [-61.2754874, 10.0858614], [-61.2747189, 10.0858759], [-61.2744896, 10.0858799], [-61.2742241, 10.0858165], [-61.2740242, 10.0857452], [-61.2738271, 10.085625], [-61.273638, 10.0855564], [-61.2734462, 10.085522], [-61.2732424, 10.0855379], [-61.2729929, 10.0855537], [-61.2727757, 10.085522], [-61.2725182, 10.0854296], [-61.2722781, 10.0853966], [-61.2720206, 10.0853966], [-61.2717028, 10.0854903], [-61.2713246, 10.08553], [-61.2710041, 10.0855616], [-61.2690809, 10.085728], [-61.2684292, 10.0857241], [-61.2677881, 10.0857584], [-61.2672409, 10.0857967], [-61.2670532, 10.0857756], [-61.266962, 10.0857465], [-61.2668815, 10.0856726], [-61.2668051, 10.0855418], [-61.2667508, 10.0854732], [-61.2666844, 10.0854283], [-61.2664738, 10.0853108], [-61.2664095, 10.0852395], [-61.2663907, 10.0851543], [-61.2664081, 10.085052], [-61.266504, 10.0848949], [-61.2665235, 10.0847628], [-61.266506, 10.0846783], [-61.2664511, 10.0845899], [-61.2663813, 10.084545], [-61.2662981, 10.0845357], [-61.2661158, 10.08457], [-61.2660112, 10.0845529], [-61.2659374, 10.0844961], [-61.2658194, 10.0843152], [-61.2657188, 10.0841581], [-61.2656531, 10.0839244], [-61.2656383, 10.0838716], [-61.2656236, 10.0838055], [-61.2656128, 10.0836418], [-61.2656021, 10.0835098], [-61.265586, 10.0834041], [-61.265578, 10.083346], [-61.2655632, 10.0832866], [-61.265527, 10.083148], [-61.2654794, 10.0830441], [-61.265352, 10.0828521], [-61.2650813, 10.0824333], [-61.2647599, 10.0820468], [-61.2644139, 10.0817748], [-61.264263, 10.0816975], [-61.2640759, 10.0816507], [-61.2638171, 10.0816705], [-61.2636186, 10.0816375], [-61.2635127, 10.0815926], [-61.2634121, 10.0814988], [-61.2633263, 10.0814526], [-61.2632391, 10.0814262], [-61.2630567, 10.0813919], [-61.2627348, 10.0813074], [-61.2625954, 10.0812783], [-61.262461, 10.081283], [-61.262244, 10.0813509], [-61.2617625, 10.0814856], [-61.2614433, 10.0815595], [-61.2611604, 10.0815688], [-61.2610531, 10.0815807], [-61.2609619, 10.0816058], [-61.2606923, 10.0816757], [-61.2603584, 10.0817629], [-61.2593244, 10.0819926], [-61.2587571, 10.0822039], [-61.2580812, 10.0824336], [-61.2574428, 10.0826753], [-61.2568501, 10.082905], [-61.2559354, 10.0831929], [-61.2547579, 10.0835784], [-61.2534785, 10.0839085], [-61.2523654, 10.0841356], [-61.2513649, 10.0843944], [-61.2508634, 10.0844552], [-61.2505549, 10.0844578], [-61.2502518, 10.0843627], [-61.2492648, 10.08389], [-61.2481275, 10.0833196], [-61.2474087, 10.0829235], [-61.2467703, 10.0824376], [-61.2466604, 10.0823293], [-61.2464511, 10.0822633], [-61.2461883, 10.0822211], [-61.2458235, 10.0820653], [-61.2454882, 10.0818698], [-61.2449089, 10.0814975], [-61.2446326, 10.0811053], [-61.2443858, 10.0808413], [-61.2441874, 10.0807264], [-61.2439902, 10.0807171], [-61.2436456, 10.0807501], [-61.2426746, 10.0807105], [-61.2418002, 10.0806709], [-61.2413201, 10.0805151], [-61.2408668, 10.0801533], [-61.2401989, 10.0797202], [-61.2397, 10.0794852], [-61.2389356, 10.0792396], [-61.238147, 10.078957], [-61.2374765, 10.07845], [-61.2369266, 10.0778558], [-61.2367952, 10.0777106], [-61.2366369, 10.0776432], [-61.2363969, 10.0776644], [-61.2361246, 10.0777211], [-61.235505, 10.0778188], [-61.2346146, 10.0778532], [-61.2340593, 10.0777], [-61.2334478, 10.077399], [-61.2329677, 10.077119], [-61.2326753, 10.0768734], [-61.2323722, 10.0766648], [-61.231986, 10.0765486], [-61.2315246, 10.0766173], [-61.2305912, 10.0769262], [-61.2302586, 10.0769975], [-61.2300669, 10.0769909], [-61.2299623, 10.0769236], [-61.2298872, 10.0768497], [-61.2298181, 10.0768133], [-61.2297128, 10.07681], [-61.229623, 10.0768153], [-61.2295076, 10.0768008], [-61.2293896, 10.0767533], [-61.2290919, 10.0766278], [-61.2287003, 10.0764073], [-61.2280673, 10.076163], [-61.2277105, 10.0759544], [-61.2274772, 10.0756666], [-61.2273082, 10.0755028], [-61.2269542, 10.0753193], [-61.2266806, 10.0752295], [-61.2262125, 10.0752255], [-61.2259524, 10.0752718], [-61.2256278, 10.0753615], [-61.2249465, 10.0755226], [-61.2242518, 10.0756956], [-61.2238535, 10.0757616], [-61.2235558, 10.0758092], [-61.2232688, 10.0758065], [-61.2227914, 10.0756824], [-61.2218902, 10.0752968], [-61.2209272, 10.0750248], [-61.2204498, 10.0748532], [-61.2201977, 10.074634], [-61.2197551, 10.073987], [-61.2193716, 10.073402], [-61.2192616, 10.0733188], [-61.2191261, 10.0732964], [-61.2186071, 10.0733796], [-61.2180573, 10.0735143], [-61.2171373, 10.0735407], [-61.2164158, 10.0733954], [-61.2150478, 10.0730468], [-61.2144899, 10.0729729], [-61.2142083, 10.0730125], [-61.213747, 10.0731472], [-61.2133554, 10.0731815], [-61.212827, 10.0731234], [-61.21243, 10.0730416], [-61.2118453, 10.0727933], [-61.2114537, 10.0726428], [-61.211282, 10.0725952], [-61.2109521, 10.0726533], [-61.2105444, 10.072825], [-61.2096539, 10.0731102], [-61.2090772, 10.0732819], [-61.2081331, 10.0734773], [-61.2073097, 10.0736727], [-61.2038255, 10.075178], [-61.2003386, 10.0769368], [-61.1981231, 10.0778769], [-61.1961812, 10.0786217], [-61.1936331, 10.0792555], [-61.1919916, 10.0795935], [-61.1906022, 10.0797255], [-61.1896741, 10.0796093], [-61.1888588, 10.0791974], [-61.188392, 10.0789306], [-61.188156, 10.0786322], [-61.1880997, 10.0782757], [-61.187979, 10.0774755], [-61.1878422, 10.07695], [-61.1877108, 10.0768391], [-61.1875525, 10.0768417], [-61.187, 10.0769896], [-61.1864662, 10.0771798], [-61.1860532, 10.0772326], [-61.1857018, 10.077156], [-61.1852512, 10.0770636], [-61.1847416, 10.0768312], [-61.1844224, 10.0767678], [-61.1838859, 10.0767995], [-61.1833549, 10.0769368], [-61.1827661, 10.0772233], [-61.1829438, 10.1071063], [-61.1830887, 10.1570872], [-61.1853641, 10.1595905], [-61.1852697, 10.2663233], [-61.1868766, 10.266294], [-61.1883215, 10.2666967], [-61.1905633, 10.2693065], [-61.1916877, 10.2720975], [-61.1939843, 10.2739242], [-61.1961664, 10.2741622], [-61.2013933, 10.2766243], [-61.2065865, 10.2783837], [-61.2157478, 10.2744591], [-61.2211217, 10.2724452], [-61.2212125, 10.2706718], [-61.2221515, 10.2675915], [-61.2286382, 10.2698845], [-61.2299368, 10.2748788], [-61.2297294, 10.2773629], [-61.2293726, 10.2784796], [-61.2289178, 10.2803389], [-61.2290125, 10.282867], [-61.2358563, 10.2822248], [-61.2365991, 10.2825165], [-61.2388662, 10.2815934], [-61.2442906, 10.2910423], [-61.2443463, 10.2913002], [-61.2455164, 10.2958941], [-61.2437626, 10.299029], [-61.2441119, 10.3033168], [-61.2420569, 10.305835], [-61.2432092, 10.3093934], [-61.2539629, 10.3165321], [-61.2627229, 10.3186624], [-61.268364, 10.3208749], [-61.2733345, 10.322308], [-61.2768754, 10.3285504], [-61.2849263, 10.3295982], [-61.2974361, 10.3333444], [-61.2999036, 10.3351365], [-61.2993171, 10.3369408], [-61.3001472, 10.3376431], [-61.3008285, 10.3377799], [-61.301938, 10.3377295], [-61.3033864, 10.3373395], [-61.3041845, 10.3368046], [-61.3048485, 10.3361512], [-61.3053043, 10.3360175], [-61.3065334, 10.3360381], [-61.3069907, 10.3357215], [-61.3076527, 10.3353344], [-61.3081421, 10.3351343], [-61.3086201, 10.3352638], [-61.3092452, 10.3353952], [-61.309821, 10.3352372], [-61.3103294, 10.3347376], [-61.3110857, 10.3344106], [-61.3123873, 10.3340927], [-61.3129664, 10.3337937], [-61.3129211, 10.3334776], [-61.3129806, 10.3328664], [-61.3133229, 10.3319909], [-61.3137655, 10.3315669], [-61.3147292, 10.3311028], [-61.3190063, 10.3311125], [-61.3201725, 10.3315895], [-61.320739, 10.3316678], [-61.3211356, 10.331912], [-61.3214224, 10.3322024], [-61.3217238, 10.332237], [-61.3221936, 10.332102], [-61.3224724, 10.3321478], [-61.3232909, 10.3322953], [-61.3256775, 10.3322753], [-61.3261968, 10.3325169], [-61.3266133, 10.3329487], [-61.3273994, 10.3331258], [-61.3280228, 10.3334315], [-61.3283244, 10.3339528], [-61.3291707, 10.3348368], [-61.3299246, 10.3353813], [-61.3306559, 10.3355005], [-61.3311588, 10.3352252], [-61.3321916, 10.3356228], [-61.3331275, 10.3357354], [-61.3336631, 10.3362453], [-61.3341072, 10.3367388], [-61.3352202, 10.3371418], [-61.3358041, 10.3372408], [-61.3367016, 10.3377913], [-61.3367746, 10.3388376], [-61.3374843, 10.3392164], [-61.3389746, 10.3397242], [-61.3395202, 10.3404838], [-61.3412321, 10.3409468], [-61.345356, 10.3389237], [-61.3629926, 10.3302714], [-61.3636007, 10.3299755], [-61.363488, 10.3293323], [-61.3684232, 10.3276801], [-61.3737523, 10.3262114], [-61.377159, 10.32607], [-61.3801851, 10.3238376], [-61.3818963, 10.3245153], [-61.3833798, 10.3260569], [-61.3843756, 10.3258706], [-61.3850372, 10.3265312], [-61.3857413, 10.3259298], [-61.3863143, 10.326662], [-61.386985, 10.3259064], [-61.3874311, 10.3263602], [-61.3873267, 10.3269333], [-61.3875866, 10.327718], [-61.3881807, 10.3277983], [-61.3880755, 10.3287562], [-61.3891775, 10.3287872], [-61.3898748, 10.3284668], [-61.3904512, 10.3285945], [-61.3901819, 10.3297462], [-61.3904759, 10.3297623], [-61.3909807, 10.3291944], [-61.3913957, 10.3300304], [-61.3921236, 10.3293125], [-61.3924551, 10.3296255], [-61.3932062, 10.3284701], [-61.3931752, 10.3278444], [-61.3937614, 10.3272116], [-61.3943472, 10.3279671], [-61.3949003, 10.326665], [-61.3963803, 10.32571], [-61.3972097, 10.324275], [-61.3977142, 10.3219963], [-61.3960818, 10.3192906], [-61.3968237, 10.3176089], [-61.3974711, 10.315735], [-61.4001853, 10.3153421], [-61.4013384, 10.3156051], [-61.4038974, 10.3143086], [-61.4068955, 10.3119881], [-61.4104478, 10.3105088], [-61.4127341, 10.3080637], [-61.4147441, 10.3089786], [-61.4145733, 10.3107723], [-61.4156197, 10.310233], [-61.4175736, 10.3106154], [-61.4177361, 10.3114096], [-61.4185867, 10.3115383], [-61.4192045, 10.3121858], [-61.418773, 10.3127946], [-61.4193209, 10.3137786], [-61.4201454, 10.3138558], [-61.4211312, 10.3144874], [-61.4215206, 10.3154873], [-61.4216902, 10.3161756], [-61.4220571, 10.3164897], [-61.4226643, 10.3162975], [-61.4229957, 10.316992], [-61.4236243, 10.3155991], [-61.4243916, 10.316266], [-61.4248443, 10.3161573], [-61.4252497, 10.3157611], [-61.4249701, 10.3148836], [-61.425612, 10.3144022], [-61.4264167, 10.3142702], [-61.4272442, 10.3147744], [-61.4278377, 10.3138327], [-61.4290775, 10.3136131], [-61.4299252, 10.3126456], [-61.4299358, 10.3112883], [-61.4311159, 10.3109716], [-61.4322961, 10.3119586], [-61.4325053, 10.3119005], [-61.4327758, 10.3119611], [-61.4328029, 10.3119672], [-61.4328871, 10.3115876], [-61.4330192, 10.3100883], [-61.4331372, 10.3085371], [-61.4333538, 10.3054084], [-61.4335871, 10.302196], [-61.4337826, 10.2995828], [-61.4338329, 10.2989088], [-61.4340558, 10.2975394], [-61.4344627, 10.2961849], [-61.4362473, 10.2929953], [-61.4372839, 10.2914802], [-61.4380763, 10.2906148], [-61.4383435, 10.290066], [-61.4390061, 10.2879094], [-61.4392775, 10.2858423], [-61.4390813, 10.2840415], [-61.4387307, 10.2829486], [-61.4374109, 10.2804188], [-61.4367739, 10.2790034], [-61.4366204, 10.2783274], [-61.4366511, 10.2780001], [-61.4376059, 10.2775384], [-61.438037, 10.2767098], [-61.4386274, 10.2763154], [-61.4393799, 10.2762022], [-61.4394104, 10.2752263], [-61.4390606, 10.2743447], [-61.438822, 10.2739491], [-61.4385393, 10.2726373], [-61.4382438, 10.2716819], [-61.4383175, 10.2713592], [-61.438345, 10.27085], [-61.4393031, 10.2701934], [-61.4398274, 10.269949], [-61.4405161, 10.2698981], [-61.4408161, 10.2697836], [-61.4409959, 10.2687961], [-61.4412853, 10.2674335], [-61.4418666, 10.266827], [-61.4429042, 10.2663278], [-61.443864, 10.265242], [-61.4448552, 10.2648109], [-61.445455, 10.2643885], [-61.4463102, 10.262707]]]}, "bbox": [-61.4463102, 10.0693892, -61.1827661, 10.3409468]}