{"type": "Feature", "properties": {"name": "San Fernando", "display_name": "San Fernando, Trinidad and Tobago", "osm_type": "relation", "osm_id": 7363416, "category": "boundary", "type": "administrative", "source": "OpenStreetMap / Nominatim", "license": "ODbL"}, "geometry": {"type": "MultiPolygon", "coordinates": [[[[-61.5018095, 10.2463147], [-61.5018035, 10.245889], [-61.5007062, 10.2460486], [-61.4978118, 10.2464938], [-61.4945125, 10.2470387], [-61.4906063, 10.2476643], [-61.489029, 10.2482534], [-61.4862791, 10.2502032], [-61.4831491, 10.2523886], [-61.4811818, 10.2538073], [-61.4791099, 10.2552394], [-61.478329, 10.2555062], [-61.4777817, 10.2557012], [-61.4757117, 10.2562556], [-61.4748194, 10.2564995], [-61.4720992, 10.2571337], [-61.470262, 10.2576035], [-61.4689912, 10.2579523], [-61.4669225, 10.2584369], [-61.4668442, 10.258457], [-61.4648177, 10.2589773], [-61.4634921, 10.2594195], [-61.4617493, 10.2600787], [-61.459286, 10.2611611], [-61.4589329, 10.2613734], [-61.4585431, 10.2618864], [-61.4583227, 10.2621705], [-61.4582416, 10.262131], [-61.4578219, 10.2620203], [-61.4573393, 10.262161], [-61.4572266, 10.2623051], [-61.4568709, 10.2624697], [-61.456611, 10.2624913], [-61.4562246, 10.2622917], [-61.456086, 10.261797], [-61.456032, 10.2614917], [-61.4557188, 10.261371], [-61.4552194, 10.2614799], [-61.454751, 10.2617153], [-61.4542644, 10.2615883], [-61.45326, 10.2614798], [-61.452527, 10.2615798], [-61.4518558, 10.2617493], [-61.4516064, 10.2621013], [-61.4512386, 10.26241], [-61.4485372, 10.2629849], [-61.4481709, 10.2628679], [-61.4475146, 10.262345], [-61.4469856, 10.2618898], [-61.4464073, 10.2614952], [-61.4463102, 10.262707], [-61.445455, 10.2643885], [-61.4448552, 10.2648109], [-61.443864, 10.265242], [-61.4429042, 10.2663278], [-61.4418666, 10.266827], [-61.4412853, 10.2674335], [-61.4409959, 10.2687961], [-61.4408161, 10.2697836], [-61.4405161, 10.2698981], [-61.4398274, 10.269949], [-61.4393031, 10.2701934], [-61.438345, 10.27085], [-61.4383175, 10.2713592], [-61.4382438, 10.2716819], [-61.4385393, 10.2726373], [-61.438822, 10.2739491], [-61.4390606, 10.2743447], [-61.4394104, 10.2752263], [-61.4393799, 10.2762022], [-61.4386274, 10.2763154], [-61.438037, 10.2767098], [-61.4376059, 10.2775384], [-61.4366511, 10.2780001], [-61.4366204, 10.2783274], [-61.4367739, 10.2790034], [-61.4374109, 10.2804188], [-61.4387307, 10.2829486], [-61.4390813, 10.2840415], [-61.4392775, 10.2858423], [-61.4390061, 10.2879094], [-61.4383435, 10.290066], [-61.4380763, 10.2906148], [-61.4372839, 10.2914802], [-61.4362473, 10.2929953], [-61.4344627, 10.2961849], [-61.4340558, 10.2975394], [-61.4338329, 10.2989088], [-61.4337826, 10.2995828], [-61.4335871, 10.302196], [-61.4333538, 10.3054084], [-61.4331372, 10.3085371], [-61.4330192, 10.3100883], [-61.4328871, 10.3115876], [-61.4328029, 10.3119672], [-61.4329291, 10.3119955], [-61.433326, 10.312175], [-61.433428, 10.3122911], [-61.4335031, 10.312423], [-61.4336156, 10.3124807], [-61.4336265, 10.3124863], [-61.433782, 10.3124758], [-61.4339215, 10.3124072], [-61.4340985, 10.3124072], [-61.4342326, 10.3125391], [-61.4342756, 10.3126447], [-61.4344848, 10.3126975], [-61.4346129, 10.3125615], [-61.4348227, 10.3123386], [-61.4350748, 10.3122752], [-61.4352787, 10.3122805], [-61.4354289, 10.312328], [-61.4355255, 10.3124283], [-61.435581, 10.3125574], [-61.4355845, 10.3125655], [-61.4357561, 10.31271], [-61.4358205, 10.3128715], [-61.4358473, 10.3130351], [-61.4358205, 10.3133624], [-61.4358768, 10.3138136], [-61.4360726, 10.3139694], [-61.4361625, 10.3139549], [-61.4364008, 10.3138153], [-61.436764, 10.3137576], [-61.4371992, 10.3138374], [-61.4374111, 10.3139114], [-61.4375049, 10.3141647], [-61.4375103, 10.3144761], [-61.4375747, 10.3146186], [-61.437788, 10.3146523], [-61.4379806, 10.3145337], [-61.4381904, 10.3141425], [-61.4384837, 10.3136481], [-61.4386529, 10.3134733], [-61.439007, 10.3133202], [-61.4393449, 10.3133149], [-61.4394924, 10.3132094], [-61.4395434, 10.3129666], [-61.43942, 10.3126394], [-61.43942, 10.3124283], [-61.439538, 10.3121592], [-61.4396614, 10.311905], [-61.4397311, 10.3117606], [-61.439943, 10.31137], [-61.4402059, 10.311209], [-61.4406699, 10.3111061], [-61.4411581, 10.3110825], [-61.4413351, 10.3111194], [-61.4415684, 10.3112038], [-61.4420003, 10.3112816], [-61.4424482, 10.3114505], [-61.4430691, 10.3117012], [-61.4432931, 10.3118674], [-61.4433628, 10.3120112], [-61.4434084, 10.3122039], [-61.4434876, 10.3124361], [-61.4436472, 10.3125338], [-61.4438028, 10.312518], [-61.4440227, 10.312328], [-61.444248, 10.3119374], [-61.4445725, 10.3117183], [-61.4450231, 10.3115732], [-61.4452297, 10.3115653], [-61.4455032, 10.3116075], [-61.4457869, 10.3116459], [-61.4459968, 10.3116208], [-61.4461738, 10.3114783], [-61.4467746, 10.3109769], [-61.447173, 10.3105032], [-61.4474553, 10.3101681], [-61.4476329, 10.3100743], [-61.4477617, 10.3098711], [-61.4478368, 10.3095967], [-61.4478394, 10.3093407], [-61.4480004, 10.309185], [-61.4481868, 10.3091164], [-61.4482914, 10.3091243], [-61.4483678, 10.3091494], [-61.4484108, 10.3091428], [-61.4484912, 10.3091032], [-61.4487889, 10.3087707], [-61.4491028, 10.3080872], [-61.4493039, 10.307855], [-61.4495078, 10.3077732], [-61.4497731, 10.3078049], [-61.4500628, 10.3079369], [-61.4506209, 10.3083722], [-61.4512083, 10.3086757], [-61.4517002, 10.3088961], [-61.4518825, 10.3089294], [-61.4522656, 10.3089477], [-61.4525679, 10.3089608], [-61.4529708, 10.3089727], [-61.4534899, 10.3089892], [-61.4538074, 10.308995], [-61.4541104, 10.3090623], [-61.4543599, 10.3091612], [-61.4544994, 10.3092615], [-61.4545799, 10.3093632], [-61.4546791, 10.3094753], [-61.45475, 10.3096107], [-61.4547794, 10.3097391], [-61.454832, 10.309974], [-61.4548465, 10.3100275], [-61.4549474, 10.3104038], [-61.4549672, 10.3104729], [-61.4549875, 10.3105289], [-61.455009, 10.3105862], [-61.4550653, 10.3106496], [-61.4552021, 10.3108633], [-61.4554274, 10.3110349], [-61.4557332, 10.3111589], [-61.4561489, 10.3111483], [-61.4566552, 10.3110582], [-61.4568222, 10.3110454], [-61.4569441, 10.311055], [-61.4570244, 10.3111657], [-61.4571492, 10.3112313], [-61.4573128, 10.3113199], [-61.4576885, 10.3115587], [-61.4579862, 10.3116656], [-61.4581324, 10.3116695], [-61.4582518, 10.3116537], [-61.4584127, 10.3116181], [-61.4586434, 10.3115072], [-61.4588926, 10.3114413], [-61.4601052, 10.3109141], [-61.4601318, 10.310903], [-61.4605321, 10.3107528], [-61.4606339, 10.3107151], [-61.4607364, 10.310676], [-61.4609484, 10.3105975], [-61.4613828, 10.3104339], [-61.4622373, 10.3101127], [-61.4632874, 10.3097221], [-61.4644957, 10.309263], [-61.4652884, 10.3089646], [-61.4652288, 10.3088027], [-61.4651649, 10.3085718], [-61.4650567, 10.3085072], [-61.4642096, 10.3079894], [-61.4641462, 10.3079473], [-61.4640895, 10.3079203], [-61.4634812, 10.307567], [-61.463288, 10.3074517], [-61.4631486, 10.3073685], [-61.4630863, 10.3073329], [-61.4630043, 10.3072824], [-61.4620943, 10.3068651], [-61.4616314, 10.3068425], [-61.4609888, 10.3068453], [-61.4604069, 10.3068216], [-61.4593654, 10.3068179], [-61.4586911, 10.3068385], [-61.4584191, 10.3067113], [-61.4582182, 10.3063268], [-61.4578778, 10.3059702], [-61.4576888, 10.3057901], [-61.4575874, 10.3055913], [-61.4576429, 10.3053522], [-61.4576533, 10.3051773], [-61.457675, 10.3050448], [-61.457596, 10.3049382], [-61.4574546, 10.3049734], [-61.4573628, 10.3050675], [-61.4572632, 10.3051406], [-61.4571118, 10.305092], [-61.4569992, 10.3049759], [-61.4569134, 10.3047965], [-61.4569777, 10.3045853], [-61.4572942, 10.3046012], [-61.4574707, 10.3044671], [-61.4574498, 10.3042898], [-61.4573635, 10.3042053], [-61.4572865, 10.3042287], [-61.457255, 10.3042863], [-61.4572381, 10.3043173], [-61.4571927, 10.3043677], [-61.45712, 10.3043524], [-61.4570595, 10.3042473], [-61.457119, 10.3041342], [-61.4569652, 10.3039008], [-61.456861, 10.3039289], [-61.4568141, 10.3038148], [-61.4568817, 10.3036683], [-61.4569331, 10.3036397], [-61.4569992, 10.3035562], [-61.457085, 10.3034717], [-61.4571816, 10.3034216], [-61.4572365, 10.3033188], [-61.4572701, 10.3032685], [-61.4572647, 10.3032025], [-61.457237, 10.3031365], [-61.4572269, 10.3030674], [-61.4572674, 10.3029386], [-61.4572808, 10.3028304], [-61.4572481, 10.302731], [-61.4571973, 10.3026803], [-61.4571812, 10.302643], [-61.4571065, 10.3026088], [-61.4570314, 10.3026088], [-61.4568624, 10.3025481], [-61.4567994, 10.3024834], [-61.4568047, 10.3023963], [-61.4568033, 10.3022182], [-61.4567162, 10.3020348], [-61.4566304, 10.3019609], [-61.4564574, 10.3019754], [-61.4563595, 10.3020262], [-61.4562837, 10.3020354], [-61.456214, 10.3020044], [-61.4561288, 10.3018619], [-61.4560363, 10.3014832], [-61.4559451, 10.3010465], [-61.4559491, 10.3008195], [-61.4560872, 10.3000569], [-61.456216, 10.2995528], [-61.456393, 10.2990699], [-61.4570032, 10.2977491], [-61.4572486, 10.2972279], [-61.4575651, 10.2967238], [-61.4576939, 10.2964758], [-61.4577824, 10.2963834], [-61.458001, 10.296225], [-61.4581297, 10.2960773], [-61.4581659, 10.2959809], [-61.4581767, 10.2958938], [-61.4582022, 10.2958305], [-61.4583202, 10.2956484], [-61.4585012, 10.295304], [-61.4586514, 10.295056], [-61.4588767, 10.2946957], [-61.4589062, 10.294577], [-61.4589062, 10.294449], [-61.4588459, 10.294284], [-61.4588352, 10.2942326], [-61.4588499, 10.2942022], [-61.4588928, 10.2942036], [-61.4589398, 10.2942379], [-61.4589934, 10.2942643], [-61.4590926, 10.2942471], [-61.4591651, 10.2941587], [-61.4592482, 10.2940056], [-61.4594239, 10.2937378], [-61.4595808, 10.2935755], [-61.4596894, 10.2934132], [-61.4597806, 10.2932086], [-61.4598584, 10.2930872], [-61.4599603, 10.2929395], [-61.4603077, 10.2924921], [-61.4605598, 10.2921319], [-61.4609923, 10.2917605], [-61.4613028, 10.2916839], [-61.4614704, 10.2917572], [-61.4615509, 10.2919129], [-61.4615777, 10.2921029], [-61.4616367, 10.2923958], [-61.4617708, 10.29257], [-61.4619747, 10.2927006], [-61.4620753, 10.2927349], [-61.4621946, 10.2927257], [-61.4623126, 10.2926769], [-61.4623998, 10.2926214], [-61.4624642, 10.2925739], [-61.4624881, 10.2924881], [-61.4624766, 10.2924205], [-61.4624722, 10.2923823], [-61.4624763, 10.2923516], [-61.462491, 10.2923315], [-61.4624957, 10.2923015], [-61.4624891, 10.2922758], [-61.4624332, 10.2921776], [-61.461928, 10.2914202], [-61.4619322, 10.2913453], [-61.4619402, 10.2912032], [-61.4620024, 10.2911084], [-61.4622414, 10.2909592], [-61.4622976, 10.2909231], [-61.4623287, 10.2909058], [-61.4628218, 10.2906041], [-61.4633912, 10.2902335], [-61.4636779, 10.2900879], [-61.4639364, 10.2899404], [-61.4642965, 10.2896521], [-61.4643927, 10.2895311], [-61.4645737, 10.289287], [-61.4647467, 10.289068], [-61.465829, 10.287722], [-61.4660342, 10.2875056], [-61.4662273, 10.2873552], [-61.4663541, 10.2872938], [-61.4665002, 10.2872965], [-61.4666558, 10.2873697], [-61.4668369, 10.2874502], [-61.4669569, 10.2874522], [-61.4671339, 10.2873816], [-61.4674303, 10.2872193], [-61.4675564, 10.2871526], [-61.4676978, 10.2871355], [-61.46784, 10.2871606], [-61.4679895, 10.2871256], [-61.468121, 10.287057], [-61.4682792, 10.2869897], [-61.4683624, 10.2869277], [-61.468526, 10.2868274], [-61.4686815, 10.2867561], [-61.4688183, 10.286607], [-61.4688693, 10.2864302], [-61.4688297, 10.2862765], [-61.468764, 10.2861458], [-61.4687003, 10.2860686], [-61.4686125, 10.2859466], [-61.4684998, 10.2858727], [-61.4683248, 10.2857618], [-61.4682329, 10.2856332], [-61.4681806, 10.2855217], [-61.4681344, 10.2854023], [-61.4681324, 10.285294], [-61.4681679, 10.2852083], [-61.4682376, 10.2850611], [-61.468977, 10.283908], [-61.4690836, 10.2837235], [-61.4691741, 10.2835752], [-61.469755, 10.2824253], [-61.4700716, 10.2817807], [-61.4700789, 10.2817681], [-61.4700854, 10.2817568], [-61.4701223, 10.2816937], [-61.4705256, 10.2809289], [-61.4708206, 10.2804433], [-61.4711277, 10.2800062], [-61.4711329, 10.2799975], [-61.4714751, 10.2795091], [-61.4717326, 10.2788044], [-61.4717546, 10.278238], [-61.4714973, 10.2772779], [-61.4709647, 10.2756295], [-61.4704797, 10.2736087], [-61.4705178, 10.2733999], [-61.4706984, 10.2732189], [-61.4715075, 10.272815], [-61.4719176, 10.2721676], [-61.4720011, 10.2719681], [-61.472037, 10.2717525], [-61.4720303, 10.2714727], [-61.47221, 10.2709423], [-61.4721966, 10.2704091], [-61.4722127, 10.2701874], [-61.4732641, 10.2689575], [-61.47382, 10.26838], [-61.4749408, 10.2673843], [-61.4752074, 10.2670507], [-61.475603, 10.2666073], [-61.4757022, 10.2664133], [-61.4757478, 10.2661652], [-61.4757827, 10.2658393], [-61.4758618, 10.2655212], [-61.4759463, 10.2652401], [-61.4760335, 10.2650448], [-61.4762776, 10.2646912], [-61.4764157, 10.2645856], [-61.4766517, 10.26448], [-61.4769977, 10.264385], [-61.477156, 10.2643283], [-61.4774242, 10.2641501], [-61.4780116, 10.2636605], [-61.4785454, 10.2631221], [-61.4788672, 10.262428], [-61.4790503, 10.2619879], [-61.4792803, 10.2614699], [-61.4794587, 10.2610899], [-61.479468, 10.2608946], [-61.4793393, 10.2606055], [-61.4792441, 10.2603759], [-61.4791904, 10.2602057], [-61.4791878, 10.2600513], [-61.4792159, 10.2598949], [-61.4792676, 10.2597636], [-61.479403, 10.2595063], [-61.4795465, 10.2592852], [-61.4796689, 10.2591724], [-61.4797614, 10.2591173], [-61.4799012, 10.2590589], [-61.4800823, 10.2590055], [-61.4804658, 10.2589032], [-61.4807622, 10.2587844], [-61.4811049, 10.2585878], [-61.4813313, 10.2584672], [-61.4814938, 10.2583806], [-61.4816837, 10.2582654], [-61.4817124, 10.258248], [-61.4820249, 10.2580553], [-61.4823394, 10.2578179], [-61.4823511, 10.2578105], [-61.4824272, 10.257766], [-61.4825804, 10.2576393], [-61.4829241, 10.2573143], [-61.4831856, 10.2570708], [-61.4833512, 10.2569316], [-61.4834793, 10.2567594], [-61.4835772, 10.256636], [-61.4837844, 10.256413], [-61.4838722, 10.2563803], [-61.4839651, 10.2564103], [-61.4841006, 10.2564935], [-61.4841904, 10.2565222], [-61.4842298, 10.2565133], [-61.4842695, 10.2564921], [-61.4842783, 10.2564789], [-61.4842764, 10.2564658], [-61.4842615, 10.2564397], [-61.4842464, 10.2563892], [-61.4842491, 10.256344], [-61.4842618, 10.2563008], [-61.4847051, 10.2559953], [-61.4848915, 10.2559372], [-61.4850859, 10.2558607], [-61.4852938, 10.2557894], [-61.4855171, 10.255668], [-61.4859013, 10.255319], [-61.4860737, 10.2551711], [-61.4861421, 10.2550491], [-61.4861474, 10.2549725], [-61.486128, 10.2548736], [-61.4861179, 10.2547944], [-61.4861474, 10.2547607], [-61.4862037, 10.2547145], [-61.486256, 10.2547099], [-61.4863291, 10.2547324], [-61.4863868, 10.2547627], [-61.48647, 10.2547568], [-61.486757, 10.2545588], [-61.4868468, 10.2544546], [-61.4869031, 10.2543068], [-61.4870574, 10.2541312], [-61.4879291, 10.253474], [-61.4883596, 10.2532207], [-61.4887492, 10.2529897], [-61.488957, 10.2528881], [-61.4891857, 10.2528538], [-61.4893225, 10.2528386], [-61.4894345, 10.252865], [-61.4895116, 10.2529013], [-61.4895843, 10.2529465], [-61.4896675, 10.2529825], [-61.4897503, 10.2530191], [-61.4900297, 10.2532375], [-61.4900769, 10.2532405], [-61.4900986, 10.2531953], [-61.4901137, 10.2530847], [-61.4901553, 10.2529455], [-61.490211, 10.2528723], [-61.4902653, 10.2528175], [-61.4903129, 10.2527647], [-61.4903726, 10.252669], [-61.4904812, 10.252506], [-61.4906059, 10.2523411], [-61.4907789, 10.2521873], [-61.4909837, 10.2521241], [-61.4912663, 10.2520964], [-61.4913775, 10.2520496], [-61.4914832, 10.2519882], [-61.4915943, 10.251934], [-61.4917137, 10.2518917], [-61.491888, 10.2518785], [-61.4920208, 10.2519234], [-61.4921656, 10.2519485], [-61.4924922, 10.2518911], [-61.4927772, 10.251833], [-61.4929284, 10.2517871], [-61.4929669, 10.2517548], [-61.4929683, 10.2517043], [-61.4929388, 10.2516515], [-61.4928892, 10.2516087], [-61.4928415, 10.2514912], [-61.4927913, 10.2513216], [-61.4927363, 10.2511006], [-61.4927195, 10.250931], [-61.4927691, 10.2507997], [-61.4928623, 10.2507146], [-61.4929334, 10.2507], [-61.4930286, 10.2507126], [-61.4931078, 10.2507825], [-61.4931701, 10.2509039], [-61.4932559, 10.2510742], [-61.4933015, 10.2511428], [-61.4933532, 10.251191], [-61.4933961, 10.2512477], [-61.4934457, 10.2513803], [-61.4935014, 10.251538], [-61.4936026, 10.2517386], [-61.4936303, 10.2517568], [-61.4936606, 10.2517561], [-61.4938775, 10.251644], [-61.4939097, 10.2516073], [-61.4939094, 10.2515542], [-61.4938863, 10.2514556], [-61.4938896, 10.2514021], [-61.4939138, 10.2513609], [-61.4939828, 10.2513249], [-61.494129, 10.2512629], [-61.4943147, 10.2511672], [-61.4945126, 10.2510755], [-61.4945421, 10.251057], [-61.4945646, 10.2510334], [-61.4945724, 10.2510044], [-61.4945515, 10.2509861], [-61.4945132, 10.2509798], [-61.4944033, 10.2509864], [-61.4943, 10.2509679], [-61.4941853, 10.2509086], [-61.4940465, 10.2507951], [-61.4939949, 10.2506684], [-61.4939922, 10.2505529], [-61.4940351, 10.2503642], [-61.4941645, 10.2501913], [-61.4943838, 10.2500415], [-61.4947258, 10.2498482], [-61.4949343, 10.2497228], [-61.4951375, 10.2495968], [-61.4953963, 10.2494648], [-61.4955331, 10.2494463], [-61.4957115, 10.2494371], [-61.4958818, 10.2494001], [-61.4975005, 10.2487931], [-61.497632, 10.2487931], [-61.4977133, 10.2488936], [-61.4977455, 10.2489072], [-61.4978499, 10.2488835], [-61.4979632, 10.2488373], [-61.4982663, 10.2487244], [-61.4986096, 10.2486004], [-61.4988356, 10.2485852], [-61.4990234, 10.2485813], [-61.4991394, 10.2486037], [-61.4993315, 10.2486614], [-61.4994495, 10.248672], [-61.4995618, 10.2486426], [-61.4996309, 10.2485931], [-61.4996825, 10.2485423], [-61.4997556, 10.2484942], [-61.499818, 10.2484678], [-61.4999132, 10.2484051], [-61.5000312, 10.2483404], [-61.5001801, 10.2482137], [-61.5003397, 10.2480092], [-61.5004389, 10.2477762], [-61.5004429, 10.2476119], [-61.5004416, 10.2473678], [-61.5004309, 10.2471817], [-61.5004362, 10.2471223], [-61.5004832, 10.2470511], [-61.500634, 10.2469092], [-61.5008721, 10.246729], [-61.5012503, 10.2465443], [-61.5018095, 10.2463147]]], [[[-61.4849363, 10.2756661], [-61.4849269, 10.2756431], [-61.4848977, 10.2755868], [-61.4848662, 10.2755742], [-61.4848662, 10.2755581], [-61.4848662, 10.2755443], [-61.4848499, 10.2755374], [-61.484846, 10.2755557], [-61.484844, 10.2755661], [-61.4848288, 10.2755776], [-61.484816, 10.2755891], [-61.4847915, 10.2755937], [-61.4847833, 10.2755776], [-61.4847658, 10.2755535], [-61.4847658, 10.2755386], [-61.484753, 10.2755363], [-61.4847343, 10.2755535], [-61.4847401, 10.2755753], [-61.4847541, 10.2755914], [-61.4847716, 10.2756064], [-61.4847587, 10.2756248], [-61.4847284, 10.2756546], [-61.4846911, 10.2756466], [-61.4846864, 10.2756684], [-61.4847296, 10.2756822], [-61.4847424, 10.275696], [-61.4847658, 10.2757327], [-61.484781, 10.2757545], [-61.4848253, 10.2757511], [-61.4848382, 10.2757454], [-61.4848417, 10.2757166], [-61.4848697, 10.2756879], [-61.4849187, 10.2756776], [-61.4849339, 10.2756787], [-61.4849363, 10.2756661]]]]}, "bbox": [-61.5018095, 10.245889, -61.4328029, 10.3146523]}