{"type": "Feature", "properties": {"name": "Santa Cruz", "display_name": "Santa Cruz, San Juan-Laventille, Trinidad and Tobago", "osm_type": "way", "osm_id": 386658867, "category": "place", "type": "village", "source": "OpenStreetMap / Nominatim", "license": "ODbL"}, "geometry": {"type": "Polygon", "coordinates": [[[-61.4883189, 10.7296819], [-61.4826836, 10.7265249], [-61.4840658, 10.7252148], [-61.4830088, 10.7242241], [-61.4810086, 10.7242082], [-61.4784717, 10.7232655], [-61.4778538, 10.7218274], [-61.4771383, 10.7212203], [-61.476065, 10.7224346], [-61.4752194, 10.7203095], [-61.4734143, 10.7190153], [-61.4735444, 10.7169381], [-61.4752682, 10.7160593], [-61.4759392, 10.7165767], [-61.4771645, 10.7164779], [-61.4779839, 10.7164748], [-61.4781953, 10.7166585], [-61.4782603, 10.7167464], [-61.4786506, 10.7174894], [-61.4790635, 10.7178864], [-61.4794393, 10.7182244], [-61.4798133, 10.7186079], [-61.4803724, 10.7188563], [-61.4806752, 10.7192869], [-61.4810086, 10.7195106], [-61.4815046, 10.7195825], [-61.4820168, 10.7195745], [-61.4827324, 10.7196864], [-61.4831877, 10.7196305], [-61.4832527, 10.719239], [-61.4827324, 10.7188236], [-61.4820087, 10.7183442], [-61.481903, 10.7179368], [-61.4816509, 10.7177211], [-61.4814233, 10.7176252], [-61.4811468, 10.7174255], [-61.481033, 10.7172577], [-61.481033, 10.7167704], [-61.4810655, 10.7164828], [-61.4810736, 10.7162031], [-61.4812525, 10.7160194], [-61.4816643, 10.7153852], [-61.4809622, 10.7128073], [-61.4827369, 10.7120622], [-61.4826938, 10.7115504], [-61.4826082, 10.7112662], [-61.4825323, 10.7107117], [-61.4823287, 10.7107344], [-61.4814817, 10.7110399], [-61.4809983, 10.7108606], [-61.4808004, 10.7108348], [-61.4806936, 10.7110346], [-61.4805204, 10.7110509], [-61.480452, 10.7108504], [-61.4803559, 10.7106285], [-61.4804252, 10.7104742], [-61.4797964, 10.7106814], [-61.4798342, 10.7108973], [-61.4796736, 10.7110641], [-61.4794587, 10.7111084], [-61.4786114, 10.7112984], [-61.478086, 10.7106501], [-61.4783644, 10.7104606], [-61.4785251, 10.7099867], [-61.4784607, 10.7098331], [-61.4781343, 10.7093584], [-61.4784827, 10.7090163], [-61.4787244, 10.7090949], [-61.4789397, 10.7090155], [-61.4788695, 10.708777], [-61.478612, 10.7073794], [-61.4780374, 10.7065861], [-61.4775391, 10.7071288], [-61.4770177, 10.7078728], [-61.4768997, 10.7068762], [-61.4766168, 10.7053908], [-61.4748162, 10.7046893], [-61.4732272, 10.7047098], [-61.4729799, 10.7043709], [-61.4724494, 10.704469], [-61.4726328, 10.7058904], [-61.4710755, 10.7062799], [-61.4703734, 10.7069853], [-61.4703867, 10.7080536], [-61.469935, 10.7082523], [-61.4689158, 10.7086951], [-61.4664079, 10.7081353], [-61.4657433, 10.7083598], [-61.4654977, 10.7100116], [-61.4665111, 10.7146344], [-61.4664993, 10.7157956], [-61.4673469, 10.7225137], [-61.467083, 10.7228795], [-61.4673501, 10.7233112], [-61.4675271, 10.7235463], [-61.4673979, 10.723746], [-61.4667692, 10.7241002], [-61.4660601, 10.7247241], [-61.4660364, 10.7252055], [-61.4671211, 10.7259292], [-61.4671605, 10.7263608], [-61.4671158, 10.7271767], [-61.4666284, 10.7273317], [-61.4668132, 10.7277731], [-61.4675967, 10.7277346], [-61.4677785, 10.7281528], [-61.4679714, 10.7282533], [-61.4680671, 10.7283592], [-61.4681168, 10.7284746], [-61.4680164, 10.7287105], [-61.467385, 10.7292921], [-61.467226, 10.7295266], [-61.4671546, 10.7297614], [-61.4667359, 10.7300982], [-61.4661528, 10.7306142], [-61.4662193, 10.731271], [-61.4667866, 10.7315047], [-61.4670079, 10.7316589], [-61.4678646, 10.73206], [-61.4692185, 10.7319298], [-61.4692218, 10.7322118], [-61.4690168, 10.7325175], [-61.4686167, 10.7326935], [-61.46846, 10.733171], [-61.4681961, 10.7336422], [-61.467577, 10.7336733], [-61.4674681, 10.7343326], [-61.4678088, 10.7343521], [-61.4679622, 10.7345166], [-61.4677063, 10.7349092], [-61.4673646, 10.7351765], [-61.4671586, 10.7354869], [-61.4672836, 10.7361188], [-61.4672568, 10.7364103], [-61.4675636, 10.7364656], [-61.4674789, 10.7369315], [-61.4671527, 10.7374127], [-61.4669145, 10.738373], [-61.4670363, 10.7387683], [-61.4678544, 10.7389449], [-61.4681457, 10.7383762], [-61.4694465, 10.7386935], [-61.4695597, 10.7380852], [-61.4686065, 10.7376583], [-61.4688971, 10.7365347], [-61.4702308, 10.7359744], [-61.4702689, 10.7341687], [-61.4710505, 10.7329243], [-61.4713804, 10.7333186], [-61.471441, 10.7338504], [-61.4713665, 10.7341498], [-61.4708933, 10.733842], [-61.4706702, 10.7341492], [-61.470807, 10.7344971], [-61.471433, 10.7346468], [-61.4717742, 10.7359417], [-61.4708284, 10.7365315], [-61.4715134, 10.7392195], [-61.4713761, 10.740273], [-61.4719512, 10.7409893], [-61.4726089, 10.7407157], [-61.4729093, 10.7394408], [-61.4720322, 10.7377959], [-61.4727242, 10.7376473], [-61.4732993, 10.7381032], [-61.4743845, 10.7387783], [-61.4760523, 10.7385232], [-61.4756762, 10.7376373], [-61.4750003, 10.7368372], [-61.4739757, 10.733433], [-61.4760721, 10.7319862], [-61.4769787, 10.7327573], [-61.478869, 10.7330516], [-61.4791588, 10.7330967], [-61.4810685, 10.7333186], [-61.4818346, 10.737427], [-61.483055, 10.7373516], [-61.4862227, 10.7354658], [-61.486147, 10.7347606], [-61.4846025, 10.7339225], [-61.4858384, 10.7309987], [-61.4877737, 10.7302907], [-61.4883189, 10.7296819]]]}, "bbox": [-61.4883189, 10.7043709, -61.4654977, 10.7409893]}