{"type": "Feature", "properties": {"name": "Siparia", "display_name": "Siparia, Trinidad and Tobago", "osm_type": "relation", "osm_id": 7363417, "category": "boundary", "type": "administrative", "source": "OpenStreetMap / Nominatim", "license": "ODbL"}, "geometry": {"type": "MultiPolygon", "coordinates": [[[[-62.0154447, 10.0774111], [-62.0154436, 10.0773758], [-62.0154147, 10.0773434], [-62.0153997, 10.0773041], [-62.0153605, 10.0772623], [-62.0152928, 10.077233], [-62.0152532, 10.0772359], [-62.0152291, 10.0771963], [-62.0152326, 10.0771608], [-62.0152879, 10.0771483], [-62.0153707, 10.0771439], [-62.0154132, 10.0771172], [-62.0154248, 10.0770649], [-62.015405, 10.0770188], [-62.0153873, 10.0769454], [-62.0153704, 10.0769059], [-62.0153419, 10.0768411], [-62.0153046, 10.076854], [-62.0152639, 10.0768177], [-62.0152049, 10.0767696], [-62.0151414, 10.0767445], [-62.0150324, 10.0767483], [-62.0149528, 10.0767936], [-62.01488, 10.0768413], [-62.014811, 10.0768939], [-62.0147684, 10.07685], [-62.0147375, 10.0768428], [-62.0147155, 10.076863], [-62.0147414, 10.076938], [-62.0147139, 10.0769867], [-62.0147019, 10.0770527], [-62.0146579, 10.0770741], [-62.0146349, 10.0771161], [-62.0145735, 10.0771274], [-62.0145179, 10.0771097], [-62.0144766, 10.0771418], [-62.0144469, 10.0771923], [-62.0143898, 10.0772336], [-62.0144248, 10.0772784], [-62.0144491, 10.0773056], [-62.0145047, 10.0773178], [-62.0145536, 10.077357], [-62.0145944, 10.0773594], [-62.0146072, 10.0773791], [-62.0144803, 10.0774324], [-62.0144943, 10.0774678], [-62.0145495, 10.0774869], [-62.0145906, 10.0774753], [-62.0146647, 10.0774893], [-62.0147148, 10.0775218], [-62.0147731, 10.0775396], [-62.0148231, 10.0775965], [-62.0149128, 10.0776396], [-62.0150324, 10.077638], [-62.015104, 10.0776097], [-62.0151523, 10.0775767], [-62.0152359, 10.0775769], [-62.0152619, 10.0775594], [-62.0153228, 10.077542], [-62.0153674, 10.0775133], [-62.0154189, 10.0774484], [-62.0154447, 10.0774111]]], [[[-62.0151935, 10.0776608], [-62.0151679, 10.0776332], [-62.0150885, 10.0776562], [-62.0150207, 10.0776631], [-62.0150126, 10.0776941], [-62.0150371, 10.0777183], [-62.0151562, 10.0777068], [-62.0151889, 10.0776953], [-62.0151935, 10.0776608]]], [[[-62.0149484, 10.0776734], [-62.0149227, 10.0776541], [-62.014884, 10.0776598], [-62.0148455, 10.077648], [-62.0148144, 10.0776783], [-62.0148158, 10.0777074], [-62.0148516, 10.0777397], [-62.0148908, 10.0777453], [-62.0149414, 10.0777133], [-62.0149484, 10.0776734]]], [[[-61.9309777, 10.0517], [-61.9309375, 10.0510952], [-61.9308329, 10.0505723], [-61.9306424, 10.0501233], [-61.9303689, 10.0496453], [-61.9297919, 10.0489207], [-61.9297466, 10.0488662], [-61.9297003, 10.0488122], [-61.929127, 10.048198], [-61.9279441, 10.0471099], [-61.9267023, 10.0462832], [-61.9251814, 10.0455807], [-61.9233725, 10.0449305], [-61.9233374, 10.0449098], [-61.9232872, 10.0448895], [-61.9228559, 10.0447065], [-61.9222766, 10.0445242], [-61.9212118, 10.0442813], [-61.9199495, 10.0438928], [-61.9196004, 10.0437853], [-61.9193576, 10.0437106], [-61.9192296, 10.0436712], [-61.9186181, 10.0435656], [-61.9179153, 10.0435127], [-61.9174003, 10.0434546], [-61.916678, 10.0433721], [-61.9162526, 10.0433128], [-61.9152129, 10.0432674], [-61.9141849, 10.0431311], [-61.9106515, 10.0428715], [-61.9102495, 10.042842], [-61.9096139, 10.0428709], [-61.9077657, 10.0429554], [-61.9065911, 10.0430188], [-61.906076, 10.0430638], [-61.9054699, 10.0430753], [-61.9053841, 10.0430769], [-61.9030451, 10.043283], [-61.9025409, 10.0432935], [-61.9023129, 10.0433885], [-61.901578, 10.0435444], [-61.9008136, 10.0437372], [-61.8979813, 10.044439], [-61.8977881, 10.0444899], [-61.8961465, 10.0450393], [-61.894725, 10.0457524], [-61.8929225, 10.0465975], [-61.8922221, 10.0469606], [-61.8907017, 10.047749], [-61.8885988, 10.0489269], [-61.8869466, 10.049883], [-61.8863728, 10.0502473], [-61.8860185, 10.0506885], [-61.8856242, 10.050847], [-61.8852916, 10.0510979], [-61.8842617, 10.0519034], [-61.88317, 10.05287], [-61.8823841, 10.053451], [-61.8808338, 10.0545893], [-61.8765928, 10.0576696], [-61.8751743, 10.0586829], [-61.8738386, 10.0596046], [-61.8716151, 10.0609303], [-61.8694773, 10.062124], [-61.8676374, 10.0632069], [-61.8662909, 10.0638354], [-61.8652797, 10.0643028], [-61.8646225, 10.0646039], [-61.8640191, 10.0648265], [-61.8636292, 10.065011], [-61.8634906, 10.0650766], [-61.8630373, 10.0650964], [-61.8628415, 10.0649763], [-61.8624312, 10.0651004], [-61.8617499, 10.0653486], [-61.8614039, 10.0652668], [-61.8607092, 10.0655124], [-61.860567, 10.0654411], [-61.8600574, 10.0656233], [-61.8594486, 10.0658636], [-61.8588799, 10.0658266], [-61.85855, 10.0657527], [-61.8581825, 10.0658425], [-61.8579986, 10.0657759], [-61.8574932, 10.0660009], [-61.8568763, 10.0662492], [-61.8558625, 10.0668777], [-61.8548046, 10.0675052], [-61.8537784, 10.0681084], [-61.8523335, 10.0690504], [-61.8521744, 10.0691542], [-61.8517294, 10.0693433], [-61.8511552, 10.0695873], [-61.8490737, 10.0709104], [-61.8485856, 10.0710899], [-61.8478882, 10.0712458], [-61.8469816, 10.0712695], [-61.8465745, 10.0714056], [-61.8460644, 10.0715812], [-61.8448789, 10.0720037], [-61.8444845, 10.0719535], [-61.8442914, 10.0720354], [-61.8438569, 10.0719562], [-61.8423414, 10.0735301], [-61.8405873, 10.0748083], [-61.8402756, 10.0749941], [-61.8387794, 10.0758857], [-61.8382624, 10.0762383], [-61.8366498, 10.0773382], [-61.8352872, 10.0781251], [-61.8349332, 10.0782546], [-61.8346596, 10.0784738], [-61.8341258, 10.0788382], [-61.8333346, 10.0791947], [-61.8330583, 10.0792396], [-61.8319854, 10.0797757], [-61.8316019, 10.080119], [-61.8310574, 10.0805679], [-61.8309857, 10.0805725], [-61.8309239, 10.080562], [-61.8308736, 10.0803672], [-61.830816, 10.0803435], [-61.8303547, 10.0804359], [-61.8289458, 10.0811828], [-61.8286078, 10.081362], [-61.8276, 10.0818962], [-61.8261677, 10.0824772], [-61.8254274, 10.0828153], [-61.8249285, 10.0829737], [-61.8244296, 10.083317], [-61.8228139, 10.0838819], [-61.8216348, 10.0842941], [-61.8214629, 10.0843579], [-61.8212412, 10.0844402], [-61.8201014, 10.0848632], [-61.8192583, 10.0851761], [-61.8168444, 10.0858627], [-61.8151615, 10.0862092], [-61.8126119, 10.0867341], [-61.811844, 10.0868588], [-61.81001, 10.0871566], [-61.8098379, 10.0871861], [-61.8089238, 10.087343], [-61.8084705, 10.0874208], [-61.807344, 10.0875317], [-61.8063382, 10.0875765], [-61.8044364, 10.0875475], [-61.8037766, 10.0875422], [-61.8036286, 10.0875299], [-61.8025053, 10.0874366], [-61.801663, 10.0874102], [-61.8010665, 10.0874096], [-61.8004963, 10.087294], [-61.7998311, 10.0873944], [-61.7998526, 10.0871804], [-61.8000376, 10.087018], [-61.8000484, 10.0869111], [-61.7993563, 10.0869216], [-61.7981574, 10.0870088], [-61.7979911, 10.0869903], [-61.79781, 10.0869784], [-61.7972865, 10.0872003], [-61.7973447, 10.0870458], [-61.7973259, 10.0869335], [-61.796591, 10.0868649], [-61.795899, 10.0866047], [-61.7953639, 10.0865229], [-61.7949079, 10.0864753], [-61.7945552, 10.0863539], [-61.7942977, 10.0861875], [-61.7942199, 10.0862271], [-61.7940053, 10.0861479], [-61.7937747, 10.086066], [-61.7936862, 10.0859393], [-61.7932114, 10.0858204], [-61.7930156, 10.0857359], [-61.7929056, 10.0856963], [-61.7927635, 10.0856197], [-61.7924792, 10.0855986], [-61.7921627, 10.0853477], [-61.7918542, 10.0852183], [-61.7916477, 10.0850784], [-61.7914313, 10.0848193], [-61.7913499, 10.0847219], [-61.7911582, 10.0846365], [-61.791133, 10.0846253], [-61.7910049, 10.0845683], [-61.7909639, 10.0845501], [-61.790789, 10.0844723], [-61.7907538, 10.0844566], [-61.7907108, 10.0844314], [-61.7906258, 10.0842941], [-61.7902851, 10.0840379], [-61.7900786, 10.0839112], [-61.7899445, 10.083824], [-61.7899042, 10.0837158], [-61.7885739, 10.0826938], [-61.7885953, 10.0825908], [-61.7879945, 10.0821286], [-61.7861733, 10.0805759], [-61.7854357, 10.0800133], [-61.785205, 10.0798655], [-61.7851272, 10.0796938], [-61.7845532, 10.0792977], [-61.7842904, 10.079163], [-61.7839122, 10.0788303], [-61.7835715, 10.0785583], [-61.7832497, 10.0783496], [-61.7830378, 10.0781252], [-61.7829949, 10.0777792], [-61.782842, 10.0775257], [-61.7827481, 10.077362], [-61.7825416, 10.0772326], [-61.7822707, 10.0770953], [-61.7816028, 10.0766093], [-61.781466, 10.0765169], [-61.7812085, 10.0760997], [-61.7810368, 10.0757511], [-61.7806372, 10.0753893], [-61.7804012, 10.0753259], [-61.7799969, 10.0754254], [-61.7799935, 10.0754262], [-61.7796912, 10.0755869], [-61.7796904, 10.0755873], [-61.7790145, 10.075862], [-61.7777739, 10.0765803], [-61.7773917, 10.0767044], [-61.7763859, 10.0772247], [-61.7745017, 10.0781621], [-61.7719603, 10.0792713], [-61.7704153, 10.0800186], [-61.7694135, 10.0803963], [-61.7656758, 10.0819887], [-61.7640933, 10.0826357], [-61.7635891, 10.0828126], [-61.7627549, 10.0831031], [-61.7615747, 10.0834886], [-61.7605823, 10.0838082], [-61.7591661, 10.0841356], [-61.7578881, 10.0844248], [-61.756795, 10.0846506], [-61.7560762, 10.084883], [-61.7553359, 10.0849833], [-61.7544696, 10.0850863], [-61.7536488, 10.0851708], [-61.7530373, 10.0853372], [-61.7523345, 10.0854402], [-61.7515996, 10.0855194], [-61.7509478, 10.0854375], [-61.7500265, 10.0852038], [-61.7489896, 10.0848813], [-61.7481127, 10.0844842], [-61.7473537, 10.0842624], [-61.7464605, 10.084339], [-61.7457444, 10.0843839], [-61.74487, 10.0845819], [-61.7442316, 10.0847536], [-61.7440304, 10.0848302], [-61.7437419, 10.0848779], [-61.7430882, 10.0849862], [-61.741543, 10.0854824], [-61.741387, 10.0855497], [-61.7412325, 10.0855936], [-61.7412087, 10.0855803], [-61.7409673, 10.0856171], [-61.7407125, 10.0855669], [-61.7401895, 10.0857677], [-61.7381801, 10.0862208], [-61.7380464, 10.0862509], [-61.7369684, 10.0865072], [-61.7365685, 10.0866022], [-61.7348707, 10.0868793], [-61.7347928, 10.0868588], [-61.7346507, 10.0868213], [-61.7337714, 10.0871023], [-61.7337254, 10.0871171], [-61.7319618, 10.0873357], [-61.7315746, 10.0873753], [-61.731333, 10.0874], [-61.7309364, 10.0874545], [-61.7307133, 10.0874501], [-61.7306595, 10.087449], [-61.7304977, 10.0874265], [-61.7301921, 10.0874332], [-61.7299527, 10.087398], [-61.7297911, 10.0874024], [-61.7292125, 10.0873362], [-61.7291277, 10.0873264], [-61.7289162, 10.0873149], [-61.7288062, 10.0873296], [-61.7273632, 10.0874432], [-61.725833, 10.0875673], [-61.7252992, 10.0875184], [-61.7245106, 10.0874419], [-61.7239447, 10.0872768], [-61.7238542, 10.0872665], [-61.7236497, 10.0871646], [-61.7234176, 10.0871237], [-61.7232513, 10.0869401], [-61.7231588, 10.0869309], [-61.7230757, 10.0869612], [-61.7226318, 10.0869058], [-61.7222911, 10.0867434], [-61.7221221, 10.0866193], [-61.7220759, 10.0865836], [-61.7218727, 10.0864173], [-61.7217225, 10.0863261], [-61.7216179, 10.0862509], [-61.7215347, 10.0861895], [-61.7212813, 10.0860555], [-61.7210332, 10.0860145], [-61.7202768, 10.0861875], [-61.719456, 10.0862522], [-61.7190577, 10.086202], [-61.7188968, 10.0861532], [-61.7180385, 10.0858865], [-61.7170836, 10.0856277], [-61.7169066, 10.0855669], [-61.7158538, 10.0857742], [-61.7157251, 10.0858204], [-61.7155735, 10.0858614], [-61.715316, 10.085934], [-61.7150988, 10.085934], [-61.7150125, 10.0859146], [-61.7146841, 10.0858803], [-61.714634, 10.0858723], [-61.7143249, 10.0858231], [-61.7139682, 10.0857663], [-61.7137246, 10.0857461], [-61.7136343, 10.0857386], [-61.7133513, 10.0856897], [-61.7130442, 10.0855538], [-61.7127532, 10.0855629], [-61.7124353, 10.0855194], [-61.7123898, 10.0855047], [-61.7120129, 10.0853834], [-61.7116964, 10.0853438], [-61.7115529, 10.0853213], [-61.711341, 10.0853728], [-61.7110674, 10.0854323], [-61.7108703, 10.0854969], [-61.7105953, 10.0855788], [-61.7102131, 10.0857175], [-61.7099489, 10.0857848], [-61.7092314, 10.0858732], [-61.7084402, 10.0860079], [-61.7081291, 10.0859498], [-61.7073056, 10.0861769], [-61.706627, 10.0863565], [-61.7059296, 10.0864146], [-61.7052886, 10.0864067], [-61.7047924, 10.0864728], [-61.7043739, 10.0865414], [-61.7034459, 10.0865717], [-61.70209, 10.0867064], [-61.7007959, 10.0868358], [-61.700702, 10.0867434], [-61.7004432, 10.0867738], [-61.6997391, 10.0867936], [-61.6993757, 10.0869031], [-61.699271, 10.0869678], [-61.6984342, 10.0869639], [-61.6978857, 10.086993], [-61.6971856, 10.0870088], [-61.6963783, 10.0870141], [-61.6954449, 10.0870748], [-61.694954, 10.0870404], [-61.6945651, 10.0869876], [-61.6941172, 10.0868398], [-61.6936344, 10.0866206], [-61.6932455, 10.0863908], [-61.6930765, 10.0863539], [-61.6926849, 10.0863063], [-61.6922879, 10.0861532], [-61.6919071, 10.0858997], [-61.6916764, 10.0858733], [-61.6915564, 10.0858369], [-61.6914658, 10.0857855], [-61.6913371, 10.0857307], [-61.6911735, 10.0856528], [-61.6911869, 10.0856039], [-61.6911601, 10.0856197], [-61.6911347, 10.0856674], [-61.6908784, 10.0855874], [-61.6908738, 10.0855845], [-61.6907149, 10.0854834], [-61.6905083, 10.0854785], [-61.6901247, 10.0854098], [-61.6899987, 10.0853926], [-61.6899142, 10.0853451], [-61.6895561, 10.0853544], [-61.6892879, 10.0853095], [-61.6890546, 10.085225], [-61.6888762, 10.0850956], [-61.6887514, 10.0849926], [-61.6886415, 10.0849107], [-61.6883277, 10.084648], [-61.6881828, 10.0845225], [-61.6881037, 10.0843271], [-61.6880648, 10.0841858], [-61.6880165, 10.084063], [-61.6878515, 10.0840049], [-61.6877644, 10.0839917], [-61.6875927, 10.0838782], [-61.6874707, 10.0837382], [-61.6873781, 10.083614], [-61.6873124, 10.0832893], [-61.687193, 10.0831058], [-61.6872105, 10.0829657], [-61.6869932, 10.0828047], [-61.6867948, 10.0828046], [-61.6865292, 10.0826885], [-61.6862355, 10.0825723], [-61.686261, 10.0824547], [-61.6861866, 10.0824202], [-61.6861416, 10.0823993], [-61.6860505, 10.0824878], [-61.6858131, 10.0825261], [-61.685506, 10.0825604], [-61.6852257, 10.0825301], [-61.6843473, 10.0826304], [-61.6838323, 10.0825815], [-61.6831014, 10.0826766], [-61.682864, 10.082674], [-61.6827339, 10.0826264], [-61.6819159, 10.0826515], [-61.6813378, 10.0827149], [-61.680505, 10.0827386], [-61.6795957, 10.0826938], [-61.679239, 10.0826331], [-61.6786569, 10.0825855], [-61.6775384, 10.0824772], [-61.6764119, 10.0822871], [-61.6758433, 10.0821497], [-61.675441, 10.0821418], [-61.6745693, 10.0819754], [-61.6739712, 10.0819095], [-61.6734293, 10.081714], [-61.6728607, 10.0814843], [-61.6725844, 10.0813179], [-61.6722129, 10.0812043], [-61.6715786, 10.0809231], [-61.6711512, 10.0806689], [-61.6709, 10.0805679], [-61.6705647, 10.0804781], [-61.6701785, 10.0803118], [-61.6698727, 10.0801586], [-61.6696286, 10.0800028], [-61.6693899, 10.0799289], [-61.6690519, 10.079847], [-61.6687489, 10.0797097], [-61.6683385, 10.0794377], [-61.6678423, 10.0790759], [-61.6674212, 10.078788], [-61.6671476, 10.0786269], [-61.6665441, 10.0783998], [-61.6663161, 10.0782836], [-61.6660398, 10.0780724], [-61.6657341, 10.0779033], [-61.6656447, 10.0778561], [-61.6655141, 10.0777872], [-61.6652981, 10.0776591], [-61.6650635, 10.0775178], [-61.6650474, 10.0774201], [-61.6649562, 10.0773646], [-61.6647872, 10.0772563], [-61.6647229, 10.0770953], [-61.664468, 10.0769632], [-61.6641113, 10.0765988], [-61.6637787, 10.0762581], [-61.6635964, 10.0759412], [-61.6635776, 10.0757088], [-61.6629178, 10.0750196], [-61.6624349, 10.0744834], [-61.6621104, 10.0740424], [-61.6618167, 10.0733796], [-61.6614908, 10.0727828], [-61.6614144, 10.0725002], [-61.6611448, 10.0722136], [-61.6609517, 10.0720024], [-61.6608229, 10.0718413], [-61.660721, 10.0717277], [-61.660371, 10.0714187], [-61.6601805, 10.0710807], [-61.6601698, 10.0709289], [-61.6600826, 10.0708114], [-61.659797, 10.0705684], [-61.6596213, 10.0704139], [-61.6592404, 10.0700838], [-61.659121, 10.0700269], [-61.6589266, 10.0698672], [-61.6587549, 10.0696625], [-61.6586938, 10.0696337], [-61.6585618, 10.0695714], [-61.6584063, 10.069413], [-61.6582426, 10.0692083], [-61.658181, 10.0690934], [-61.658063, 10.0689957], [-61.6580486, 10.0689582], [-61.6580321, 10.0689152], [-61.6577451, 10.0686194], [-61.657619, 10.0685772], [-61.6575453, 10.0686722], [-61.6573119, 10.0685468], [-61.6570732, 10.0682748], [-61.6565609, 10.0680608], [-61.6563222, 10.0680265], [-61.6560647, 10.0679314], [-61.6559574, 10.0677519], [-61.6558582, 10.0676159], [-61.655815, 10.0675526], [-61.6557482, 10.0674548], [-61.6556295, 10.0673243], [-61.6552694, 10.0671867], [-61.65491, 10.0670401], [-61.6546167, 10.0668762], [-61.6543038, 10.0666466], [-61.6539592, 10.0665106], [-61.653652, 10.0663086], [-61.6535086, 10.0661528], [-61.6533234, 10.0660063], [-61.6531196, 10.0657342], [-61.6529775, 10.0654701], [-61.6528648, 10.0651162], [-61.6527817, 10.0647914], [-61.6527737, 10.0644771], [-61.6527521, 10.064176], [-61.6526878, 10.0638618], [-61.6525376, 10.0635026], [-61.6523713, 10.0630431], [-61.6524249, 10.0629652], [-61.6523485, 10.0628067], [-61.6522399, 10.0625756], [-61.6521447, 10.0625149], [-61.6519971, 10.0622508], [-61.6518966, 10.0620977], [-61.6517906, 10.0617384], [-61.6516672, 10.0616605], [-61.6515961, 10.0615457], [-61.651281, 10.0610373], [-61.6511885, 10.0609792], [-61.6510972, 10.0609237], [-61.6509524, 10.0607085], [-61.6508063, 10.0607005], [-61.6505929, 10.0606464], [-61.6503757, 10.0606306], [-61.6501759, 10.0605843], [-61.6499962, 10.0605923], [-61.6497736, 10.0606081], [-61.6495617, 10.0605843], [-61.6494222, 10.0605447], [-61.6493042, 10.0605156], [-61.6491191, 10.0605302], [-61.6488965, 10.0605619], [-61.6486041, 10.0605976], [-61.6483252, 10.0606002], [-61.6481374, 10.0606081], [-61.6478531, 10.0605791], [-61.6475983, 10.0605038], [-61.6474803, 10.0604022], [-61.6473341, 10.0603982], [-61.6472228, 10.0603506], [-61.6471906, 10.0602688], [-61.6471396, 10.0602133], [-61.6470793, 10.0602674], [-61.6469908, 10.0602384], [-61.6469586, 10.0601526], [-61.6468365, 10.0601103], [-61.6467333, 10.0601248], [-61.6466274, 10.0599809], [-61.6464892, 10.0599281], [-61.6462237, 10.0598409], [-61.6460735, 10.0597854], [-61.6459863, 10.0596917], [-61.645883, 10.0595729], [-61.645816, 10.0594369], [-61.6458106, 10.0593233], [-61.6458173, 10.0592123], [-61.6457677, 10.0590618], [-61.6456658, 10.0589416], [-61.6455049, 10.0588189], [-61.6451333, 10.0586974], [-61.6450475, 10.0586102], [-61.6448692, 10.0585534], [-61.6447766, 10.0585706], [-61.6445258, 10.058667], [-61.6442697, 10.0587687], [-61.6437721, 10.0589879], [-61.6432854, 10.0592732], [-61.6427824, 10.0594989], [-61.6424176, 10.0596811], [-61.6418168, 10.0599373], [-61.6407493, 10.0602806], [-61.6396428, 10.0606583], [-61.6394323, 10.0607204], [-61.63916, 10.0607217], [-61.6390839, 10.060727], [-61.6390072, 10.0607323], [-61.6389146, 10.0607824], [-61.6387738, 10.060793], [-61.6387591, 10.0606768], [-61.6381355, 10.0607587], [-61.6378216, 10.0608273], [-61.6377318, 10.0607282], [-61.6376903, 10.0606728], [-61.6376147, 10.0606992], [-61.6374716, 10.0607494], [-61.6372343, 10.0608234], [-61.6368333, 10.0608907], [-61.6362096, 10.0609303], [-61.6357953, 10.0609053], [-61.6357509, 10.0608431], [-61.6357818, 10.0605606], [-61.635728, 10.0605174], [-61.6357068, 10.0604986], [-61.6355136, 10.0605289], [-61.6354331, 10.0605395], [-61.6349302, 10.0605434], [-61.634615, 10.0605501], [-61.6343763, 10.0605289], [-61.6341899, 10.0605157], [-61.6338426, 10.0604087], [-61.6336079, 10.0603414], [-61.6334617, 10.0602569], [-61.6333705, 10.0601302], [-61.6332284, 10.0599994], [-61.6330835, 10.0598634], [-61.6330004, 10.0598238], [-61.6329776, 10.059726], [-61.6328985, 10.0597261], [-61.6329105, 10.0596376], [-61.632873, 10.0595623], [-61.6327858, 10.0595504], [-61.6326986, 10.0594104], [-61.6327161, 10.0593642], [-61.6326329, 10.0592387], [-61.6325095, 10.0591833], [-61.6324693, 10.0590658], [-61.6323311, 10.0590223], [-61.6322654, 10.0588241], [-61.6322131, 10.05877], [-61.6321059, 10.0585733], [-61.6320469, 10.0584835], [-61.632004, 10.0585204], [-61.6318739, 10.0585258], [-61.6316512, 10.0585403], [-61.6315265, 10.0584835], [-61.631375, 10.0585046], [-61.6312073, 10.0584201], [-61.6310745, 10.0584386], [-61.630982, 10.0584175], [-61.6308627, 10.0584056], [-61.6307125, 10.0583501], [-61.6304013, 10.0582986], [-61.6302216, 10.0581797], [-61.6301438, 10.058016], [-61.6300808, 10.0578351], [-61.6300098, 10.0577294], [-61.6300298, 10.0576555], [-61.6300097, 10.0575974], [-61.6299346, 10.0575604], [-61.629779, 10.0575129], [-61.6297388, 10.0575724], [-61.6295081, 10.0575063], [-61.6293928, 10.0573571], [-61.6294196, 10.0572858], [-61.6293069, 10.0572211], [-61.6292212, 10.0571352], [-61.629083, 10.0570481], [-61.6287477, 10.057023], [-61.6285398, 10.0570296], [-61.6284366, 10.0570877], [-61.6283856, 10.057093], [-61.6283494, 10.0570494], [-61.6283186, 10.0570679], [-61.6282951, 10.0571102], [-61.6281241, 10.0571128], [-61.6278894, 10.0570533], [-61.6276896, 10.0569477], [-61.6275609, 10.0568619], [-61.6274401, 10.0567312], [-61.6273905, 10.0566348], [-61.6273342, 10.0565186], [-61.6272913, 10.0564605], [-61.6272081, 10.0564354], [-61.6270727, 10.0564988], [-61.6268501, 10.0566268], [-61.6267615, 10.0566295], [-61.6265805, 10.056681], [-61.626378, 10.0567761], [-61.6261956, 10.0568157], [-61.6260374, 10.0568289], [-61.6258416, 10.056813], [-61.6257584, 10.056784], [-61.6256779, 10.0567602], [-61.6256028, 10.0567708], [-61.6255358, 10.0568104], [-61.6254339, 10.0568817], [-61.625112, 10.0571141], [-61.6246802, 10.0574257], [-61.6242725, 10.0577638], [-61.6236824, 10.0583078], [-61.6231996, 10.0586881], [-61.6227973, 10.0589839], [-61.6223896, 10.0592427], [-61.6220892, 10.0593589], [-61.6216493, 10.059454], [-61.6213864, 10.0595227], [-61.6207025, 10.0597128], [-61.6204852, 10.0597604], [-61.620217, 10.0598026], [-61.6200292, 10.0598396], [-61.6197556, 10.0599611], [-61.6190958, 10.0603255], [-61.6187418, 10.0605263], [-61.6182214, 10.0608643], [-61.6176635, 10.0612604], [-61.6169125, 10.06172], [-61.6162473, 10.0621689], [-61.6153139, 10.062713], [-61.6136724, 10.0636003], [-61.612401, 10.0643662], [-61.6114354, 10.064905], [-61.6108507, 10.0651057], [-61.6105018, 10.0651795], [-61.6102767, 10.0652271], [-61.6098905, 10.0652536], [-61.6097694, 10.0652565], [-61.6096705, 10.0652588], [-61.6095222, 10.065291], [-61.6094571, 10.0653051], [-61.609354, 10.0653275], [-61.6088659, 10.0655282], [-61.6084689, 10.0657448], [-61.6079003, 10.06603], [-61.6075182, 10.066215], [-61.6071458, 10.0663954], [-61.6069078, 10.0665106], [-61.60642, 10.0667793], [-61.6063325, 10.0668275], [-61.6059403, 10.066947], [-61.6058629, 10.0669592], [-61.6056988, 10.0669811], [-61.6049877, 10.0672271], [-61.6041881, 10.0675036], [-61.604102, 10.067525], [-61.6034639, 10.0676832], [-61.6032302, 10.0677387], [-61.602788, 10.0677571], [-61.6025654, 10.0677571], [-61.6023696, 10.0677571], [-61.6019243, 10.0676832], [-61.6013664, 10.0674508], [-61.6010231, 10.0671445], [-61.6008353, 10.0667853], [-61.6006798, 10.0664367], [-61.6006208, 10.0663046], [-61.6005477, 10.0662277], [-61.6004491, 10.0661884], [-61.6002104, 10.0661145], [-61.6000065, 10.0660696], [-61.5998644, 10.06603], [-61.5997732, 10.0659613], [-61.5996552, 10.0658029], [-61.5994996, 10.0656022], [-61.5993226, 10.0654912], [-61.599108, 10.0654648], [-61.5988827, 10.065486], [-61.5986145, 10.0655124], [-61.598469, 10.0655643], [-61.5976435, 10.0661198], [-61.5974745, 10.0661541], [-61.5970454, 10.0662914], [-61.5967771, 10.0662016], [-61.5967061, 10.0661277], [-61.5966108, 10.0661145], [-61.5963855, 10.0661462], [-61.5962501, 10.0662043], [-61.5961428, 10.0663562], [-61.5958773, 10.0665159], [-61.5956453, 10.0667087], [-61.5944302, 10.0674825], [-61.593698, 10.0680054], [-61.5924937, 10.0686603], [-61.5919988, 10.0689693], [-61.5917882, 10.0690446], [-61.5908119, 10.0696256], [-61.5904136, 10.0698329], [-61.5901521, 10.0698963], [-61.5869308, 10.0709526], [-61.5851444, 10.0716076], [-61.5834117, 10.0721199], [-61.5812552, 10.0723893], [-61.580413, 10.0725107], [-61.5797317, 10.0725002], [-61.579147, 10.0726375], [-61.5771622, 10.0729333], [-61.5749466, 10.0733928], [-61.5724683, 10.0737836], [-61.5715617, 10.0738681], [-61.5710039, 10.0737407], [-61.5706015, 10.0734509], [-61.5702575, 10.07339], [-61.5698236, 10.0735143], [-61.5693408, 10.0736093], [-61.5682143, 10.0736146], [-61.567356, 10.073678], [-61.5663797, 10.0735882], [-61.5655857, 10.073435], [-61.5649688, 10.0733981], [-61.5642875, 10.0733875], [-61.563381, 10.0733558], [-61.5627855, 10.0733083], [-61.5616643, 10.0729914], [-61.5612888, 10.0729333], [-61.5609241, 10.0728224], [-61.5605325, 10.0725636], [-61.5597117, 10.0718083], [-61.5592611, 10.0715283], [-61.5586925, 10.0714333], [-61.5580487, 10.0714333], [-61.5573648, 10.0715547], [-61.5568498, 10.0716313], [-61.5563777, 10.0716419], [-61.5560237, 10.0716049], [-61.5557501, 10.0715283], [-61.5555409, 10.0714755], [-61.5554617, 10.0714742], [-61.5553665, 10.0715019], [-61.5550929, 10.0716868], [-61.5546048, 10.0718981], [-61.5541488, 10.0720301], [-61.5535533, 10.0721991], [-61.552974, 10.0723364], [-61.552577, 10.0724474], [-61.5521962, 10.0725583], [-61.5515578, 10.0727379], [-61.5504474, 10.0729597], [-61.5483177, 10.0731446], [-61.547505, 10.0731181], [-61.5469551, 10.073031], [-61.5465421, 10.0729016], [-61.5462738, 10.0728593], [-61.5460271, 10.0729016], [-61.544922, 10.0731393], [-61.5439832, 10.0734826], [-61.5432054, 10.0737467], [-61.5426314, 10.0738946], [-61.5418696, 10.074053], [-61.5414459, 10.0741481], [-61.5410623, 10.0742458], [-61.5407297, 10.0743356], [-61.5404078, 10.0744438], [-61.5401906, 10.0745204], [-61.5398338, 10.0746102], [-61.5395227, 10.0746525], [-61.5393457, 10.0746578], [-61.5391552, 10.0746366], [-61.5389514, 10.0745627], [-61.5388253, 10.0744887], [-61.53871, 10.0744518], [-61.5386054, 10.0744465], [-61.5384793, 10.0744438], [-61.5381494, 10.0744438], [-61.5378356, 10.0744782], [-61.5376264, 10.0744703], [-61.5374145, 10.0744465], [-61.5372938, 10.0744095], [-61.5370095, 10.0743224], [-61.5367439, 10.074259], [-61.5363926, 10.0742062], [-61.5361244, 10.074185], [-61.5359044, 10.0741798], [-61.5356013, 10.0741534], [-61.5353009, 10.0741137], [-61.5351105, 10.0741005], [-61.5349361, 10.0740979], [-61.5348047, 10.0741005], [-61.5344694, 10.0741322], [-61.5341717, 10.0741243], [-61.5339732, 10.0740979], [-61.5338096, 10.0740688], [-61.5335333, 10.074016], [-61.5332034, 10.0739368], [-61.5330774, 10.0739104], [-61.5329218, 10.0739078], [-61.5327957, 10.0739315], [-61.5326938, 10.0739659], [-61.5323907, 10.0740372], [-61.5318596, 10.0741639], [-61.5309262, 10.0742696], [-61.5299445, 10.0744491], [-61.529451, 10.0744861], [-61.5290916, 10.0744174], [-61.5287054, 10.074259], [-61.5283674, 10.0741956], [-61.5279168, 10.0741956], [-61.5274286, 10.0742167], [-61.5268493, 10.0741005], [-61.5257227, 10.0737308], [-61.5248537, 10.0735037], [-61.5240973, 10.0731393], [-61.5234, 10.0726005], [-61.5227348, 10.0719403], [-61.5222734, 10.0713752], [-61.521796, 10.0710054], [-61.5212381, 10.0707361], [-61.5204442, 10.0704773], [-61.5198004, 10.0704614], [-61.5190762, 10.0705301], [-61.5185622, 10.0706635], [-61.5175098, 10.0710424], [-61.5165764, 10.0713382], [-61.5149671, 10.0716762], [-61.512773, 10.0720512], [-61.5112978, 10.0722097], [-61.5099192, 10.0723629], [-61.5087712, 10.072516], [-61.5081811, 10.0725794], [-61.509303, 10.0757583], [-61.5098697, 10.077556], [-61.5104903, 10.0795737], [-61.5111679, 10.0817667], [-61.511528, 10.0827025], [-61.5119633, 10.0832283], [-61.5120384, 10.0834722], [-61.5120458, 10.0845469], [-61.5115697, 10.0854645], [-61.511042, 10.0862137], [-61.5107074, 10.087021], [-61.5101467, 10.0876804], [-61.5099913, 10.0878041], [-61.5094353, 10.0880228], [-61.5091533, 10.0882035], [-61.5088218, 10.0889758], [-61.5086558, 10.0896416], [-61.5086831, 10.0904035], [-61.5087244, 10.090828], [-61.5086747, 10.0910987], [-61.5085773, 10.0912695], [-61.5078671, 10.091741], [-61.5078012, 10.0918978], [-61.5078497, 10.0920137], [-61.5082174, 10.0920483], [-61.5085284, 10.0923096], [-61.5088627, 10.0924716], [-61.5089683, 10.0926077], [-61.5089763, 10.0928371], [-61.5088404, 10.0931313], [-61.508302, 10.093841], [-61.5080236, 10.0940872], [-61.5075112, 10.0941758], [-61.5072729, 10.0945185], [-61.5070911, 10.0952041], [-61.5068914, 10.0955079], [-61.5065365, 10.0957279], [-61.5059773, 10.0957349], [-61.5054863, 10.0959692], [-61.5050792, 10.0962481], [-61.5050097, 10.0964424], [-61.5050875, 10.0967373], [-61.5050727, 10.0969957], [-61.5047468, 10.0974231], [-61.5046357, 10.0976466], [-61.5046328, 10.0978736], [-61.504703, 10.0980477], [-61.5046411, 10.0983874], [-61.5045213, 10.0986565], [-61.5043297, 10.0990245], [-61.5043161, 10.0993166], [-61.5045838, 10.0999446], [-61.504617, 10.1002724], [-61.504254, 10.1015735], [-61.504009, 10.102563], [-61.5040211, 10.1030723], [-61.5042692, 10.1040885], [-61.5046943, 10.1049674], [-61.5049853, 10.1060946], [-61.5050019, 10.1065287], [-61.5047473, 10.1072845], [-61.504105, 10.1084598], [-61.5034996, 10.1096337], [-61.5033447, 10.1101052], [-61.5032389, 10.1108279], [-61.5033254, 10.1125453], [-61.5032242, 10.1126988], [-61.5027502, 10.1130208], [-61.5028243, 10.113824], [-61.5029189, 10.114548], [-61.5030256, 10.1150598], [-61.5035097, 10.115462], [-61.4918043, 10.1298069], [-61.4773119, 10.1441761], [-61.4754987, 10.1496172], [-61.4738263, 10.1527813], [-61.4735901, 10.1540157], [-61.4738025, 10.1545292], [-61.474018, 10.1565719], [-61.4741469, 10.1576773], [-61.4739916, 10.1578468], [-61.4730191, 10.160306], [-61.4722988, 10.1609677], [-61.4721837, 10.1614627], [-61.4724546, 10.1622602], [-61.4727054, 10.1638848], [-61.4717247, 10.1643485], [-61.4721278, 10.1654889], [-61.4726777, 10.1668832], [-61.4725126, 10.1677707], [-61.471849, 10.1684239], [-61.4717491, 10.1693568], [-61.4725518, 10.1708377], [-61.4741783, 10.1716017], [-61.4759328, 10.1722361], [-61.4763562, 10.1731786], [-61.4765173, 10.1754854], [-61.4766357, 10.1772402], [-61.4762801, 10.1779521], [-61.4756186, 10.1786059], [-61.4752702, 10.1809732], [-61.4748135, 10.1833824], [-61.4746333, 10.1858942], [-61.4744524, 10.1871882], [-61.4740916, 10.1916384], [-61.4752364, 10.2066262], [-61.4765034, 10.2073796], [-61.4856499, 10.2078982], [-61.4909875, 10.2082766], [-61.4939738, 10.2102037], [-61.4943646, 10.2100062], [-61.5012627, 10.2136315], [-61.5009398, 10.2144368], [-61.5041399, 10.2175583], [-61.505486, 10.2183334], [-61.5055041, 10.2192698], [-61.5052252, 10.2197766], [-61.5032039, 10.2211054], [-61.5019789, 10.2214718], [-61.5019118, 10.2224666], [-61.5036586, 10.2238101], [-61.5048669, 10.2245646], [-61.5051166, 10.2253694], [-61.5059211, 10.2261937], [-61.5065759, 10.2276495], [-61.507082, 10.2282425], [-61.5077145, 10.2274711], [-61.5088951, 10.2274239], [-61.5094107, 10.2280338], [-61.5103682, 10.2277636], [-61.5114538, 10.228019], [-61.512504, 10.227444], [-61.5133235, 10.2276353], [-61.5147529, 10.228463], [-61.5161789, 10.2291604], [-61.5173329, 10.2283204], [-61.5181007, 10.2282512], [-61.5217598, 10.2319535], [-61.5243712, 10.2343727], [-61.5251697, 10.234546], [-61.5252483, 10.23454], [-61.5255283, 10.234343], [-61.5258992, 10.2341028], [-61.5262925, 10.2338217], [-61.526617, 10.2333814], [-61.52697, 10.2329932], [-61.5270665, 10.2328612], [-61.5271792, 10.2327635], [-61.5275359, 10.2325655], [-61.5281957, 10.2321802], [-61.5285766, 10.2320112], [-61.5290701, 10.2318106], [-61.5295261, 10.2316681], [-61.5303308, 10.2315572], [-61.5309906, 10.2314517], [-61.5315163, 10.2313593], [-61.5320581, 10.231288], [-61.5323773, 10.2312273], [-61.5325597, 10.2312273], [-61.5327689, 10.2313012], [-61.5330023, 10.2314305], [-61.5331471, 10.2314279], [-61.5332946, 10.231354], [-61.5334582, 10.2311534], [-61.5336272, 10.230966], [-61.5338928, 10.2308446], [-61.5348047, 10.2306703], [-61.5354458, 10.2305648], [-61.5361565, 10.230541], [-61.5364569, 10.2305384], [-61.5365763, 10.2305278], [-61.5366688, 10.2304843], [-61.5367278, 10.2304697], [-61.537047, 10.2304618], [-61.5371999, 10.2304381], [-61.5375271, 10.2304275], [-61.5378705, 10.230409], [-61.5384257, 10.23038], [-61.5389098, 10.2303853], [-61.5392464, 10.2304235], [-61.5393698, 10.2304196], [-61.5396152, 10.2303483], [-61.5400672, 10.2302797], [-61.5403676, 10.2302639], [-61.5406412, 10.2302744], [-61.5408129, 10.230248], [-61.5410194, 10.2301899], [-61.5416417, 10.2301121], [-61.5416551, 10.2301094], [-61.5422881, 10.2300157], [-61.5425938, 10.2299128], [-61.542795, 10.2297914], [-61.5431437, 10.2296937], [-61.5442193, 10.2294878], [-61.5462387, 10.2292925], [-61.5484384, 10.2292608], [-61.550855, 10.2293928], [-61.5521184, 10.2295776], [-61.5524349, 10.229596], [-61.552695, 10.2295644], [-61.5530585, 10.2295155], [-61.5532663, 10.2295063], [-61.5534206, 10.2295182], [-61.5537947, 10.2295855], [-61.5539356, 10.2295736], [-61.5540844, 10.2295248], [-61.554295, 10.2294258], [-61.5543714, 10.2293849], [-61.5545149, 10.2293717], [-61.555211, 10.2294588], [-61.5557916, 10.229534], [-61.5562356, 10.2295802], [-61.5562919, 10.2295987], [-61.5563254, 10.229633], [-61.5563482, 10.2297069], [-61.5563643, 10.229732], [-61.5564106, 10.2297472], [-61.5572253, 10.2298098], [-61.558046, 10.229831], [-61.5585905, 10.2298257], [-61.5586817, 10.2298099], [-61.5587568, 10.2297254], [-61.558848, 10.2295723], [-61.5589285, 10.2294456], [-61.5590197, 10.2293875], [-61.5592235, 10.2293822], [-61.5595454, 10.2293875], [-61.5597466, 10.2293875], [-61.5598887, 10.2293875], [-61.5600523, 10.2294113], [-61.5601623, 10.2294984], [-61.5602481, 10.2296409], [-61.5603393, 10.2297095], [-61.560511, 10.2297465], [-61.5610689, 10.2299102], [-61.5614927, 10.2300738], [-61.5616697, 10.2302163], [-61.5617395, 10.2303114], [-61.561777, 10.2303325], [-61.5618253, 10.2303536], [-61.562056, 10.2303642], [-61.5624529, 10.2304486], [-61.5632147, 10.2306545], [-61.564191, 10.2309449], [-61.565288, 10.2312986], [-61.5654463, 10.2313408], [-61.5655562, 10.231383], [-61.5655643, 10.2314173], [-61.5655696, 10.2314569], [-61.5655428, 10.2315176], [-61.5655348, 10.2315572], [-61.5655562, 10.2315836], [-61.565634, 10.2316048], [-61.5657306, 10.2316338], [-61.5659773, 10.2316734], [-61.5677447, 10.2316942], [-61.5684102, 10.2315476], [-61.5686457, 10.2314962], [-61.5692081, 10.2316508], [-61.5705835, 10.2318376], [-61.5707849, 10.2318626], [-61.5709692, 10.231909], [-61.5711108, 10.2319806], [-61.5713058, 10.23205], [-61.5714439, 10.2321431], [-61.5715426, 10.2321769], [-61.5717339, 10.2321592], [-61.5719004, 10.2322271], [-61.5719989, 10.2323073], [-61.5721381, 10.2323827], [-61.5729663, 10.232726], [-61.5737994, 10.232968], [-61.5739315, 10.2329579], [-61.5740639, 10.2329891], [-61.5741741, 10.2330485], [-61.5742414, 10.2330527], [-61.5742989, 10.2330633], [-61.5744131, 10.2330839], [-61.5745577, 10.2330324], [-61.5746669, 10.2330731], [-61.5746928, 10.2332061], [-61.5746762, 10.2333162], [-61.5748238, 10.233458], [-61.5763344, 10.2341447], [-61.5767357, 10.2343304], [-61.5768664, 10.2344239], [-61.5770109, 10.2345492], [-61.5772949, 10.2346415], [-61.5774961, 10.2347207], [-61.5776449, 10.2348303], [-61.5777469, 10.2349002], [-61.5778689, 10.2349781], [-61.5780164, 10.2350731], [-61.578121, 10.2351246], [-61.5782572, 10.2351576], [-61.5783866, 10.2351655], [-61.5785703, 10.2351695], [-61.5787379, 10.2352302], [-61.5789861, 10.2352935], [-61.579214, 10.2353027], [-61.5795118, 10.2352394], [-61.579721, 10.2350599], [-61.5798484, 10.2348316], [-61.5799691, 10.2347735], [-61.5800737, 10.2347828], [-61.5825212, 10.2370686], [-61.5838242, 10.2386256], [-61.5847153, 10.2393174], [-61.585933, 10.2400275], [-61.5866491, 10.2402888], [-61.590202, 10.241268], [-61.5988683, 10.2433281], [-61.6029968, 10.2444399], [-61.6063206, 10.2453753], [-61.6079938, 10.2460608], [-61.6088096, 10.2462299], [-61.6095328, 10.2463798], [-61.6105076, 10.2467376], [-61.6107843, 10.2470569], [-61.61089, 10.2474813], [-61.6109914, 10.2476318], [-61.6110635, 10.2477708], [-61.6112822, 10.2479424], [-61.6118229, 10.2481232], [-61.6121464, 10.2480828], [-61.6124835, 10.2480008], [-61.613029, 10.24809], [-61.613728, 10.2483457], [-61.6173147, 10.249673], [-61.6178396, 10.2501416], [-61.6181234, 10.2507149], [-61.6187716, 10.2514389], [-61.6190505, 10.2515229], [-61.619404, 10.2514293], [-61.6194877, 10.2512161], [-61.6193938, 10.2510239], [-61.619198, 10.2508403], [-61.6192613, 10.2505985], [-61.6197317, 10.2502421], [-61.6204061, 10.2497497], [-61.6208669, 10.2494936], [-61.6214419, 10.2492725], [-61.621767, 10.2491569], [-61.6224226, 10.2489605], [-61.6230893, 10.2488042], [-61.623394, 10.2487155], [-61.6237503, 10.2486311], [-61.6241585, 10.2484464], [-61.6244481, 10.2482737], [-61.6247955, 10.2481227], [-61.6251683, 10.2479881], [-61.625568, 10.2478983], [-61.6259596, 10.2478904], [-61.6261876, 10.2479115], [-61.6264692, 10.2479643], [-61.6268152, 10.2480408], [-61.6271102, 10.248186], [-61.6272551, 10.2483549], [-61.6274227, 10.24909], [-61.6274495, 10.2493685], [-61.6274522, 10.2495836], [-61.6274636, 10.2496454], [-61.6275649, 10.2498317], [-61.6275837, 10.2498554], [-61.6276145, 10.2498568], [-61.6296557, 10.2486519], [-61.6303825, 10.2482164], [-61.6326919, 10.2468623], [-61.6327576, 10.2468584], [-61.6328073, 10.2468848], [-61.6329132, 10.2470405], [-61.6329467, 10.2470603], [-61.6329762, 10.2470577], [-61.6334228, 10.2467805], [-61.6334255, 10.2467409], [-61.633223, 10.2461589], [-61.6332297, 10.2459926], [-61.6332766, 10.2458673], [-61.6334242, 10.2455888], [-61.6336294, 10.2452405], [-61.6337661, 10.2450886], [-61.6341242, 10.2448484], [-61.6347505, 10.2445468], [-61.635729, 10.2441137], [-61.6365919, 10.2437719], [-61.6374625, 10.2431939], [-61.6377291, 10.2421311], [-61.6377613, 10.2420519], [-61.6377881, 10.2419596], [-61.6377854, 10.2419173], [-61.637772, 10.2418777], [-61.6376969, 10.2418329], [-61.637587, 10.2417669], [-61.6375387, 10.2417431], [-61.6375226, 10.2417062], [-61.6375279, 10.2416771], [-61.6375709, 10.2416323], [-61.6375923, 10.2415821], [-61.6375843, 10.2415531], [-61.6375521, 10.2415399], [-61.6374958, 10.2415531], [-61.63743, 10.2415623], [-61.6374079, 10.2415531], [-61.6373912, 10.2415346], [-61.6373402, 10.2413578], [-61.6373429, 10.241268], [-61.6373885, 10.2411545], [-61.6374823, 10.2410542], [-61.6375226, 10.2409645], [-61.6375172, 10.2409117], [-61.6374823, 10.2408615], [-61.6374877, 10.2408114], [-61.6375333, 10.2407612], [-61.6376299, 10.2407269], [-61.6376567, 10.2406953], [-61.6376781, 10.2406134], [-61.6376755, 10.2403891], [-61.6376755, 10.2403389], [-61.6376996, 10.2402756], [-61.6377962, 10.2402149], [-61.6378713, 10.2401489], [-61.6378927, 10.2400671], [-61.6379115, 10.2398981], [-61.6380134, 10.2396078], [-61.6381207, 10.2394653], [-61.6382307, 10.2393676], [-61.6382468, 10.239328], [-61.638228, 10.2392778], [-61.6381556, 10.2392066], [-61.6381288, 10.239167], [-61.6381234, 10.2391353], [-61.6381368, 10.2390746], [-61.6381905, 10.2389743], [-61.6382548, 10.2388608], [-61.6383219, 10.2387394], [-61.638397, 10.2386259], [-61.6384211, 10.2385414], [-61.6384372, 10.2384464], [-61.6384131, 10.2382722], [-61.6383997, 10.2381297], [-61.6384158, 10.2379555], [-61.6384318, 10.2378499], [-61.638464, 10.237615], [-61.6384748, 10.2374592], [-61.6384506, 10.2373484], [-61.6384077, 10.2372058], [-61.6383943, 10.2371293], [-61.6384265, 10.2370633], [-61.6384989, 10.2369868], [-61.6385713, 10.2368891], [-61.6386732, 10.2367413], [-61.6387001, 10.2366172], [-61.6387054, 10.2364773], [-61.6386598, 10.2363586], [-61.6385713, 10.2362187], [-61.6381462, 10.2357238], [-61.6380034, 10.2354921], [-61.6379263, 10.2353727], [-61.6378766, 10.235308], [-61.6378398, 10.2352783], [-61.6377928, 10.2352618], [-61.6376728, 10.2352354], [-61.6374723, 10.235153], [-61.6372973, 10.2350018], [-61.63708, 10.2345637], [-61.6367903, 10.2341466], [-61.6366924, 10.2339724], [-61.6366696, 10.233884], [-61.6366763, 10.2337995], [-61.6368829, 10.2332228], [-61.6368882, 10.2330855], [-61.636852, 10.2329668], [-61.6359629, 10.2319307], [-61.6358811, 10.2317974], [-61.6358247, 10.2315493], [-61.6357966, 10.231193], [-61.6357952, 10.2309515], [-61.6357926, 10.2307693], [-61.6358086, 10.2305489], [-61.635806, 10.2303325], [-61.6357899, 10.2301701], [-61.6357295, 10.2299577], [-61.6356571, 10.2297557], [-61.635574, 10.2295287], [-61.6355123, 10.2294166], [-61.6353587, 10.2292324], [-61.6352635, 10.2290708], [-61.6352226, 10.2289045], [-61.6352601, 10.2286867], [-61.6353312, 10.2284716], [-61.6355351, 10.2281628], [-61.6357751, 10.2278368], [-61.6360004, 10.2275227], [-61.636443, 10.2270178], [-61.6364953, 10.2269499], [-61.6365114, 10.2268825], [-61.6364799, 10.2268179], [-61.6362016, 10.2267268], [-61.635983, 10.2266225], [-61.63581, 10.2265315], [-61.6356584, 10.2264127], [-61.6355377, 10.2261936], [-61.6354425, 10.2260022], [-61.6352749, 10.2258967], [-61.6351327, 10.2258729], [-61.6350402, 10.2259112], [-61.6349302, 10.2259059], [-61.6347586, 10.2258359], [-61.6346942, 10.2257422], [-61.6346706, 10.225584], [-61.6346392, 10.2252447], [-61.6346674, 10.2250691], [-61.6348437, 10.2247009], [-61.6348659, 10.2246699], [-61.6348746, 10.2246184], [-61.6348645, 10.2245412], [-61.6333719, 10.2235563], [-61.6325357, 10.2229172], [-61.6321092, 10.2226315], [-61.6319248, 10.222353], [-61.6317733, 10.2220666], [-61.6317425, 10.221754], [-61.6317317, 10.2216442], [-61.6317424, 10.2212866], [-61.6317505, 10.2209698], [-61.6318095, 10.2203218], [-61.6319503, 10.2194969], [-61.6320241, 10.2191973], [-61.6322534, 10.2186495], [-61.6324545, 10.2183235], [-61.6326678, 10.2180134], [-61.6329682, 10.2176438], [-61.633109, 10.2174696], [-61.6332954, 10.2172056], [-61.6334657, 10.2169324], [-61.6335891, 10.2167305], [-61.6338077, 10.21639], [-61.6340169, 10.2160653], [-61.6342677, 10.2157301], [-61.6345386, 10.2154107], [-61.6348082, 10.2151045], [-61.6352052, 10.2146082], [-61.6356182, 10.2141251], [-61.6360259, 10.2136289], [-61.6367152, 10.212895], [-61.63745, 10.21216], [-61.6394805, 10.2101939], [-61.6408108, 10.2091255], [-61.642115, 10.2082483], [-61.6419876, 10.2075456], [-61.6423765, 10.2068807], [-61.6432165, 10.2063823], [-61.6440498, 10.206021], [-61.6431794, 10.2053557], [-61.6415386, 10.2063488], [-61.6412143, 10.2065537], [-61.6407159, 10.2065451], [-61.638621, 10.2060092], [-61.6380402, 10.2051568], [-61.637498, 10.2048132], [-61.6370092, 10.2039993], [-61.6361895, 10.2030433], [-61.6342052, 10.2004817], [-61.633296, 10.1987697], [-61.6333344, 10.1980434], [-61.6334638, 10.1971259], [-61.6327949, 10.1965017], [-61.6329603, 10.1957944], [-61.6333661, 10.1951013], [-61.6338991, 10.1945766], [-61.6395818, 10.1921632], [-61.6428865, 10.1879385], [-61.6455569, 10.1830121], [-61.6460943, 10.1827231], [-61.6470091, 10.1822333], [-61.6481578, 10.1802498], [-61.6484533, 10.179018], [-61.6485055, 10.1778837], [-61.6480059, 10.1770314], [-61.6476887, 10.1764114], [-61.6478112, 10.175099], [-61.6484858, 10.1741108], [-61.649863, 10.1729551], [-61.6510132, 10.1720235], [-61.6512933, 10.1713048], [-61.6514132, 10.1693113], [-61.6529953, 10.1680999], [-61.6541576, 10.1679872], [-61.6548969, 10.1681931], [-61.6554155, 10.1679829], [-61.6567471, 10.1669862], [-61.6574651, 10.1669244], [-61.6607708, 10.1682452], [-61.6634029, 10.1648668], [-61.6647793, 10.1624911], [-61.6681057, 10.1583472], [-61.6710495, 10.1560907], [-61.6718374, 10.1555062], [-61.6730131, 10.1535318], [-61.6744071, 10.1528904], [-61.6758394, 10.1518978], [-61.6772997, 10.1515349], [-61.678656, 10.1506165], [-61.6799104, 10.1496601], [-61.6800376, 10.1484953], [-61.6806162, 10.1475958], [-61.6814937, 10.1467882], [-61.6826041, 10.1459821], [-61.6832277, 10.1451279], [-61.6872743, 10.1425413], [-61.6878097, 10.1426376], [-61.6889615, 10.1433591], [-61.6911204, 10.1425441], [-61.6929911, 10.1422428], [-61.6936361, 10.1423316], [-61.6945722, 10.1427343], [-61.6961389, 10.1426556], [-61.6980791, 10.1422458], [-61.6993755, 10.141865], [-61.700408, 10.1410752], [-61.701098, 10.1410015], [-61.7018042, 10.141053], [-61.7021839, 10.1425965], [-61.7023984, 10.1434777], [-61.7029175, 10.1437878], [-61.7031425, 10.1440643], [-61.7031665, 10.1446132], [-61.7027822, 10.1450935], [-61.7029109, 10.1456261], [-61.7027586, 10.1458554], [-61.7023006, 10.1459543], [-61.7021623, 10.1465359], [-61.7018774, 10.1470246], [-61.7024345, 10.1482546], [-61.7049771, 10.1506297], [-61.7065051, 10.1524476], [-61.7065934, 10.1564532], [-61.7068889, 10.1576416], [-61.7068293, 10.158998], [-61.7071053, 10.1593462], [-61.7076352, 10.1601645], [-61.7075765, 10.16186], [-61.708746, 10.1615274], [-61.7095774, 10.1612845], [-61.7102212, 10.1609677], [-61.7106879, 10.1607142], [-61.7111921, 10.1604291], [-61.7117608, 10.1601756], [-61.7126513, 10.1598799], [-61.7133004, 10.1596634], [-61.7139977, 10.1593994], [-61.7150071, 10.1590734], [-61.7160617, 10.1587281], [-61.7183223, 10.158151], [-61.7195796, 10.1578499], [-61.7242987, 10.1566972], [-61.7243309, 10.1566484], [-61.7243055, 10.1565533], [-61.7242652, 10.1561837], [-61.7244127, 10.15602], [-61.7246944, 10.1558801], [-61.7250538, 10.1558062], [-61.7253032, 10.1557349], [-61.7256466, 10.155653], [-61.7261133, 10.1555738], [-61.7265478, 10.1554841], [-61.7268482, 10.1554101], [-61.7273015, 10.155286], [-61.727626, 10.1552148], [-61.7280471, 10.1551303], [-61.7284548, 10.1550035], [-61.7288545, 10.1549243], [-61.7292514, 10.1548266], [-61.7296967, 10.1547184], [-61.7345488, 10.1538339], [-61.7385936, 10.1530841], [-61.743325, 10.1523449], [-61.7505562, 10.1511937], [-61.7574334, 10.1504439], [-61.7694283, 10.1491132], [-61.773516, 10.1488703], [-61.7763913, 10.1487436], [-61.7800391, 10.1484479], [-61.7826462, 10.1483528], [-61.7846149, 10.1483053], [-61.7854196, 10.1483053], [-61.7863423, 10.1483264], [-61.7873883, 10.1483528], [-61.787957, 10.1483845], [-61.7881554, 10.1483106], [-61.7883164, 10.1481786], [-61.7884398, 10.1479726], [-61.788826, 10.1472967], [-61.7891908, 10.1467792], [-61.7894322, 10.1464835], [-61.7895716, 10.1463251], [-61.7897379, 10.146172], [-61.7906714, 10.1452954], [-61.7918222, 10.1445332], [-61.7977545, 10.1423354], [-61.799198, 10.142097], [-61.7999906, 10.1419776], [-61.8000752, 10.1419422], [-61.8001543, 10.1418604], [-61.8003112, 10.141562], [-61.8003702, 10.1406485], [-61.8001717, 10.1399726], [-61.8001342, 10.1395079], [-61.8003273, 10.1389851], [-61.8009603, 10.1384465], [-61.8012232, 10.1382194], [-61.8017167, 10.1378814], [-61.8028754, 10.1372953], [-61.8036693, 10.136989], [-61.8044955, 10.136688], [-61.8052465, 10.1364662], [-61.805917, 10.1362708], [-61.8064588, 10.1361124], [-61.8072045, 10.1358642], [-61.8081915, 10.1355896], [-61.8087924, 10.1354523], [-61.8095541, 10.1352992], [-61.8106324, 10.1351249], [-61.8116087, 10.1350404], [-61.8134165, 10.1348767], [-61.8148327, 10.1347764], [-61.8163991, 10.1346602], [-61.8184429, 10.1345863], [-61.8197089, 10.134581], [-61.8208355, 10.1345599], [-61.8215543, 10.1345388], [-61.8225628, 10.1345441], [-61.8241185, 10.1345863], [-61.8248642, 10.1345916], [-61.8253899, 10.1346021], [-61.8257922, 10.1346866], [-61.8260765, 10.1346101], [-61.8262187, 10.1344252], [-61.8262026, 10.1341057], [-61.8258029, 10.1331816], [-61.8255079, 10.1324951], [-61.8251753, 10.1317558], [-61.82473, 10.1306997], [-61.8246335, 10.1302614], [-61.8245745, 10.1296277], [-61.8246818, 10.1284712], [-61.8247193, 10.1271008], [-61.8248105, 10.1267074], [-61.8248722, 10.1265278], [-61.8248802, 10.1263971], [-61.8248655, 10.1262717], [-61.8247408, 10.125968], [-61.8246764, 10.1255086], [-61.824714, 10.124933], [-61.824773, 10.1243521], [-61.824773, 10.1236973], [-61.8247408, 10.1230055], [-61.82473, 10.1223242], [-61.8247837, 10.1218067], [-61.8249661, 10.1207347], [-61.825186, 10.1196362], [-61.8254274, 10.1189603], [-61.8257976, 10.1184058], [-61.8266237, 10.11764], [-61.8277556, 10.116898], [-61.8288901, 10.1161455], [-61.8289974, 10.1160359], [-61.8290283, 10.1159884], [-61.8290497, 10.1159079], [-61.8290859, 10.1157785], [-61.8291651, 10.115653], [-61.8293917, 10.115451], [-61.8301803, 10.1148411], [-61.830655, 10.1145229], [-61.8307838, 10.1144252], [-61.8308039, 10.1143948], [-61.8308106, 10.1143249], [-61.8307959, 10.1141123], [-61.830757, 10.1136977], [-61.8307301, 10.1133492], [-61.8307275, 10.1130904], [-61.8307999, 10.1128343], [-61.8311392, 10.1125029], [-61.8314637, 10.1122507], [-61.8315087, 10.1121979], [-61.8315241, 10.1121411], [-61.8315133, 10.1120382], [-61.8314758, 10.1119101], [-61.8314423, 10.1117305], [-61.8314758, 10.1114216], [-61.8315925, 10.1110889], [-61.8317246, 10.1108466], [-61.8317521, 10.110774], [-61.8317467, 10.1106954], [-61.8317038, 10.110574], [-61.8317105, 10.1104974], [-61.8317775, 10.1103891], [-61.8319331, 10.110265], [-61.8320847, 10.1101858], [-61.8322912, 10.1100775], [-61.8324307, 10.1099033], [-61.8324628, 10.1097633], [-61.8324307, 10.1095098], [-61.832314, 10.1090174], [-61.8322872, 10.1087361], [-61.8323301, 10.1084853], [-61.8328303, 10.1077327], [-61.8340246, 10.1067549], [-61.8391925, 10.1031592], [-61.840598, 10.1023565], [-61.8418908, 10.1017861], [-61.843417, 10.1011101], [-61.8445435, 10.1006084], [-61.8456084, 10.1001014], [-61.8461153, 10.0998399], [-61.84659, 10.0996102], [-61.8472418, 10.0993065], [-61.8496853, 10.0983374], [-61.8513268, 10.0976561], [-61.8514341, 10.0975558], [-61.8515199, 10.0974185], [-61.8516326, 10.0969484], [-61.8517238, 10.0967794], [-61.8518847, 10.0966527], [-61.8531507, 10.0961721], [-61.8550658, 10.0956228], [-61.8586159, 10.0945974], [-61.859533, 10.0944329], [-61.8599739, 10.0943383], [-61.8609465, 10.0941213], [-61.8613813, 10.0940077], [-61.8625598, 10.0937613], [-61.862959, 10.0936085], [-61.8634412, 10.0933747], [-61.8652213, 10.0930974], [-61.8733682, 10.0924838], [-61.8741234, 10.0925197], [-61.8759871, 10.0927022], [-61.8772517, 10.0927617], [-61.8777791, 10.0927714], [-61.8787524, 10.0927893], [-61.8798427, 10.0927669], [-61.8803081, 10.0927656], [-61.8811879, 10.0927576], [-61.8813327, 10.0927748], [-61.8814213, 10.0927933], [-61.8817176, 10.0928699], [-61.8820542, 10.0927854], [-61.8824029, 10.0927114], [-61.8827529, 10.0926533], [-61.8831834, 10.0924936], [-61.8832934, 10.0925675], [-61.8834583, 10.0926124], [-61.8835462, 10.0925549], [-61.8836501, 10.0923998], [-61.8836474, 10.0923655], [-61.8835992, 10.0922876], [-61.8835536, 10.0921925], [-61.8835214, 10.0918849], [-61.8835415, 10.0918479], [-61.8835737, 10.0918229], [-61.8836904, 10.0917515], [-61.8838432, 10.0916961], [-61.8840042, 10.091667], [-61.884318, 10.0915772], [-61.8844199, 10.0915244], [-61.8845272, 10.0914346], [-61.8847552, 10.0913317], [-61.8849805, 10.0912788], [-61.8850797, 10.0912617], [-61.8853158, 10.0912445], [-61.8855196, 10.0912075], [-61.8856658, 10.0911627], [-61.8856953, 10.0911336], [-61.8856846, 10.0910953], [-61.8856524, 10.091057], [-61.8854351, 10.0907441], [-61.8854311, 10.0906081], [-61.8855464, 10.0904457], [-61.885749, 10.0902424], [-61.8858898, 10.0900298], [-61.8859032, 10.0899215], [-61.8863323, 10.089771], [-61.8864799, 10.0896997], [-61.8866515, 10.0896271], [-61.8869412, 10.0895927], [-61.8870445, 10.0895386], [-61.8874092, 10.0894409], [-61.8882179, 10.0892587], [-61.889158, 10.0891821], [-61.8895845, 10.0891148], [-61.8897401, 10.088922], [-61.8898085, 10.0889194], [-61.8899976, 10.0889524], [-61.890078, 10.0889154], [-61.8902564, 10.0889048], [-61.8905998, 10.0889329], [-61.890805, 10.0889274], [-61.8910182, 10.0889207], [-61.8910517, 10.0888731], [-61.8911456, 10.088918], [-61.8912703, 10.0888639], [-61.8912958, 10.0889035], [-61.8913038, 10.0889497], [-61.8915492, 10.0889154], [-61.8916002, 10.0887187], [-61.8917397, 10.0885536], [-61.891847, 10.0884744], [-61.8920508, 10.0883952], [-61.8921661, 10.0884321], [-61.8925148, 10.0883556], [-61.8928528, 10.0883476], [-61.8934684, 10.0883292], [-61.8941067, 10.0883358], [-61.8946056, 10.0883489], [-61.8948309, 10.0883635], [-61.8949127, 10.0884506], [-61.8950737, 10.0884163], [-61.8951568, 10.0882539], [-61.895311, 10.0882618], [-61.8954733, 10.0882803], [-61.8956074, 10.0882182], [-61.8961613, 10.0881562], [-61.8964335, 10.0882248], [-61.896557, 10.0881905], [-61.8966629, 10.0882195], [-61.8967661, 10.0882222], [-61.8968626, 10.0881773], [-61.8969207, 10.0881421], [-61.8972395, 10.0881641], [-61.8976459, 10.0881509], [-61.8979436, 10.0881681], [-61.8981193, 10.0881126], [-61.8983822, 10.088139], [-61.8985216, 10.0882209], [-61.8987604, 10.0882275], [-61.8988569, 10.0881073], [-61.8990152, 10.0881153], [-61.8992123, 10.0881417], [-61.8996871, 10.0880717], [-61.8999647, 10.0880876], [-61.9001835, 10.0880682], [-61.900371, 10.0880413], [-61.900894, 10.0881866], [-61.9011998, 10.0882103], [-61.9012669, 10.0881734], [-61.9012629, 10.0880797], [-61.9015311, 10.088077], [-61.9017524, 10.0881866], [-61.9019575, 10.0881866], [-61.9021037, 10.0880149], [-61.9023947, 10.0879925], [-61.9028838, 10.0880156], [-61.9029312, 10.088073], [-61.9031216, 10.0880677], [-61.9036648, 10.0879925], [-61.9039679, 10.0879489], [-61.9039974, 10.0878842], [-61.9040188, 10.0878802], [-61.904106, 10.0879555], [-61.9042186, 10.0879449], [-61.9044171, 10.0879845], [-61.9045097, 10.0879278], [-61.9046572, 10.0879608], [-61.9047779, 10.0880241], [-61.904829, 10.0879993], [-61.9048704, 10.0879793], [-61.904853, 10.0878921], [-61.904912, 10.087871], [-61.9050542, 10.0878142], [-61.9051856, 10.0878023], [-61.9052446, 10.0877482], [-61.9053224, 10.0877244], [-61.9055222, 10.0878116], [-61.9057757, 10.0877865], [-61.9060747, 10.0878327], [-61.9062826, 10.0878248], [-61.9066139, 10.0878116], [-61.9068673, 10.0877389], [-61.9070202, 10.0877284], [-61.9070283, 10.0876769], [-61.9070886, 10.0876346], [-61.9072576, 10.0877654], [-61.907326, 10.0877363], [-61.9075191, 10.0877112], [-61.9075848, 10.0875752], [-61.9076528, 10.0875171], [-61.9077396, 10.0875533], [-61.9077176, 10.0876954], [-61.9078034, 10.0877323], [-61.9078785, 10.0877218], [-61.9079805, 10.0877007], [-61.9080542, 10.0876043], [-61.9081146, 10.0874854], [-61.9081602, 10.0875052], [-61.9081964, 10.0875607], [-61.9082594, 10.0874656], [-61.9084311, 10.08743], [-61.9084847, 10.0874947], [-61.9085451, 10.087529], [-61.9086483, 10.0874947], [-61.9088897, 10.0875], [-61.9090078, 10.0875383], [-61.909105, 10.0874914], [-61.9091459, 10.0874227], [-61.9091153, 10.0874138], [-61.9090254, 10.0874287], [-61.9089484, 10.0873758], [-61.9089218, 10.0873575], [-61.9089478, 10.0873065], [-61.9088311, 10.0871704], [-61.9086505, 10.0871329], [-61.908574, 10.0870953], [-61.9084172, 10.0870791], [-61.9084122, 10.0870173], [-61.9083999, 10.0868653], [-61.9084445, 10.0865579], [-61.9084091, 10.0864314], [-61.9083362, 10.0863146], [-61.9082799, 10.0860938], [-61.9082342, 10.0859856], [-61.9082013, 10.0858548], [-61.9081249, 10.0857714], [-61.9078923, 10.0850525], [-61.9078446, 10.0847085], [-61.9078844, 10.0841982], [-61.907846, 10.0834704], [-61.9078569, 10.0832348], [-61.9079204, 10.0825249], [-61.9079822, 10.0821973], [-61.9081079, 10.0817212], [-61.9081667, 10.0815797], [-61.9083123, 10.0810846], [-61.908429, 10.0807183], [-61.908712, 10.0801034], [-61.9091366, 10.0793387], [-61.9097304, 10.0787342], [-61.9103219, 10.0780832], [-61.910853, 10.0773728], [-61.9113386, 10.0766463], [-61.9119474, 10.0757616], [-61.912272, 10.0752731], [-61.9125417, 10.0749262], [-61.9129291, 10.074428], [-61.9135702, 10.0736833], [-61.913951, 10.0733241], [-61.9148576, 10.0725292], [-61.9161075, 10.0714729], [-61.9163583, 10.0712563], [-61.9168545, 10.0708747], [-61.9171684, 10.0706119], [-61.9174808, 10.0703043], [-61.9181219, 10.0697391], [-61.9186221, 10.0693113], [-61.9194616, 10.0686933], [-61.9197527, 10.0684438], [-61.9202918, 10.0679499], [-61.9208926, 10.0674085], [-61.9214237, 10.0669702], [-61.9216168, 10.0668328], [-61.9217724, 10.0667113], [-61.922105, 10.0664525], [-61.9224644, 10.066162], [-61.923312, 10.0655863], [-61.9242668, 10.0649974], [-61.925506, 10.0641919], [-61.9259459, 10.063904], [-61.9262275, 10.0637218], [-61.9264555, 10.0635369], [-61.926648, 10.0633029], [-61.926764, 10.0631619], [-61.9270214, 10.0628186], [-61.9271872, 10.0625447], [-61.927346, 10.0622825], [-61.9274761, 10.0621966], [-61.9275874, 10.0620831], [-61.9276356, 10.0619392], [-61.9275994, 10.0618454], [-61.9274453, 10.0618494], [-61.9273406, 10.0619061], [-61.9272669, 10.0618969], [-61.9271823, 10.0618705], [-61.9271528, 10.0617847], [-61.9271059, 10.0616282], [-61.9271382, 10.0612763], [-61.9271931, 10.0610888], [-61.9272548, 10.060933], [-61.9273782, 10.0607072], [-61.9275257, 10.0604787], [-61.9276357, 10.0603176], [-61.9277966, 10.0600852], [-61.9281077, 10.0597287], [-61.9284081, 10.0593775], [-61.9288212, 10.0589918], [-61.9290868, 10.058733], [-61.9293925, 10.0583263], [-61.9296017, 10.0579355], [-61.9298083, 10.0575815], [-61.9299504, 10.057188], [-61.9301248, 10.0566308], [-61.9302133, 10.056335], [-61.9302884, 10.0559863], [-61.9304252, 10.0548957], [-61.9306237, 10.0541139], [-61.9307604, 10.0534537], [-61.9309133, 10.0526508], [-61.9309747, 10.0520512], [-61.9309777, 10.0517]]]]}, "bbox": [-62.0154447, 10.042842, -61.4717247, 10.2515229]}