{"type": "Feature", "properties": {"name": "St. James", "display_name": "Saint James, Port of Spain, Diego Martin, Trinidad and Tobago", "osm_type": "relation", "osm_id": 3071277, "category": "boundary", "type": "administrative", "source": "OpenStreetMap / Nominatim", "license": "ODbL"}, "geometry": {"type": "Polygon", "coordinates": [[[-61.5441167, 10.6891668], [-61.5440711, 10.6887688], [-61.543996, 10.6886238], [-61.5435748, 10.6883102], [-61.5432342, 10.688073], [-61.5430921, 10.6879069], [-61.5428936, 10.6873903], [-61.5427621, 10.6867551], [-61.5428077, 10.6864336], [-61.5427514, 10.6861858], [-61.5426093, 10.6857377], [-61.542459, 10.6854584], [-61.542388, 10.6853134], [-61.542329, 10.6852699], [-61.5422458, 10.6853029], [-61.5422029, 10.685403], [-61.541995, 10.6857562], [-61.5419226, 10.6858247], [-61.5416603, 10.6859383], [-61.5415484, 10.6859815], [-61.5413862, 10.6860527], [-61.5412856, 10.6860408], [-61.5411394, 10.6859473], [-61.5408873, 10.6856626], [-61.5402918, 10.6848561], [-61.5400236, 10.6843975], [-61.539927, 10.6842314], [-61.5399592, 10.6841471], [-61.5400156, 10.6841655], [-61.5401148, 10.6842789], [-61.540324, 10.6846031], [-61.5405681, 10.6848087], [-61.5407773, 10.6849721], [-61.5409865, 10.6851355], [-61.5411099, 10.6852146], [-61.5412413, 10.6852172], [-61.5413808, 10.6851118], [-61.5414452, 10.6849457], [-61.5414559, 10.6847823], [-61.5414318, 10.6844344], [-61.5414076, 10.684184], [-61.5414505, 10.6838624], [-61.5414935, 10.6836463], [-61.5414747, 10.6833801], [-61.5415712, 10.6831244], [-61.5414988, 10.6828609], [-61.5415364, 10.6826764], [-61.5416034, 10.682484], [-61.5416288, 10.6822307], [-61.5415518, 10.6818509], [-61.5414687, 10.681532], [-61.5413747, 10.6813106], [-61.5413265, 10.6810127], [-61.5411736, 10.6807597], [-61.5409403, 10.6804724], [-61.5407719, 10.680204], [-61.5405761, 10.6799326], [-61.5404474, 10.6797823], [-61.5402945, 10.6797138], [-61.540037, 10.6796479], [-61.5398278, 10.6795108], [-61.5396427, 10.6793237], [-61.539455, 10.6792025], [-61.5392109, 10.6790997], [-61.5390687, 10.6790364], [-61.5389024, 10.6790338], [-61.5387174, 10.679018], [-61.5383284, 10.6788704], [-61.5380683, 10.6787412], [-61.5378939, 10.6786331], [-61.5377598, 10.6784038], [-61.5376659, 10.6782536], [-61.5375613, 10.6781086], [-61.5379469, 10.6777839], [-61.5380211, 10.6777415], [-61.5381052, 10.6777444], [-61.5382849, 10.6778314], [-61.5384673, 10.6780185], [-61.5386604, 10.6780976], [-61.5389385, 10.6780653], [-61.5390659, 10.6780435], [-61.539192, 10.6779968], [-61.5392604, 10.677919], [-61.5392798, 10.6777826], [-61.5392717, 10.6776872], [-61.5392215, 10.6776027], [-61.5391685, 10.6774584], [-61.5391142, 10.6773253], [-61.5390924, 10.6772251], [-61.5391001, 10.6771276], [-61.5391229, 10.6770202], [-61.5391672, 10.6769102], [-61.5392067, 10.6768176], [-61.5392516, 10.6767566], [-61.5392932, 10.676719], [-61.539367, 10.6766914], [-61.5395205, 10.6766617], [-61.5397317, 10.6766163], [-61.5399383, 10.6765558], [-61.5400401, 10.676526], [-61.5401608, 10.6764996], [-61.5402318, 10.6765035], [-61.5403143, 10.6765345], [-61.5404008, 10.6765866], [-61.5404776, 10.676643], [-61.5405366, 10.6766784], [-61.5405831, 10.6767238], [-61.5406187, 10.67676], [-61.5406535, 10.6768054], [-61.5406784, 10.6768594], [-61.5407289, 10.6769352], [-61.5407582, 10.6769336], [-61.5408039, 10.6768938], [-61.5408672, 10.6768263], [-61.5409349, 10.6766961], [-61.54101, 10.6765728], [-61.5410261, 10.6763738], [-61.5408296, 10.6758741], [-61.5407733, 10.675776], [-61.5406258, 10.6756521], [-61.5405185, 10.6755546], [-61.5404487, 10.6754597], [-61.5404461, 10.6754043], [-61.5404702, 10.6753147], [-61.5405587, 10.6752014], [-61.5407274, 10.6751504], [-61.5407829, 10.6751124], [-61.5408101, 10.6750537], [-61.5408242, 10.6747612], [-61.5408936, 10.6745065], [-61.5409021, 10.6743806], [-61.5408467, 10.6742386], [-61.5407657, 10.6740791], [-61.5407394, 10.6740444], [-61.5406667, 10.673981], [-61.540558, 10.6739362], [-61.5404628, 10.673894], [-61.5402878, 10.6738248], [-61.5401086, 10.673767], [-61.5399197, 10.6737122], [-61.5389447, 10.6734426], [-61.5389018, 10.6734301], [-61.5388652, 10.6734196], [-61.5385222, 10.6733233], [-61.5377726, 10.673123], [-61.5371127, 10.6729323], [-61.5366009, 10.6727868], [-61.536504, 10.6727589], [-61.5358269, 10.672572], [-61.5357128, 10.6725392], [-61.5349543, 10.6723174], [-61.5348873, 10.6722963], [-61.5344968, 10.6721788], [-61.534055, 10.6720528], [-61.5338169, 10.6719848], [-61.5331443, 10.6717929], [-61.5329552, 10.6717382], [-61.53258, 10.6716319], [-61.5322466, 10.6715368], [-61.5319131, 10.6714416], [-61.5313459, 10.6712798], [-61.5312792, 10.6712608], [-61.5307264, 10.6711017], [-61.5306395, 10.6710783], [-61.5301068, 10.6709287], [-61.5299975, 10.6708898], [-61.529858, 10.6708253], [-61.529732, 10.6707423], [-61.5295006, 10.6705803], [-61.5294518, 10.6705433], [-61.5294403, 10.6706183], [-61.5294322, 10.6707062], [-61.529412, 10.6711856], [-61.5294049, 10.6713562], [-61.5293808, 10.6719283], [-61.5293536, 10.6725905], [-61.5293299, 10.672894], [-61.5292884, 10.6733487], [-61.529255, 10.6737957], [-61.5292252, 10.6742385], [-61.5291758, 10.6748199], [-61.5291661, 10.674929], [-61.5291651, 10.6749397], [-61.5291569, 10.6750507], [-61.5291318, 10.6754162], [-61.5291284, 10.6754635], [-61.5291191, 10.6755934], [-61.5291121, 10.6757256], [-61.529133, 10.6758803], [-61.529169, 10.6760071], [-61.5291937, 10.6760872], [-61.5293177, 10.6762823], [-61.5294397, 10.6764402], [-61.5295277, 10.676541], [-61.5295429, 10.6765584], [-61.5296663, 10.6766688], [-61.5297897, 10.6767666], [-61.5298392, 10.6768086], [-61.5298713, 10.6768358], [-61.5299831, 10.6769317], [-61.5301049, 10.677046], [-61.5302135, 10.6771696], [-61.5302945, 10.6773286], [-61.5303362, 10.6774563], [-61.5303583, 10.6775597], [-61.5303675, 10.6776425], [-61.5303716, 10.6777873], [-61.5303683, 10.6779322], [-61.5303503, 10.6781703], [-61.5303289, 10.6783827], [-61.5303112, 10.678596], [-61.5302677, 10.6790166], [-61.5302491, 10.679286], [-61.5302391, 10.679459], [-61.5302376, 10.679555], [-61.530236, 10.6795741], [-61.5302443, 10.6796988], [-61.5302657, 10.6798162], [-61.5303047, 10.6799515], [-61.530354, 10.680061], [-61.5304127, 10.6801704], [-61.5305804, 10.6803797], [-61.5308357, 10.6806304], [-61.5309007, 10.6807221], [-61.5309564, 10.6808175], [-61.5309841, 10.6808997], [-61.531002, 10.6809704], [-61.5310084, 10.6810528], [-61.5310074, 10.6811628], [-61.5309812, 10.681278], [-61.5309513, 10.6813822], [-61.5309162, 10.6814553], [-61.5308535, 10.6815262], [-61.5308167, 10.6815524], [-61.53078, 10.6815786], [-61.5306111, 10.6816682], [-61.5301739, 10.6818237], [-61.5299338, 10.6819014], [-61.5298024, 10.6819304], [-61.5296964, 10.6819463], [-61.5295838, 10.6819331], [-61.5298098, 10.682594], [-61.5301504, 10.6834084], [-61.5302523, 10.6835376], [-61.5304306, 10.683735], [-61.5305065, 10.6838208], [-61.5306158, 10.6839593], [-61.5308639, 10.684356], [-61.5309832, 10.6846406], [-61.5310932, 10.6848673], [-61.5314821, 10.6852284], [-61.5316095, 10.6853088], [-61.5319086, 10.6858003], [-61.5321044, 10.6860085], [-61.5324276, 10.686313], [-61.5325309, 10.6863709], [-61.5327602, 10.6864368], [-61.5329815, 10.6866714], [-61.5332873, 10.6870773], [-61.5333476, 10.6871722], [-61.533412, 10.687412], [-61.5335313, 10.6878614], [-61.533585, 10.6879484], [-61.533652, 10.6881079], [-61.5336742, 10.6881658], [-61.5337204, 10.688411], [-61.5337419, 10.6886034], [-61.5338224, 10.688888], [-61.5338143, 10.6891911], [-61.5338653, 10.6894731], [-61.5338948, 10.6896787], [-61.5338358, 10.6898211], [-61.5337982, 10.6899581], [-61.5337821, 10.6901031], [-61.5336668, 10.6902533], [-61.5335676, 10.6904035], [-61.5335032, 10.6907383], [-61.5335139, 10.6910335], [-61.5334583, 10.6913041], [-61.53341, 10.6916784], [-61.5332973, 10.6918892], [-61.533131, 10.6919577], [-61.532777, 10.6920684], [-61.5326429, 10.6921212], [-61.5325839, 10.6923531], [-61.5326214, 10.6928064], [-61.5326352, 10.693083], [-61.5326482, 10.6933441], [-61.5326268, 10.6937605], [-61.5326268, 10.6940135], [-61.5325678, 10.6941559], [-61.5324337, 10.6941611], [-61.5323747, 10.6942297], [-61.5324015, 10.6944036], [-61.5349871, 10.6968022], [-61.5377911, 10.6987688], [-61.5377698, 10.6986504], [-61.5377462, 10.6985576], [-61.5377014, 10.6984531], [-61.5376815, 10.6983772], [-61.5376836, 10.6983132], [-61.537702, 10.6982603], [-61.5378006, 10.6981006], [-61.537815, 10.6979932], [-61.5378473, 10.6976877], [-61.5378993, 10.6974747], [-61.5379266, 10.6974086], [-61.5379347, 10.6973269], [-61.5382941, 10.6968314], [-61.5385007, 10.696357], [-61.5384604, 10.6961883], [-61.5383478, 10.6959537], [-61.5381957, 10.6957031], [-61.5380803, 10.6956452], [-61.5380173, 10.6956017], [-61.5379288, 10.6955226], [-61.5378832, 10.6954225], [-61.5380079, 10.6952525], [-61.5381005, 10.6950442], [-61.5381742, 10.6949665], [-61.5384505, 10.6948373], [-61.5386114, 10.6946713], [-61.5386208, 10.6944525], [-61.5385538, 10.694276], [-61.538531, 10.6941363], [-61.5385913, 10.6939847], [-61.5387576, 10.6938121], [-61.5391117, 10.6936803], [-61.5392498, 10.6936961], [-61.5393571, 10.6936843], [-61.5394287, 10.6936081], [-61.5394362, 10.6935314], [-61.5393705, 10.6934826], [-61.5392838, 10.6934288], [-61.5391304, 10.6933627], [-61.5389937, 10.6933139], [-61.5387295, 10.6933001], [-61.5384706, 10.6933944], [-61.5380468, 10.6936605], [-61.537792, 10.6938042], [-61.537678, 10.6938253], [-61.5376069, 10.6938016], [-61.5375935, 10.6937159], [-61.5376405, 10.6935327], [-61.5379213, 10.6931547], [-61.5380441, 10.6929252], [-61.5379744, 10.6926274], [-61.5379959, 10.6923401], [-61.5381675, 10.6919368], [-61.5381648, 10.6916575], [-61.5382051, 10.691415], [-61.5383284, 10.6912832], [-61.5386154, 10.691133], [-61.5387817, 10.6909537], [-61.538881, 10.6908193], [-61.5390178, 10.6906823], [-61.5392887, 10.6905452], [-61.5394603, 10.6903871], [-61.5396883, 10.6901077], [-61.54017, 10.689665], [-61.5408739, 10.6890034], [-61.5410361, 10.6888492], [-61.5412413, 10.6887635], [-61.5415471, 10.6887029], [-61.5418985, 10.6886475], [-61.5421667, 10.6885131], [-61.5424295, 10.6884762], [-61.5425985, 10.6884973], [-61.5426817, 10.6885421], [-61.5429016, 10.6887899], [-61.5429874, 10.6888637], [-61.5431296, 10.6888742], [-61.5433603, 10.6889269], [-61.5435936, 10.6891272], [-61.5437251, 10.6893091], [-61.5437948, 10.6893565], [-61.5439048, 10.689346], [-61.5440711, 10.6892696], [-61.5441167, 10.6891668]]]}, "bbox": [-61.5441167, 10.6705433, -61.5291121, 10.6987688]}