{"type": "Feature", "properties": {"name": "Westmoorings", "display_name": "Westmoorings by the Sea, Glencoe, Diego Martin, 110712, Trinidad and Tobago", "osm_type": "way", "osm_id": 549726264, "category": "place", "type": "suburb", "source": "OpenStreetMap / Nominatim", "license": "ODbL"}, "geometry": {"type": "Polygon", "coordinates": [[[-61.5622104, 10.6747312], [-61.5621523, 10.6746961], [-61.5618365, 10.6745127], [-61.5614833, 10.6743075], [-61.561349, 10.6742253], [-61.5612758, 10.6741711], [-61.5612731, 10.6741629], [-61.5612768, 10.6741526], [-61.5613381, 10.6740719], [-61.5613374, 10.6740617], [-61.5613328, 10.674053], [-61.5610826, 10.6738884], [-61.5610592, 10.6738795], [-61.561035, 10.6738752], [-61.5609727, 10.6738871], [-61.5609502, 10.6738867], [-61.5609257, 10.6738769], [-61.5608573, 10.6738347], [-61.5608483, 10.6738215], [-61.560851, 10.673805], [-61.5608659, 10.673783], [-61.5608664, 10.6737737], [-61.5608592, 10.6737635], [-61.5608044, 10.6737349], [-61.5607779, 10.6737237], [-61.5607809, 10.6736986], [-61.5608047, 10.6736489], [-61.5607997, 10.6736324], [-61.5607812, 10.6736218], [-61.5607557, 10.6736156], [-61.5607272, 10.6736442], [-61.5606867, 10.6737029], [-61.5606716, 10.6737174], [-61.5606501, 10.6737207], [-61.5605616, 10.6736726], [-61.5605009, 10.6735968], [-61.5604513, 10.6735715], [-61.5604342, 10.6735474], [-61.5604453, 10.6734934], [-61.5604573, 10.6734393], [-61.560452, 10.6734064], [-61.5604671, 10.6733464], [-61.5604291, 10.6733161], [-61.5603175, 10.6732891], [-61.5602287, 10.6733108], [-61.560114, 10.6732983], [-61.559929, 10.6733668], [-61.5597533, 10.6735685], [-61.5597023, 10.6736634], [-61.5596701, 10.673892], [-61.5596775, 10.6740396], [-61.5596667, 10.6741035], [-61.559657, 10.6741217], [-61.5596433, 10.674149], [-61.5595883, 10.6742735], [-61.5594609, 10.6746518], [-61.5594381, 10.6749694], [-61.5594059, 10.6753661], [-61.5593335, 10.675739], [-61.5591478, 10.6767288], [-61.5590023, 10.677368], [-61.5587401, 10.678618], [-61.5585215, 10.6797863], [-61.5584819, 10.6800057], [-61.5584564, 10.6801731], [-61.5591634, 10.6804838], [-61.5592894, 10.6805104], [-61.5599453, 10.6807912], [-61.5611295, 10.6813314], [-61.5618978, 10.6816622], [-61.5619147, 10.6810796], [-61.561917, 10.6809369], [-61.5619949, 10.6792224], [-61.5620264, 10.6780578], [-61.5620464, 10.6774856], [-61.5620697, 10.6771008], [-61.5621229, 10.6756881], [-61.5621365, 10.6753779], [-61.5622104, 10.6747312]]]}, "bbox": [-61.5622104, 10.6732891, -61.5584564, 10.6816622]}